{"version": 0.6, "generator": "Overpass API 0.7.61.5 4133829e", "osm3s": {"timestamp_osm_base": "2024-02-25T09:23:29Z", "copyright": "The data included in this document is from www.openstreetmap.org. The data is made available under ODbL."}, "elements": [{"type": "node", "id": 3925732770, "lat": 21.336014, "lon": 79.3836057, "tags": {"amenity": "clinic", "name": "Dr. Abdul Gani Clinic"}}, {"type": "node", "id": 3943429775, "lat": 21.3355459, "lon": 79.3853675}, {"type": "node", "id": 3943430002, "lat": 21.3355989, "lon": 79.3853909}, {"type": "node", "id": 3943430003, "lat": 21.3355816, "lon": 79.3854548}, {"type": "node", "id": 3943430004, "lat": 21.335663, "lon": 79.385491}, {"type": "node", "id": 3943430581, "lat": 21.335714, "lon": 79.3853199}, {"type": "node", "id": 3943430582, "lat": 21.335575, "lon": 79.3852738}, {"type": "node", "id": 4494249433, "lat": 21.2139113, "lon": 79.2020305, "tags": {"addr:district": "Nagpur", "addr:full": "Gujari Bazar, Kamptee", "addr:postcode": "441002", "addr:state": "Maharashtra", "amenity": "hospital", "healthcare": "hospital", "name": "Choudhary Hospital", "source": "OpenGovernmentData"}}, {"type": "node", "id": 6225366728, "lat": 21.2140788, "lon": 79.19432, "tags": {"addr:district": "Nagpur", "addr:full": "Durga Chowk, Goyal Talkies Road, Kamptee", "addr:postcode": "440002", "addr:state": "Maharashtra", "amenity": "clinic", "healthcare": "clinic", "name": "Pranjal Nursing Home", "source": "OpenGovernmentData"}}, {"type": "node", "id": 6225367304, "lat": 21.2101981, "lon": 79.1872296, "tags": {"amenity": "hospital", "healthcare": "hospital", "name": "Lifeline Hospital"}}, {"type": "node", "id": 7042981401, "lat": 21.2145602, "lon": 79.198059, "tags": {"addr:district": "Nagpur", "addr:full": "Main Raod,Near Bus Stand", "addr:postcode": "441002", "addr:state": "Maharashtra", "amenity": "hospital", "healthcare": "hospital", "name": "Roy Hospital", "source": "OpenGovernmentData"}}, {"type": "node", "id": 7066374808, "lat": 21.2183208, "lon": 79.1980241, "tags": {"addr:district": "Nagpur", "addr:full": "N-77To N-784,Lala Oli Kamptee Kamptee", "addr:postcode": "441002", "addr:state": "Maharashtra", "amenity": "hospital", "healthcare": "hospital", "name": "Prabhat Hospital, Nagpur", "source": "OpenGovernmentData"}}, {"type": "node", "id": 7076529368, "lat": 21.2171518, "lon": 79.2027609, "tags": {"addr:district": "Nagpur", "addr:full": "Third Floor, Besides Bharat Talkies, Kamptee Road, Sadar", "addr:postcode": "440001", "addr:state": "Maharashtra", "amenity": "hospital", "healthcare": "hospital", "name": "Hope Multispeciality Hospital and Research Centre", "source": "OpenGovernmentData"}}, {"type": "node", "id": 7085742091, "lat": 21.2154291, "lon": 79.1983306, "tags": {"addr:district": "Nagpur", "addr:full": "Main Road, Kamptee", "addr:postcode": "441002", "addr:state": "Maharashtra", "amenity": "clinic", "healthcare": "clinic", "name": "Sayali Nursing Home, Nagpur", "source": "OpenGovernmentData"}}, {"type": "node", "id": 7226796669, "lat": 21.014474, "lon": 79.362609, "tags": {"addr:district": "Nagpur", "addr:full": "Rural Hospital Kuhi, Near Z P High School, Kuhi", "addr:postcode": "441202", "addr:state": "Maharashtra", "addr:subdistrict": "Kuhi", "amenity": "hospital", "name": "Rural Hospital, Kuhi", "source": "OpenGovernmentData"}}, {"type": "node", "id": 7226989681, "lat": 21.2139197, "lon": 79.1990031, "tags": {"addr:district": "Nagpur", "addr:full": "Kamptee", "addr:postcode": "441002", "addr:state": "Maharashtra", "addr:subdistrict": "Kamptee", "amenity": "hospital", "description": "Sub District Hospital", "healthcare": "hospital", "name": "SDH, Kamptee", "source": "OpenGovernmentData"}}, {"type": "node", "id": 7626201905, "lat": 21.1498466, "lon": 79.5420296}, {"type": "node", "id": 7626201906, "lat": 21.1497753, "lon": 79.5420282}, {"type": "node", "id": 7626201907, "lat": 21.1497783, "lon": 79.5418484}, {"type": "node", "id": 7626201908, "lat": 21.1498496, "lon": 79.5418498}, {"type": "node", "id": 7628156061, "lat": 21.2146505, "lon": 79.1978246, "tags": {"addr:district": "Nagpur", "addr:full": "Husainabad, Shiv Panchayat Nagar, Kamptee", "addr:postcode": "441002", "addr:state": "Maharastra", "amenity": "hospital", "healthcare": "hospital", "name": "Rathi Hospital", "source": "Local Knowledge"}}, {"type": "node", "id": 7628156062, "lat": 21.2163457, "lon": 79.1985707, "tags": {"addr:district": "Nagpur", "addr:full": "Juni Oli, Shiv Panchayat Nagar, Kamptee", "addr:postcode": "441002", "addr:state": "Maharastra", "amenity": "dentist", "healthcare": "dentist", "name": "Dr. Amar Nagpal's Eye and Dental Clinic", "source": "Local Knowledge"}}, {"type": "node", "id": 7628156072, "lat": 21.2165973, "lon": 79.1933812, "tags": {"addr:district": "Nagpur", "addr:full": "Gujri Bazar, Kamptee, Nagpur", "addr:postcode": "441002", "addr:state": "Maharastra", "amenity": "hospital", "healthcare": "hospital", "name": "Kazmi Nursing Home", "source": "Local Knowledge"}}, {"type": "node", "id": 7628156073, "lat": 21.228413, "lon": 79.235762, "tags": {"addr:district": "Nagpur", "addr:full": "J N Road, Bharat, Swami Vivekanand Nagar, Kanhan", "addr:postcode": "441404", "addr:state": "Maharastra", "amenity": "clinic", "name": "Dr. Choubey Clinic", "source": "Local Knowledge"}}, {"type": "node", "id": 7628156084, "lat": 21.2158795, "lon": 79.1907628, "tags": {"addr:district": "Nagpur", "addr:full": "Shufi Nagar, Kamptee", "addr:postcode": "441001", "addr:state": "Maharastra", "amenity": "hospital", "healthcare": "hospital", "name": "Mehta Hospital", "source": "Local Knowledge"}}, {"type": "node", "id": 7628156086, "lat": 21.2148692, "lon": 79.1904067, "tags": {"addr:district": "Nagpur", "addr:full": "Shufi Nagar, Kamptee", "addr:postcode": "441001", "addr:state": "Maharastra", "amenity": "clinic", "healthcare": "clinic", "name": "Simna Clinic", "source": "Local Knowledge"}}, {"type": "node", "id": 7628156096, "lat": 21.2142922, "lon": 79.1982611, "tags": {"addr:district": "Nagpur", "addr:full": "Husainabad, Kamptee, Opp. Roy Hospital, Nagpur", "addr:postcode": "441002", "addr:state": "Maharastra", "amenity": "clinic", "healthcare": "clinic", "name": "Dr. Masood Hasan Clinic", "source": "Local Knowledge"}}, {"type": "node", "id": 7628156101, "lat": 21.1491734, "lon": 79.4037197, "tags": {"addr:district": "Nagpur", "addr:full": "Lapka Road, Mauda, Bhandara", "addr:postcode": "441104", "addr:state": "Maharastra", "amenity": "hospital", "name": "Baghe Multispeciality Hospital", "source": "Local Knowledge"}}, {"type": "node", "id": 7628156104, "lat": 21.2187271, "lon": 79.1907291, "tags": {"addr:district": "Nagpur", "addr:full": "Near Old Ice Factory, Waris Pura, Kamptee", "addr:postcode": "441001", "addr:state": "Maharastra", "amenity": "dentist", "healthcare": "dentist", "name": "Siddiqui Dental Clinic", "source": "Local Knowledge"}}, {"type": "node", "id": 7628156107, "lat": 21.2172071, "lon": 79.1897102, "tags": {"addr:district": "Nagpur", "addr:full": "Ismail Pura, Kamptee", "addr:postcode": "441001", "addr:state": "Maharastra", "amenity": "clinic", "healthcare": "clinic", "name": "Fatema Clinic", "source": "Local Knowledge"}}, {"type": "node", "id": 7628156114, "lat": 21.2496605, "lon": 79.2384427, "tags": {"addr:district": "Nagpur", "addr:full": "Kandri", "addr:postcode": "441404", "addr:state": "Maharastra", "amenity": "hospital", "name": "Jawaharlal Nehru Hospital", "name:etymology:wikidata": "Q1047", "source": "Local Knowledge"}}, {"type": "node", "id": 7628156116, "lat": 21.2146906, "lon": 79.2017327, "tags": {"addr:district": "Nagpur", "addr:full": "Ram Mandir Road, Modi Road, Kamptee", "addr:postcode": "441001", "addr:state": "Maharastra", "amenity": "hospital", "healthcare": "hospital", "name": "Mahure Hospital", "source": "Local Knowledge"}}, {"type": "node", "id": 7628156132, "lat": 21.2182705, "lon": 79.1900692, "tags": {"addr:district": "Nagpur", "addr:full": "Shufi Nagar, Kamptee", "addr:postcode": "441002", "addr:state": "Maharastra", "amenity": "hospital", "healthcare": "hospital", "name": "Relief Hospital", "source": "Local Knowledge"}}, {"type": "node", "id": 7628156133, "lat": 21.223652, "lon": 79.196447, "tags": {"addr:district": "Nagpur", "addr:full": "Army Cantonment, Kamptee", "addr:postcode": "441001", "addr:state": "Maharastra", "amenity": "hospital", "name": "Cantonment Board Hospital", "source": "Local Knowledge"}}, {"type": "node", "id": 7628156142, "lat": 21.2186796, "lon": 79.1908824, "tags": {"addr:district": "Nagpur", "addr:full": "Waris Pura, Kamptee", "addr:postcode": "441002", "addr:state": "Maharastra", "amenity": "clinic", "healthcare": "clinic", "name": "Jamal Clinic", "source": "Local Knowledge"}}, {"type": "node", "id": 8599121915, "lat": 21.1089639, "lon": 79.5446849}, {"type": "node", "id": 8599121916, "lat": 21.1087562, "lon": 79.5447117}, {"type": "node", "id": 8599123017, "lat": 21.1087862, "lon": 79.544878}, {"type": "node", "id": 8599123018, "lat": 21.1088638, "lon": 79.54487}, {"type": "node", "id": 8599123019, "lat": 21.1088788, "lon": 79.5450711}, {"type": "node", "id": 8599123020, "lat": 21.1086311, "lon": 79.5451194}, {"type": "node", "id": 8599123021, "lat": 21.1085935, "lon": 79.544819}, {"type": "node", "id": 8599123022, "lat": 21.1086786, "lon": 79.5448083}, {"type": "node", "id": 8599123023, "lat": 21.1086486, "lon": 79.5446554}, {"type": "node", "id": 8599123024, "lat": 21.1083933, "lon": 79.5446956}, {"type": "node", "id": 8599123025, "lat": 21.1084409, "lon": 79.5450121}, {"type": "node", "id": 8599123026, "lat": 21.1082983, "lon": 79.5450228}, {"type": "node", "id": 8599123027, "lat": 21.1083433, "lon": 79.5452696}, {"type": "node", "id": 8599123028, "lat": 21.1085185, "lon": 79.5452401}, {"type": "node", "id": 8599123029, "lat": 21.1085535, "lon": 79.5454761}, {"type": "node", "id": 8599123030, "lat": 21.1086486, "lon": 79.54546}, {"type": "node", "id": 8599123031, "lat": 21.1086511, "lon": 79.5455244}, {"type": "node", "id": 8599123032, "lat": 21.108606, "lon": 79.5455405}, {"type": "node", "id": 8599123033, "lat": 21.108606, "lon": 79.5456156}, {"type": "node", "id": 8599123034, "lat": 21.1088012, "lon": 79.54557}, {"type": "node", "id": 8599123035, "lat": 21.1087712, "lon": 79.5454279}, {"type": "node", "id": 8599123036, "lat": 21.1088863, "lon": 79.5453984}, {"type": "node", "id": 8599123037, "lat": 21.1088638, "lon": 79.5452347}, {"type": "node", "id": 8599123038, "lat": 21.1089238, "lon": 79.5452267}, {"type": "node", "id": 8599123039, "lat": 21.1090639, "lon": 79.5451945}, {"type": "node", "id": 8599123040, "lat": 21.1089689, "lon": 79.5447198}, {"type": "way", "id": 391170882, "nodes": [3943430581, 3943430582, 3943429775, 3943430002, 3943430003, 3943430004, 3943430581], "tags": {"addr:place": "Kachurwahi", "addr:state": "Maharashtra", "amenity": "hospital", "description": "Health- Sub Centre", "healthcare": "centre", "name:mr": "\u092a\u094d\u0930\u093e\u0925\u092e\u093f\u0915 \u0906\u0930\u094b\u0917\u094d\u092f \u0909\u092a\u0915\u0947\u0928\u094d\u0926\u094d\u0930 \u0915\u093e\u091a\u0941\u0930\u0935\u093e\u0939\u0940", "source": "OpenGovernmentData"}}, {"type": "way", "id": 816538001, "nodes": [7626201908, 7626201905, 7626201906, 7626201907, 7626201908], "tags": {"addr:district": "Bhandara", "addr:full": "Thana", "addr:postcode": "441906", "addr:state": "Maharastra", "amenity": "hospital", "building": "yes", "healthcare": "hospital", "name": "Vimal Hospital", "source": "Local Knowledge"}}, {"type": "way", "id": 926714197, "nodes": [8599123040, 8599123039, 8599123038, 8599123037, 8599123036, 8599123035, 8599123034, 8599123033, 8599123032, 8599123031, 8599123030, 8599123029, 8599123028, 8599123027, 8599123026, 8599123025, 8599123024, 8599123023, 8599123022, 8599123021, 8599123020, 8599123019, 8599123018, 8599123017, 8599121916, 8599121915, 8599123040], "tags": {"building": "hospital", "building:levels": "G", "name": "Ordanace Factory Hospital"}}]}