{"version": 0.6, "generator": "Overpass API 0.7.61.5 4133829e", "osm3s": {"timestamp_osm_base": "2024-02-25T09:45:57Z", "copyright": "The data included in this document is from www.openstreetmap.org. The data is made available under ODbL."}, "elements": [{"type": "node", "id": 316681502, "lat": 26.9445145, "lon": 75.766114, "tags": {"internet_access": "no", "name": "Dahar-Ka-Balaji", "network": "IR", "operator": "NWR", "public_transport": "station", "railway": "station", "ref": "DKBJ", "train": "yes", "wikidata": "Q24949507", "wikipedia": "en:Dahar Ka Balaji railway station"}}, {"type": "node", "id": 1064270856, "lat": 26.9235814, "lon": 75.8005946, "tags": {"amenity": "bus_station", "bus": "yes", "name": "Sindhi Camp", "name:en": "Jaipur Main Bus station", "operator": "RSRTC", "public_transport": "station"}}, {"type": "node", "id": 1064270892, "lat": 26.8355542, "lon": 75.7936432, "tags": {"construction": "station", "disused": "yes", "name": "Durgapura Metro (u/c)", "network": "Jaipur Metro", "operator": "NWR", "railway": "station", "station": "subway"}}, {"type": "node", "id": 1064270917, "lat": 26.9397287, "lon": 75.7777965, "tags": {"construction": "station", "disused": "yes", "name": "Ambabadi Metro (u/c)", "network": "Jaipur Metro", "note": "Contributors are requested to not edit the \"network\" and the \"operator\" tags. (2023/11/08)", "operator": "Jaipur Metro Rail Corporation Limited", "railway": "station", "station": "subway", "subway": "yes"}}, {"type": "node", "id": 1753726590, "lat": 26.8735108, "lon": 75.7992162, "tags": {"internet_access": "no", "name": "Gandhinagar Jaipur", "name:de": "Gandhinagar Jaipur", "network": "IR", "operator": "NWR", "public_transport": "station", "railway": "station", "ref": "GADJ", "train": "yes", "wikidata": "Q5520716", "wikipedia": "en:Gandhinagar Jaipur railway station"}}, {"type": "node", "id": 1946919383, "lat": 26.9017919, "lon": 75.7895065, "tags": {"internet_access": "no", "name": "Bais Godam", "network": "IR", "operator": "NWR", "railway": "station", "ref": "BSGD", "train": "no", "wikidata": "Q24949515", "wikipedia": "en:Bais Godam railway station"}}, {"type": "node", "id": 1946937441, "lat": 26.9291996, "lon": 75.703282, "tags": {"historic:ref": "KKUF", "internet_access": "no", "name": "Kanakpura", "network": "IR", "operator": "NWR", "public_transport": "station", "railway": "station", "ref": "KKU", "train": "yes", "wikidata": "Q24949546", "wikipedia": "en:Kanakpura railway station"}}, {"type": "node", "id": 1946937461, "lat": 26.923616, "lon": 75.6515943, "tags": {"historic:ref": "BDYF", "internet_access": "no", "name": "Bindayaka", "network": "IR", "operator": "NWR", "public_transport": "station", "railway": "station", "ref": "BDYK", "train": "yes", "wikidata": "Q63371786"}}, {"type": "node", "id": 1947684373, "lat": 27.103678, "lon": 75.7133363, "tags": {"internet_access": "no", "name": "Bhaton-Ki-Gali", "network": "IR", "operator": "NWR", "public_transport": "station", "railway": "station", "ref": "BHG", "train": "yes", "wikidata": "Q25549325"}}, {"type": "node", "id": 1947684377, "lat": 27.0041066, "lon": 75.7295583, "tags": {"internet_access": "no", "name": "Nindhar Benar", "network": "IR", "operator": "NWR", "public_transport": "station", "railway": "station", "ref": "NDH", "train": "yes", "wikidata": "Q63355333"}}, {"type": "node", "id": 2187794615, "lat": 26.9060036, "lon": 75.4984928, "tags": {"historic:ref": "BOBF", "internet_access": "no", "name": "Bobas", "network": "IR", "operator": "NWR", "public_transport": "station", "railway": "station", "ref": "BOBS", "train": "yes", "wikidata": "Q25549447"}}, {"type": "node", "id": 2187794616, "lat": 26.9135978, "lon": 75.5676741, "tags": {"historic:ref": "SHNF", "internet_access": "no", "name": "Sheo Singh Pura", "network": "IR", "operator": "NWR", "public_transport": "station", "railway": "station", "ref": "SHNX", "train": "yes", "wikidata": "Q63371754"}}, {"type": "node", "id": 2187794617, "lat": 26.9184279, "lon": 75.6054696, "tags": {"historic:ref": "DNKF", "internet_access": "no", "name": "Dhanakya", "network": "IR", "operator": "NWR", "public_transport": "station", "railway": "station", "ref": "DNK", "train": "yes", "wikidata": "Q31293368"}}, {"type": "node", "id": 2187794618, "lat": 26.9005527, "lon": 75.4243582, "tags": {"historic:ref": "JOBF", "internet_access": "no", "name": "AsaIpur Jobner", "network": "IR", "operator": "NWR", "public_transport": "station", "railway": "station", "ref": "JOB", "train": "yes", "wikidata": "Q63371753"}}, {"type": "node", "id": 2188691233, "lat": 26.855093, "lon": 75.7870163, "tags": {"internet_access": "no", "name": "Durgapura", "network": "IR", "operator": "NWR", "public_transport": "station", "railway": "station", "ref": "DPA", "train": "yes", "wikidata": "Q17052166", "wikipedia": "en:Durgapura railway station"}}, {"type": "node", "id": 2188691283, "lat": 26.8146217, "lon": 75.7731874, "tags": {"internet_access": "no", "name": "Sanganer", "network": "IR", "operator": "NWR", "public_transport": "station", "railway": "station", "ref": "SNGN", "train": "yes", "wikidata": "Q63371819"}}, {"type": "node", "id": 2669084994, "lat": 26.9207888, "lon": 75.7866539, "tags": {"internet_access": "wlan", "name": "Jaipur Junction", "network": "IR", "operator": "NWR", "public_transport": "station", "railway": "station", "ref": "JP", "train": "yes", "wheelchair": "yes", "wikidata": "Q6124154", "wikipedia": "en:Jaipur Junction railway station"}}, {"type": "node", "id": 2694208884, "lat": 26.9122858, "lon": 75.7926124}, {"type": "node", "id": 2694208903, "lat": 26.91245, "lon": 75.7907138}, {"type": "node", "id": 2694208920, "lat": 26.9132946, "lon": 75.7907892}, {"type": "node", "id": 2694208922, "lat": 26.912383, "lon": 75.7907326}, {"type": "node", "id": 2694208944, "lat": 26.9137262, "lon": 75.7920792}, {"type": "node", "id": 2694208977, "lat": 26.9123304, "lon": 75.7907701}, {"type": "node", "id": 2694209011, "lat": 26.9123017, "lon": 75.7908318}, {"type": "node", "id": 5284145023, "lat": 26.917631, "lon": 75.7902938, "tags": {"addr:street": "Hasanpura Road", "amenity": "bus_station", "bus": "yes", "name:en": "Kalpana Chembar, near Hasanapura Puliya railway st.", "public_transport": "station"}}, {"type": "node", "id": 5391526672, "lat": 26.9226849, "lon": 75.7998222, "tags": {"name": "Sindhi Camp", "name:hi": "\u0938\u093f\u0928\u094d\u0927\u0940 \u0915\u0948\u0902\u092a", "network": "Jaipur Metro", "note": "Contributors are requested to not edit the \"network\" and the \"operator\" tags. (2023/11/08)", "operator": "Jaipur Metro Rail Corporation Limited", "public_transport": "station", "public_transport:version": "2", "railway": "station", "ref": "SICP", "shelter": "yes", "station": "subway", "subway": "yes", "wheelchair": "yes", "wikidata": "Q28180440", "wikipedia": "en:Sindhi Camp metro station"}}, {"type": "node", "id": 5391527174, "lat": 26.9181132, "lon": 75.790129, "tags": {"name": "Railway Station", "name:hi": "\u0930\u0947\u0932\u0935\u0947 \u0938\u094d\u091f\u0947\u0936\u0928", "network": "Jaipur Metro", "note": "Contributors are requested to not edit the \"network\" and the \"operator\" tags. (2023/11/08)", "operator": "Jaipur Metro Rail Corporation Limited", "public_transport": "station", "public_transport:version": "2", "railway": "station", "ref": "MRSN", "shelter": "yes", "station": "subway", "subway": "yes", "wheelchair": "yes", "wikidata": "Q28180437", "wikipedia": "en:Railway Station metro station"}}, {"type": "node", "id": 6133852985, "lat": 26.923305, "lon": 75.8006345, "tags": {"addr:postcode": "302006", "amenity": "bus_station", "bus": "yes", "name": "Sindhi Camp Bus Stand", "public_transport": "station"}}, {"type": "node", "id": 6783208321, "lat": 26.9096783, "lon": 75.7812494, "tags": {"name": "Civil Lines", "name:hi": "\u0938\u093f\u0935\u093f\u0932 \u0932\u093e\u0907\u0928\u094d\u0938", "network": "Jaipur Metro", "note": "Contributors are requested to not edit the \"network\" and the \"operator\" tags. (2023/11/08)", "operator": "Jaipur Metro Rail Corporation Limited", "public_transport": "station", "public_transport:version": "2", "railway": "station", "ref": "CLJP", "shelter": "yes", "station": "subway", "subway": "yes", "wheelchair": "yes", "wikidata": "Q28180430", "wikipedia": "en:Civil Lines metro station (Jaipur)"}}, {"type": "node", "id": 6976254817, "lat": 26.8994995, "lon": 75.8132041, "tags": {"amenity": "bus_station", "bus": "yes", "name": "RSRTC/Roadways Bus Stand", "public_transport": "station"}}, {"type": "node", "id": 7043371112, "lat": 26.9418055, "lon": 75.7734224, "tags": {"amenity": "bus_station", "bus": "yes", "name": "Chomu Pulia", "public_transport": "station"}}, {"type": "node", "id": 7079400604, "lat": 26.8998345, "lon": 75.8129319, "tags": {"amenity": "bus_station", "bus": "yes", "name": "Volvo Stand", "operator": "RSRTC", "public_transport": "station"}}, {"type": "node", "id": 7085549689, "lat": 26.9023892, "lon": 75.7746734}, {"type": "node", "id": 8041984318, "lat": 26.9620647, "lon": 75.7720134}, {"type": "node", "id": 8041984319, "lat": 26.9620142, "lon": 75.7725992}, {"type": "node", "id": 8041984320, "lat": 26.9631805, "lon": 75.7726891}, {"type": "node", "id": 8041984321, "lat": 26.9632417, "lon": 75.7721541}, {"type": "node", "id": 8041984328, "lat": 26.9651783, "lon": 75.772418}, {"type": "node", "id": 8041984329, "lat": 26.9647766, "lon": 75.7733845}, {"type": "node", "id": 8041984330, "lat": 26.9636501, "lon": 75.7727572}, {"type": "node", "id": 8041984331, "lat": 26.9635134, "lon": 75.7727247}, {"type": "node", "id": 8041984332, "lat": 26.963559, "lon": 75.7721671}, {"type": "node", "id": 8041984352, "lat": 26.9398358, "lon": 75.7798139}, {"type": "node", "id": 8041984353, "lat": 26.9400599, "lon": 75.779887}, {"type": "node", "id": 8041984354, "lat": 26.9402099, "lon": 75.7800244}, {"type": "node", "id": 8041984355, "lat": 26.9402246, "lon": 75.7801642}, {"type": "node", "id": 8041984356, "lat": 26.9403239, "lon": 75.7802873}, {"type": "node", "id": 8041984357, "lat": 26.9404105, "lon": 75.7803892}, {"type": "node", "id": 8041984358, "lat": 26.9404358, "lon": 75.7804816}, {"type": "node", "id": 8041984359, "lat": 26.9404865, "lon": 75.7805171}, {"type": "node", "id": 8041984360, "lat": 26.9405266, "lon": 75.7805882}, {"type": "node", "id": 8041984361, "lat": 26.9405372, "lon": 75.7806379}, {"type": "node", "id": 8041984362, "lat": 26.9405287, "lon": 75.78078}, {"type": "node", "id": 8041984363, "lat": 26.9404696, "lon": 75.7807966}, {"type": "node", "id": 8041984364, "lat": 26.9400135, "lon": 75.7808132}, {"type": "node", "id": 8041984365, "lat": 26.9397992, "lon": 75.7808519}, {"type": "node", "id": 8041984366, "lat": 26.9397671, "lon": 75.7805689}, {"type": "node", "id": 8041984367, "lat": 26.9397845, "lon": 75.7802874}, {"type": "node", "id": 8041984452, "lat": 26.9369783, "lon": 75.7935437}, {"type": "node", "id": 8041984453, "lat": 26.9359619, "lon": 75.7928792}, {"type": "node", "id": 8041984454, "lat": 26.9356823, "lon": 75.7926565}, {"type": "node", "id": 8041984455, "lat": 26.935589, "lon": 75.7927915}, {"type": "node", "id": 8041984456, "lat": 26.9358537, "lon": 75.7929804}, {"type": "node", "id": 8041984457, "lat": 26.935562, "lon": 75.7934357}, {"type": "node", "id": 8041984458, "lat": 26.9360642, "lon": 75.7937831}, {"type": "node", "id": 8041984459, "lat": 26.9365092, "lon": 75.7940564}, {"type": "node", "id": 8041984460, "lat": 26.9366776, "lon": 75.7938067}, {"type": "node", "id": 8041984461, "lat": 26.9369121, "lon": 75.7939956}, {"type": "node", "id": 8041984462, "lat": 26.9370625, "lon": 75.7936044}, {"type": "node", "id": 8044083221, "lat": 26.9266005, "lon": 75.807892, "tags": {"name": "Chandpole", "name:hi": "\u091a\u093e\u0902\u0926\u092a\u094b\u0932", "network": "Jaipur Metro", "note": "Contributors are requested to not edit the \"network\" and the \"operator\" tags. (2023/11/08)", "operator": "Jaipur Metro Rail Corporation Limited", "public_transport": "station", "public_transport:version": "2", "railway": "station", "ref": "CDPE", "shelter": "yes", "station": "subway", "subway": "yes", "wheelchair": "yes", "wikidata": "Q28180449", "wikipedia": "en:Chandpole metro station"}}, {"type": "node", "id": 8044083222, "lat": 26.9247317, "lon": 75.8184589, "tags": {"name": "Choti Chaupar", "name:hi": "\u091b\u094b\u091f\u0940 \u091a\u094c\u092a\u0921\u093c", "network": "Jaipur Metro", "note": "Contributors are requested to not edit the \"network\" and the \"operator\" tags. (2023/11/08)", "operator": "Jaipur Metro Rail Corporation Limited", "public_transport": "station", "public_transport:version": "2", "railway": "station", "ref": "CDPE", "shelter": "yes", "station": "subway", "subway": "yes", "wheelchair": "yes", "wikidata": "Q20717371", "wikipedia": "en:Chhoti Chaupar metro station"}}, {"type": "node", "id": 8044083223, "lat": 26.9229585, "lon": 75.8268223, "tags": {"name": "Badi Chaupar", "name:hi": "\u092c\u0921\u093c\u0940 \u091a\u094c\u092a\u0921\u093c", "network": "Jaipur Metro", "note": "Contributors are requested to not edit the \"network\" and the \"operator\" tags. (2023/11/08)", "operator": "Jaipur Metro Rail Corporation Limited", "public_transport": "station", "public_transport:version": "2", "railway": "station", "shelter": "yes", "station": "subway", "subway": "yes", "wheelchair": "yes", "wikidata": "Q20311991", "wikipedia": "en:Badi Chaupar metro station"}}, {"type": "node", "id": 8084157103, "lat": 26.9020437, "lon": 75.7930168, "tags": {"amenity": "bus_station", "bus": "yes", "name": "22 Godam Public Bus Stop", "public_transport": "station"}}, {"type": "node", "id": 8084816076, "lat": 26.9013469, "lon": 75.7747972}, {"type": "node", "id": 8085169665, "lat": 26.9024152, "lon": 75.7746791}, {"type": "node", "id": 8085169666, "lat": 26.9023767, "lon": 75.7748985}, {"type": "node", "id": 8085169667, "lat": 26.9018217, "lon": 75.7747759}, {"type": "node", "id": 8085169668, "lat": 26.9014447, "lon": 75.7746927}, {"type": "node", "id": 8085169669, "lat": 26.9014349, "lon": 75.7747485}, {"type": "node", "id": 8085169670, "lat": 26.9017351, "lon": 75.7748148}, {"type": "node", "id": 8085169671, "lat": 26.9017236, "lon": 75.7748803}, {"type": "node", "id": 8085169672, "lat": 26.9013678, "lon": 75.7746785}, {"type": "node", "id": 8085169673, "lat": 26.9011109, "lon": 75.7746217}, {"type": "node", "id": 8085169674, "lat": 26.9011313, "lon": 75.7745055}, {"type": "node", "id": 8085169675, "lat": 26.9011495, "lon": 75.7744016}, {"type": "node", "id": 8085169676, "lat": 26.9012319, "lon": 75.7744198}, {"type": "node", "id": 8085169677, "lat": 26.9021119, "lon": 75.7746141}, {"type": "node", "id": 8085169678, "lat": 26.9021181, "lon": 75.7745788}, {"type": "node", "id": 8085169679, "lat": 26.9018518, "lon": 75.77452}, {"type": "node", "id": 8085169680, "lat": 26.9018627, "lon": 75.774458}, {"type": "node", "id": 8085169681, "lat": 26.9022164, "lon": 75.7745361}, {"type": "node", "id": 8085169682, "lat": 26.9022049, "lon": 75.7746015}, {"type": "node", "id": 8085169683, "lat": 26.9021996, "lon": 75.7746315}, {"type": "node", "id": 8140108469, "lat": 26.8794402, "lon": 75.7502389, "tags": {"name": "Manasarovar", "name:hi": "\u092e\u093e\u0928\u0938\u0930\u094b\u0935\u0930", "network": "Jaipur Metro", "note": "Contributors are requested to not edit the \"network\" and the \"operator\" tags. (2023/11/08)", "operator": "Jaipur Metro Rail Corporation Limited", "public_transport": "station", "public_transport:version": "2", "railway": "station", "ref": "MSOR", "shelter": "yes", "station": "subway", "subway": "yes", "wheelchair": "yes", "wikidata": "Q28180399", "wikipedia": "en:Mansarovar metro station"}}, {"type": "node", "id": 8149193787, "lat": 26.8964768, "lon": 75.7706279, "tags": {"name": "Shyam Nagar", "name:hi": "\u0936\u094d\u092f\u093e\u092e \u0928\u0917\u0930", "network": "Jaipur Metro", "note": "Contributors are requested to not edit the \"network\" and the \"operator\" tags. (2023/11/08)", "operator": "Jaipur Metro Rail Corporation Limited", "public_transport": "station", "public_transport:version": "2", "railway": "station", "ref": "SMNR", "shelter": "yes", "station": "subway", "subway": "yes", "wheelchair": "yes", "wikidata": "Q28180421", "wikipedia": "en:Shyam Nagar metro station"}}, {"type": "node", "id": 8149193788, "lat": 26.8884539, "lon": 75.768407, "tags": {"name": "Vivek Vihar", "name:hi": "\u0935\u093f\u0935\u0947\u0915 \u0935\u093f\u0939\u093e\u0930", "network": "Jaipur Metro", "note": "Contributors are requested to not edit the \"network\" and the \"operator\" tags. (2023/11/08)", "operator": "Jaipur Metro Rail Corporation Limited", "public_transport": "station", "public_transport:version": "2", "railway": "station", "ref": "VKVR", "shelter": "yes", "station": "subway", "subway": "yes", "wheelchair": "yes", "wikidata": "Q28180413", "wikipedia": "en:Vivek Vihar metro station"}}, {"type": "node", "id": 8149193789, "lat": 26.880154, "lon": 75.764466, "tags": {"name": "New Aatish Market", "name:hi": "\u0928\u092f\u093e \u0906\u0924\u093f\u0936 \u092e\u093e\u0930\u094d\u0915\u0947\u091f", "network": "Jaipur Metro", "note": "Contributors are requested to not edit the \"network\" and the \"operator\" tags. (2023/11/08)", "operator": "Jaipur Metro Rail Corporation Limited", "public_transport": "station", "public_transport:version": "2", "railway": "station", "ref": "NAMT", "shelter": "yes", "station": "subway", "subway": "yes", "wheelchair": "yes", "wikidata": "Q28180408", "wikipedia": "en:New Aatish Market metro station"}}, {"type": "node", "id": 10960651596, "lat": 26.8796674, "lon": 75.7510446}, {"type": "node", "id": 10960651597, "lat": 26.8794867, "lon": 75.7510582}, {"type": "node", "id": 10960651598, "lat": 26.8794672, "lon": 75.7496299}, {"type": "node", "id": 10960651599, "lat": 26.8796503, "lon": 75.7496244}, {"type": "way", "id": 263767619, "nodes": [2694208920, 2694208944, 2694208884, 2694209011, 2694208977, 2694208922, 2694208903, 2694208920], "tags": {"amenity": "bus_station", "bus": "yes", "public_transport": "station"}}, {"type": "way", "id": 863276767, "nodes": [8041984318, 8041984319, 8041984320, 8041984321, 8041984318], "tags": {"amenity": "bus_station", "building": "yes", "bus": "yes", "layer": "1", "name": "JCTSL Vidhyadhar Nagar Bus Depot", "public_transport": "station"}}, {"type": "way", "id": 863276770, "nodes": [8041984328, 8041984329, 8041984330, 8041984331, 8041984332, 8041984328], "tags": {"amenity": "bus_station", "building": "yes", "bus": "yes", "layer": "1", "name": "Vidhyadhar Nagar Bus Depot (RSRTC)", "public_transport": "station"}}, {"type": "way", "id": 863276772, "nodes": [8041984352, 8041984353, 8041984354, 8041984355, 8041984356, 8041984357, 8041984358, 8041984359, 8041984360, 8041984361, 8041984362, 8041984363, 8041984364, 8041984365, 8041984366, 8041984367, 8041984352], "tags": {"amenity": "bus_station", "building": "yes", "bus": "yes", "name": "Private Bus Parking", "public_transport": "station"}}, {"type": "way", "id": 863276780, "nodes": [8041984452, 8041984453, 8041984454, 8041984455, 8041984456, 8041984457, 8041984458, 8041984459, 8041984460, 8041984461, 8041984462, 8041984452], "tags": {"amenity": "bus_station", "bus": "yes", "name": "DoodhMandi Bus Stand", "public_transport": "station"}}, {"type": "way", "id": 867387882, "nodes": [8085169665, 8085169666, 8085169667, 8085169668, 8085169669, 8085169670, 8085169671, 8084816076, 8085169672, 8085169673, 8085169674, 8085169675, 8085169676, 8085169677, 8085169678, 8085169679, 8085169680, 8085169681, 8085169682, 8085169683, 7085549689, 8085169665], "tags": {"building": "yes", "layer": "1", "name": "Ram Nagar", "name:hi": "\u0930\u093e\u092e \u0928\u0917\u0930", "network": "Jaipur Metro", "note": "Contributors are requested to not edit the \"network\" and the \"operator\" tags. (2023/11/08)", "operator": "Jaipur Metro Rail Corporation Limited", "public_transport": "station", "public_transport:version": "2", "railway": "station", "ref": "RMNR", "shelter": "yes", "station": "subway", "subway": "yes", "wheelchair": "yes", "wikidata": "Q28180425", "wikipedia": "en:Ram Nagar metro station"}}, {"type": "way", "id": 1180115746, "nodes": [10960651596, 10960651597, 10960651598, 10960651599, 10960651596], "tags": {"name": "Mansarovar Metro Station", "network": "Jaipur Metro", "note": "Contributors are requested to not edit the \"network\" and the \"operator\" tags. (2023/11/08)", "operator": "Jaipur Metro Rail Corporation Limited", "public_transport": "station", "railway": "station", "station": "subway", "subway": "yes"}}]}