{"version": 0.6, "generator": "Overpass API 0.7.61.5 4133829e", "osm3s": {"timestamp_osm_base": "2024-02-25T09:46:55Z", "copyright": "The data included in this document is from www.openstreetmap.org. The data is made available under ODbL."}, "elements": [{"type": "node", "id": 4226415589, "lat": 26.8228017, "lon": 75.8482272, "tags": {"addr:postcode": "302017", "amenity": "hospital", "name": "Krishna Ram Charitable Hospital"}}, {"type": "node", "id": 6966458470, "lat": 26.8553877, "lon": 75.8769124, "tags": {"addr:city": "Jaipur", "addr:postcode": "302017", "addr:street": "Kho Nagariya", "amenity": "hospital", "emergency": "yes", "healthcare": "hospital", "healthcare:speciality": "emergency", "name": "JNU Hospital and Medical College", "operator": "Jaipur national university", "operator:type": "private", "phone": "0141 298 1400", "website": "https://jnuhealthcare.com/"}}, {"type": "node", "id": 7024823966, "lat": 26.8880586, "lon": 75.8305617, "tags": {"addr:district": "Jaipur", "addr:full": "5- Tha- 8, Jawahar Nagar, Opposite Vivekanand School", "addr:postcode": "302001", "addr:state": "Rajasthan", "amenity": "hospital", "name": "R.P. Memorial Hospital", "source": "OpenGovernmentData"}}, {"type": "node", "id": 7025285294, "lat": 26.8977635, "lon": 75.8322018, "tags": {"addr:district": "Jaipur", "addr:full": "Raja Park,Govind Marg", "addr:postcode": "302004", "addr:state": "Rajasthan", "amenity": "hospital", "name": "Amodh Hospital", "source": "OpenGovernmentData"}}, {"type": "node", "id": 7025429713, "lat": 26.9021049, "lon": 75.8416218, "tags": {"addr:district": "Jaipur", "addr:full": "Sethi Colony", "addr:postcode": "302004", "addr:state": "Rajasthan", "amenity": "hospital", "name": "Satellite Hospital, Sethi Colony", "source": "OpenGovernmentData"}}, {"type": "node", "id": 7030653289, "lat": 26.8968605, "lon": 75.8372819, "tags": {"addr:district": "Jaipur", "addr:full": "605-606,Shanti Path, Sindhi Colony, Raja Park", "addr:postcode": "302004", "addr:state": "Rajasthan", "amenity": "hospital", "name": "Jain Hospital, Jaipur", "source": "OpenGovernmentData"}}, {"type": "node", "id": 7034765483, "lat": 26.9260733, "lon": 75.8314803, "tags": {"addr:district": "Jaipur", "addr:full": "Khawasaji Ka Rasta, Near Hawa Mahal Road", "addr:postcode": "302002", "addr:state": "Rajasthan", "amenity": "hospital", "name": "K K Diagnostic Centre", "source": "OpenGovernmentData"}}, {"type": "node", "id": 7035249243, "lat": 26.899285, "lon": 75.8339544, "tags": {"addr:district": "Jaipur", "addr:full": "B-15, Govind Marg Opp Ice Factory Adarsh Nagar", "addr:postcode": "302004", "addr:state": "Rajasthan", "amenity": "hospital", "name": "Royal Eye Care and Research Centre", "source": "OpenGovernmentData"}}, {"type": "node", "id": 7035250092, "lat": 26.8995779, "lon": 75.8318694, "tags": {"addr:district": "Jaipur", "addr:full": "692,Frontier Colony,Adarsh Nagar,Near Baraf Khana Pani Ki Tanki", "addr:postcode": "302004", "addr:state": "Rajasthan", "amenity": "hospital", "name": "Chawla Hospital and Laparoscopy Centre", "source": "OpenGovernmentData"}}, {"type": "node", "id": 7038591452, "lat": 26.891129, "lon": 75.840518, "tags": {"addr:district": "Jaipur", "addr:full": "3/109, Jawahar Nagar Opp Main Post Office", "addr:postcode": "302004", "addr:state": "Rajasthan", "amenity": "clinic", "name": "Vinayak Nursing Home", "source": "OpenGovernmentData"}}, {"type": "node", "id": 7038735480, "lat": 26.8007644, "lon": 75.8619395, "tags": {"addr:district": "Jaipur", "addr:full": "Jeevan Rehka Marg,S-24,Mahal Yojna,Jagatpura", "addr:postcode": "302025", "addr:state": "Rajasthan", "amenity": "hospital", "name": "Jeevan Rekha Critical Care and Trauma Hospital", "source": "OpenGovernmentData"}}, {"type": "node", "id": 7038990174, "lat": 26.9032106, "lon": 75.8354983, "tags": {"addr:district": "Jaipur", "addr:full": "B-10, Janta Colony , Jaipur", "addr:postcode": "302004", "addr:state": "Rajasthan", "amenity": "hospital", "name": "Pragati Orthopaedic and General Hospital", "source": "OpenGovernmentData"}}, {"type": "node", "id": 7039491572, "lat": 26.8916923, "lon": 75.8398126, "tags": {"addr:district": "Jaipur", "addr:full": "3-Kh-5A, Petrol Pump Lane, Opposite Bsnl Office, Jawahar Nagar", "addr:postcode": "302004", "addr:state": "Rajasthan", "amenity": "hospital", "name": "Swastik Hospital, Jaipur", "source": "OpenGovernmentData"}}, {"type": "node", "id": 7040281162, "lat": 26.9457016, "lon": 75.8421032, "tags": {"addr:district": "Jaipur", "addr:full": "No.27, Govindpuri East,Near Ramgarh Mode", "addr:postcode": "302001", "addr:state": "Rajasthan", "amenity": "hospital", "name": "Pawan Hospital Pvt. Ltd.", "source": "OpenGovernmentData"}}, {"type": "node", "id": 7040324721, "lat": 26.8383465, "lon": 76.0484375, "tags": {"addr:district": "Chittorgarh", "addr:full": "Station Road Bassi", "addr:postcode": "312001", "addr:state": "Rajasthan", "amenity": "hospital", "name": "Mali Ram Memorial Hospital", "source": "OpenGovernmentData"}}, {"type": "node", "id": 7040342448, "lat": 26.9476694, "lon": 75.8520998, "tags": {"addr:district": "Alwar", "addr:full": "23,Krishna Colony, Near Ambedkar Circle", "addr:postcode": "301001", "addr:state": "Rajasthan", "amenity": "hospital", "name": "Mendiratta Hospital", "source": "OpenGovernmentData"}}, {"type": "node", "id": 7279062506, "lat": 26.960627, "lon": 75.84289, "tags": {"addr:district": "Jodhpur", "addr:full": "1417, Gujarghati, Parasrampuri, Jaipur", "addr:postcode": "302002", "addr:state": "Rajasthan", "amenity": "hospital", "name": "Air Force Hospital", "source": "OpenGovernmentData"}}, {"type": "node", "id": 7279062516, "lat": 26.989942, "lon": 75.85567, "tags": {"addr:district": "Jaipur", "addr:full": "Amer Road, Near Panchayat Samiti, Amer", "addr:postcode": "302028", "addr:state": "Rajasthan", "addr:subdistrict": "Amber", "amenity": "hospital", "name": "Government Hospital, Amer", "source": "OpenGovernmentData"}}, {"type": "node", "id": 7279062549, "lat": 27.0220487, "lon": 76.0120666, "tags": {"addr:district": "Jaipur", "addr:full": "Jamwaramgarh", "addr:postcode": "303109", "addr:state": "Rajasthan", "addr:subdistrict": "Jamwa Ramgarh", "amenity": "hospital", "name": "Government Hospital, Jamwa Ramgarh", "source": "OpenGovernmentData"}}, {"type": "node", "id": 7279062557, "lat": 27.071407, "lon": 75.964383, "tags": {"addr:district": "Jaipur", "addr:full": "Bhanpur - Saiwar Road, Bhanupur Kalan", "addr:postcode": "302028", "addr:state": "Rajasthan", "addr:subdistrict": "Jamwa Ramgarh", "amenity": "hospital", "name": "Government Hospital, Bhanupur Kalan", "source": "OpenGovernmentData"}}, {"type": "node", "id": 7279062641, "lat": 27.148761, "lon": 76.115452, "tags": {"addr:district": "Jaipur", "addr:full": "Near Forest Department Office, Raisar", "addr:postcode": "303109", "addr:state": "Rajasthan", "addr:subdistrict": "Jamwa Ramgarh", "amenity": "hospital", "name": "Government Hospital Raisar", "source": "OpenGovernmentData"}}, {"type": "node", "id": 7279102518, "lat": 26.9032266, "lon": 75.8395041}, {"type": "node", "id": 7279102587, "lat": 26.903108, "lon": 75.838214, "tags": {"addr:district": "Jaipur", "addr:full": "Opposite Pink Square Mall, Rajapark Road, Sethi Colony, Jaipur", "addr:postcode": "302004", "addr:state": "Rajasthan", "amenity": "hospital", "healthcare": "hospital", "name": "Government Hospital", "source": "OpenGovernmentData"}}, {"type": "node", "id": 7694895080, "lat": 27.0190549, "lon": 76.0148725, "tags": {"addr:district": "Jaipur", "addr:full": "Jamva Raamgrah", "addr:postcode": "303001", "addr:state": "Rajasthan", "amenity": "clinic", "name": "Adarsh Clinic", "source": "Local Knowledge"}}, {"type": "node", "id": 7694895082, "lat": 27.087344, "lon": 75.943903, "tags": {"addr:district": "Jaipur", "addr:postcode": "303002", "addr:state": "Rajasthan", "amenity": "hospital", "name": "Aastha Dama Hospital", "source": "Local Knowledge"}}, {"type": "node", "id": 7694895085, "lat": 27.040002, "lon": 75.89431, "tags": {"addr:district": "Jaipur", "addr:full": "Kookas", "addr:postcode": "302028", "addr:state": "Rajasthan", "amenity": "dentist", "name": "Mewal Dental Clinic", "source": "Local Knowledge"}}, {"type": "node", "id": 7694895086, "lat": 27.1330292, "lon": 75.9579556, "tags": {"addr:district": "Jaipur", "addr:full": "Achrol", "addr:postcode": "303002", "addr:state": "Rajasthan", "amenity": "dentist", "name": "Bharti Dental Hospital", "source": "Local Knowledge"}}, {"type": "node", "id": 7694895089, "lat": 27.0235186, "lon": 76.0094387, "tags": {"addr:district": "Jaipur", "addr:full": "Jamwa Ramgarh", "addr:postcode": "303104", "addr:state": "Rajasthan", "amenity": "clinic", "name": "Charbhuja Nath Homeopathic Clinic", "source": "Local Knowledge"}}, {"type": "node", "id": 7694895092, "lat": 27.0182637, "lon": 76.002367, "tags": {"addr:district": "Jaipur", "addr:full": "Alwar Jaipur Road, Jamwa Ramgarh", "addr:postcode": "303001", "addr:state": "Rajasthan", "amenity": "hospital", "name": "Anant Hospital", "source": "Local Knowledge"}}, {"type": "node", "id": 7694895101, "lat": 27.132906, "lon": 75.9599886, "tags": {"addr:district": "Jaipur", "addr:full": "Achrol", "addr:postcode": "303002", "addr:state": "Rajasthan", "amenity": "dentist", "name": "Aravali Clinic and Dental Hospital", "source": "Local Knowledge"}}, {"type": "node", "id": 7694895140, "lat": 27.1334409, "lon": 75.960943, "tags": {"addr:district": "Jaipur", "addr:full": "Achrol", "addr:postcode": "303002", "addr:state": "Rajasthan", "amenity": "hospital", "name": "Shree Shyam Eye Hospital", "source": "Local Knowledge"}}, {"type": "node", "id": 7694895142, "lat": 27.018856, "lon": 75.999834, "tags": {"addr:district": "Jaipur", "addr:full": "Jamwa Ramgarh", "addr:postcode": "303109", "addr:state": "Rajasthan", "amenity": "hospital", "name": "Tonk Dental & Facial Trauma Centre", "source": "Local Knowledge"}}, {"type": "node", "id": 7694895160, "lat": 27.1355687, "lon": 75.9612648, "tags": {"addr:district": "Jaipur", "addr:full": "Achrol", "addr:postcode": "303002", "addr:state": "Rajasthan", "amenity": "clinic", "name": "S D Clinic", "source": "Local Knowledge"}}, {"type": "node", "id": 7694895163, "lat": 27.0209585, "lon": 76.0107948, "tags": {"addr:district": "Jaipur", "addr:full": "Jamwa Ramgarh", "addr:postcode": "303104", "addr:state": "Rajasthan", "amenity": "clinic", "name": "Matrakripa Homeopathy Clinic", "source": "Local Knowledge"}}, {"type": "node", "id": 7694895164, "lat": 27.0377054, "lon": 75.8903875, "tags": {"addr:district": "Jaipur", "addr:full": "Kukas", "addr:postcode": "302028", "addr:state": "Rajasthan", "amenity": "hospital", "name": "GP Hospital", "source": "Local Knowledge"}}, {"type": "node", "id": 7694895169, "lat": 27.067355, "lon": 75.928286, "tags": {"addr:district": "Jaipur", "addr:full": "Kukas", "addr:postcode": "302028", "addr:state": "Rajasthan", "amenity": "hospital", "name": "Maharaj Vinayak General Hospital", "source": "Local Knowledge"}}, {"type": "node", "id": 7694995576, "lat": 26.9476019, "lon": 75.8965102, "tags": {"addr:district": "Jaipur", "addr:full": "Jaisinghpura Khor", "addr:postcode": "302027", "addr:state": "Rajasthan", "amenity": "clinic", "name": "Naila Clinic", "source": "Local Knowledge"}}, {"type": "node", "id": 7694995577, "lat": 26.990482, "lon": 75.854497, "tags": {"addr:district": "Jaipur", "addr:full": "Amer", "addr:postcode": "302028", "addr:state": "Rajasthan", "amenity": "hospital", "name": "Krishna Hospital", "source": "Local Knowledge"}}, {"type": "node", "id": 7694995578, "lat": 26.968535, "lon": 75.904901, "tags": {"addr:district": "Jaipur", "addr:full": "Alwar Jaipur Road, Jaipur", "addr:postcode": "303301", "addr:state": "Rajasthan", "amenity": "hospital", "name": "Sunil Hospital", "source": "Local Knowledge"}}, {"type": "node", "id": 7694995580, "lat": 26.9806505, "lon": 75.9249225, "tags": {"addr:district": "Jaipur", "addr:full": "Saaipura, Jaipur", "addr:postcode": "303301", "addr:state": "Rajasthan", "amenity": "hospital", "name": "MPS Hospital", "source": "Local Knowledge"}}, {"type": "node", "id": 7694995589, "lat": 26.876682, "lon": 75.949188, "tags": {"addr:district": "Jaipur", "addr:full": "Kanota", "addr:postcode": "303012", "addr:state": "Rajasthan", "amenity": "dentist", "name": "Ganesham Dental Hospital", "source": "Local Knowledge"}}, {"type": "node", "id": 7694995592, "lat": 26.8760571, "lon": 75.9494299, "tags": {"addr:district": "Jaipur", "addr:full": "Kanota, Agra Road, Jaipur", "addr:postcode": "303012", "addr:state": "Rajasthan", "amenity": "clinic", "name": "M. K. Poly Clinic", "source": "Local Knowledge"}}, {"type": "node", "id": 7694995594, "lat": 26.9719601, "lon": 75.9222405, "tags": {"addr:district": "Jaipur", "addr:full": "Ajmer, Jaipur", "addr:postcode": "302027", "addr:state": "Rajasthan", "amenity": "hospital", "name": "Jai Durga Hospital and Research Centre", "source": "Local Knowledge"}}, {"type": "node", "id": 7694995597, "lat": 26.8651424, "lon": 75.9521007, "tags": {"addr:district": "Jaipur", "addr:full": "Kanota, Kanota - Nayla Road", "addr:postcode": "303012", "addr:state": "Rajasthan", "amenity": "hospital", "name": "Arihant Surgical & Day Care Centre", "source": "Local Knowledge"}}, {"type": "node", "id": 7694995599, "lat": 26.954477, "lon": 75.884311, "tags": {"addr:district": "Jaipur", "addr:full": "Sumel", "addr:postcode": "302027", "addr:state": "Rajasthan", "amenity": "hospital", "name": "Singodiya Hospital", "source": "Local Knowledge"}}, {"type": "node", "id": 7694995602, "lat": 26.8846023, "lon": 75.8836511, "tags": {"addr:district": "Jaipur", "addr:full": "Khandelwal Nagar, Prem Nagar", "addr:postcode": "302031", "addr:state": "Rajasthan", "amenity": "clinic", "name": "Kedawat Homoeopathy", "source": "Local Knowledge"}}, {"type": "node", "id": 7694995605, "lat": 26.87592, "lon": 75.8946125, "tags": {"addr:district": "Jaipur", "addr:full": "J D A Colony, Paldi Meena, Jaipur", "addr:postcode": "302031", "addr:state": "Rajasthan", "amenity": "clinic", "name": "Meeta Clinic", "source": "Local Knowledge"}}, {"type": "node", "id": 7694995607, "lat": 26.9908383, "lon": 75.869711, "tags": {"addr:district": "Jaipur", "addr:full": "Amer Road, Kunda, Amer", "addr:postcode": "302028", "addr:state": "Rajasthan", "amenity": "dentist", "name": "Choudhary Dental Clinic", "source": "Local Knowledge"}}, {"type": "node", "id": 7694995609, "lat": 26.9800871, "lon": 75.9247754, "tags": {"addr:district": "Jaipur", "addr:full": "Saaipura, Alwar Jaipur Road, Jaipur", "addr:postcode": "303301", "addr:state": "Rajasthan", "amenity": "hospital", "name": "Vinayak Hospital", "source": "Local Knowledge"}}, {"type": "node", "id": 7694995612, "lat": 26.8952843, "lon": 75.9155285, "tags": {"addr:district": "Jaipur", "addr:full": "Sumel, Vijaypura", "addr:postcode": "303012", "addr:state": "Rajasthan", "amenity": "clinic", "name": "Bhim Singh Clinic", "source": "Local Knowledge"}}, {"type": "node", "id": 7694995613, "lat": 26.9886413, "lon": 75.858799, "tags": {"addr:district": "Jaipur", "addr:full": "Amer Road, Devisinghpura", "addr:postcode": "302028", "addr:state": "Rajasthan", "amenity": "clinic", "name": "Raj Clinic", "source": "Local Knowledge"}}, {"type": "node", "id": 7694995614, "lat": 26.9091383, "lon": 75.8950179, "tags": {"addr:district": "Jaipur", "addr:full": "Ganga Vihar, Sumel, Jaipur", "addr:postcode": "302021", "addr:state": "Rajasthan", "amenity": "hospital", "name": "Kanchan Hospital", "source": "Local Knowledge"}}, {"type": "node", "id": 7694995616, "lat": 26.9517203, "lon": 75.867473, "tags": {"addr:district": "Jaipur", "addr:full": "Jaisinghpura Khor", "addr:postcode": "302027", "addr:state": "Rajasthan", "amenity": "clinic", "name": "Sahara Cilnic", "source": "Local Knowledge"}}, {"type": "node", "id": 7694995618, "lat": 26.8675288, "lon": 75.8880949, "tags": {"addr:district": "Jaipur", "addr:full": "Ghati Karolan", "addr:postcode": "303012", "addr:state": "Rajasthan", "amenity": "clinic", "name": "Cure Life Clinic", "source": "Local Knowledge"}}, {"type": "node", "id": 7694995619, "lat": 26.8651535, "lon": 75.8869898, "tags": {"addr:district": "Jaipur", "addr:full": "Luniyawas, Ghati Karolan", "addr:postcode": "303012", "addr:state": "Rajasthan", "amenity": "clinic", "name": "Shifa Clinic", "source": "Local Knowledge"}}, {"type": "node", "id": 7694995621, "lat": 26.8347388, "lon": 76.0515702, "tags": {"addr:district": "Jaipur", "addr:full": "Bassi", "addr:postcode": "303301", "addr:state": "Rajasthan", "amenity": "dentist", "name": "Dental Care & Implant Hospital", "source": "Local Knowledge"}}, {"type": "node", "id": 7694995623, "lat": 27.001439, "lon": 75.893158, "tags": {"addr:district": "Jaipur", "addr:full": "Kunda, Amer", "addr:postcode": "302028", "addr:state": "Rajasthan", "amenity": "hospital", "name": "Saraswati Hospital", "source": "Local Knowledge"}}, {"type": "node", "id": 7694995624, "lat": 26.8768382, "lon": 75.8949215, "tags": {"addr:district": "Jaipur", "addr:full": "J D A Colony, Paldi Meena", "addr:postcode": "302031", "addr:state": "Rajasthan", "amenity": "hospital", "name": "D. H. Hospital", "source": "Local Knowledge"}}, {"type": "node", "id": 7694995625, "lat": 26.875032, "lon": 75.944543, "tags": {"addr:district": "Jaipur", "addr:full": "Kanauta", "addr:postcode": "303012", "addr:state": "Rajasthan", "amenity": "hospital", "name": "Shivam General Hospital", "source": "Local Knowledge"}}, {"type": "node", "id": 7694995626, "lat": 26.9705548, "lon": 75.9085236, "tags": {"addr:district": "Jaipur", "addr:full": "Jaipur Road, Jaipur", "addr:postcode": "302028", "addr:state": "Rajasthan", "amenity": "clinic", "name": "Suvidha Clinic", "source": "Local Knowledge"}}, {"type": "node", "id": 7694995628, "lat": 26.88289, "lon": 75.880733, "tags": {"addr:district": "Jaipur", "addr:full": "New Khandelwal Nagar, Paldi Meena", "addr:postcode": "303012", "addr:state": "Rajasthan", "amenity": "clinic", "name": "Life Care Clinic", "source": "Local Knowledge"}}, {"type": "node", "id": 7694995629, "lat": 26.9526103, "lon": 75.870244, "tags": {"addr:district": "Jaipur", "addr:full": "Jaisinghpura Khor", "addr:postcode": "302027", "addr:state": "Rajasthan", "amenity": "clinic", "name": "Ganesh Clinic", "source": "Local Knowledge"}}, {"type": "node", "id": 7694995632, "lat": 26.874159, "lon": 75.9505404, "tags": {"addr:district": "Jaipur", "addr:full": "Kanota", "addr:postcode": "303012", "addr:state": "Rajasthan", "amenity": "hospital", "name": "Navjeevan Multi Speciality Hospital & Research Centre", "source": "Local Knowledge"}}, {"type": "node", "id": 7694995634, "lat": 26.902395, "lon": 75.896907, "tags": {"addr:district": "Jaipur", "addr:full": "Arjun Nagar, Jamdoli", "addr:postcode": "302031", "addr:state": "Rajasthan", "amenity": "dentist", "name": "Alwar Dental Hospital", "source": "Local Knowledge"}}, {"type": "node", "id": 7694995635, "lat": 26.967908, "lon": 75.891729, "tags": {"addr:district": "Jaipur", "addr:full": "Sumel, Jaipur", "addr:postcode": "302027", "addr:state": "Rajasthan", "amenity": "hospital", "name": "Paiker Hospital", "source": "Local Knowledge"}}, {"type": "node", "id": 7694995636, "lat": 26.9824438, "lon": 75.9251466, "tags": {"addr:district": "Jaipur", "addr:full": "Bhanpur - Saiwar Road, Kunda, VPO, Saipura", "addr:postcode": "302027", "addr:state": "Rajasthan", "amenity": "hospital", "name": "Sharma Nursing Home", "source": "Local Knowledge"}}, {"type": "node", "id": 7694995637, "lat": 26.9640845, "lon": 75.8468283, "tags": {"addr:district": "Jaipur", "addr:full": "Pratap Nagar Colony", "addr:postcode": "302002", "addr:state": "Rajasthan", "amenity": "clinic", "name": "Janta Clinic", "source": "Local Knowledge"}}, {"type": "node", "id": 7694995640, "lat": 26.8786673, "lon": 75.9036918, "tags": {"addr:district": "Jaipur", "addr:full": "J D A Colony, Paldi Meena", "addr:postcode": "302031", "addr:state": "Rajasthan", "amenity": "hospital", "name": "Dr. Kailash Chand Aloria", "source": "Local Knowledge"}}, {"type": "node", "id": 7694995641, "lat": 26.8731805, "lon": 75.9506796, "tags": {"addr:district": "Jaipur", "addr:full": "Agra Road, Kanota", "addr:postcode": "303012", "addr:state": "Rajasthan", "amenity": "hospital", "name": "Om Hospital & Research Centre", "source": "Local Knowledge"}}, {"type": "node", "id": 7694995642, "lat": 26.8939548, "lon": 75.9167586, "tags": {"addr:district": "Jaipur", "addr:full": "Sumel, Vijaypura", "addr:postcode": "303012", "addr:state": "Rajasthan", "amenity": "clinic", "name": "Rudra Clinic", "source": "Local Knowledge"}}, {"type": "node", "id": 7694995647, "lat": 26.8974877, "lon": 75.8865318, "tags": {"addr:district": "Jaipur", "addr:full": "Agra Road, Jamdoli", "addr:postcode": "302031", "addr:state": "Rajasthan", "amenity": "dentist", "name": "Narayana Dental Hospital", "source": "Local Knowledge"}}, {"type": "node", "id": 7694995651, "lat": 26.992066, "lon": 75.874116, "tags": {"addr:district": "Jaipur", "addr:full": "Kunda, Amer, Jaipur", "addr:postcode": "302028", "addr:state": "Rajasthan", "amenity": "clinic", "name": "Jyoti Clinic", "source": "Local Knowledge"}}, {"type": "node", "id": 7694995653, "lat": 26.968025, "lon": 75.885623, "tags": {"addr:district": "Jaipur", "addr:full": "Sahva, Jaipur", "addr:postcode": "302028", "addr:state": "Rajasthan", "amenity": "clinic", "name": "Suhana Clinic", "source": "Local Knowledge"}}, {"type": "node", "id": 7694995655, "lat": 26.8463681, "lon": 76.0512414, "tags": {"addr:district": "Jaipur", "addr:full": "Bassi", "addr:postcode": "303301", "addr:state": "Rajasthan", "amenity": "hospital", "name": "R D City Hospital", "source": "Local Knowledge"}}, {"type": "node", "id": 7694995658, "lat": 26.8812624, "lon": 75.907127, "tags": {"addr:district": "Jaipur", "addr:full": "Agra Road", "addr:postcode": "302031", "addr:state": "Rajasthan", "amenity": "hospital", "name": "D R M Hospital", "source": "Local Knowledge"}}, {"type": "node", "id": 7694995659, "lat": 26.8985199, "lon": 75.885527, "tags": {"addr:district": "Jaipur", "addr:full": "Shrinath Vihar, Baldeogarh", "addr:postcode": "302031", "addr:state": "Rajasthan", "amenity": "clinic", "name": "Aayurved Clinic", "source": "Local Knowledge"}}, {"type": "node", "id": 7694995660, "lat": 26.960689, "lon": 75.867571, "tags": {"addr:district": "Jaipur", "addr:postcode": "302028", "addr:state": "Rajasthan", "amenity": "clinic", "name": "Purwanchal Clinic", "source": "Local Knowledge"}}, {"type": "node", "id": 7694995661, "lat": 26.9707131, "lon": 75.9092972, "tags": {"addr:district": "Jaipur", "addr:full": "Jaipur", "addr:postcode": "302028", "addr:state": "Rajasthan", "amenity": "clinic", "name": "Saini Clinic", "source": "Local Knowledge"}}, {"type": "node", "id": 7694995665, "lat": 26.9514341, "lon": 75.8650743, "tags": {"addr:district": "Jaipur", "addr:full": "Jaisinghpura Khor, Jaipur", "addr:postcode": "302036", "addr:state": "Rajasthan", "amenity": "clinic", "name": "Shekhar Clinic", "source": "Local Knowledge"}}, {"type": "node", "id": 7694995667, "lat": 26.9891507, "lon": 75.853717, "tags": {"addr:district": "Jaipur", "addr:full": "Kundlav Colony, Sagar Road, Amer", "addr:postcode": "302028", "addr:state": "Rajasthan", "amenity": "hospital", "name": "Krishna Hospital", "source": "Local Knowledge"}}, {"type": "node", "id": 7694995670, "lat": 26.9672126, "lon": 75.9002926, "tags": {"addr:district": "Jaipur", "addr:full": "Jaipur", "addr:postcode": "302028", "addr:state": "Rajasthan", "amenity": "dentist", "name": "Hariom Dental Hospital", "source": "Local Knowledge"}}, {"type": "node", "id": 7694995671, "lat": 26.910502, "lon": 75.894618, "tags": {"addr:district": "Jaipur", "addr:full": "Jamdoli", "addr:postcode": "302031", "addr:state": "Rajasthan", "amenity": "dentist", "name": "Ahuja Dental Care", "source": "Local Knowledge"}}, {"type": "node", "id": 7695122980, "lat": 26.8090145, "lon": 75.8322716, "tags": {"addr:district": "Jaipur", "addr:full": "Jaipur", "addr:postcode": "302033", "addr:state": "Rajasthan", "amenity": "clinic", "name": "Nirog Homoeopathy Clinic", "source": "Local Knowledge"}}, {"type": "node", "id": 7695122981, "lat": 26.826116, "lon": 75.847629, "tags": {"addr:district": "Jaipur", "addr:full": "Vidhyadhar Nagar, Keshar Vihar", "addr:postcode": "302017", "addr:state": "Rajasthan", "amenity": "dentist", "name": "Priya Dental Care", "source": "Local Knowledge"}}, {"type": "node", "id": 7695122986, "lat": 26.8051181, "lon": 75.8322375, "tags": {"addr:district": "Jaipur", "addr:full": "Pratap Nagar, Sanganer", "addr:postcode": "302033", "addr:state": "Rajasthan", "amenity": "hospital", "name": "Om Sai Hospital", "source": "Local Knowledge"}}, {"type": "node", "id": 7695122998, "lat": 26.8031836, "lon": 75.8555926, "tags": {"addr:district": "Jaipur", "addr:full": "Jagatpura", "addr:postcode": "302017", "addr:state": "Rajasthan", "amenity": "hospital", "name": "Ramanji Hospital", "source": "Local Knowledge"}}, {"type": "node", "id": 7695123004, "lat": 26.8060065, "lon": 75.8457503, "tags": {"addr:district": "Jaipur", "addr:full": "Pratap Nagar", "addr:postcode": "302033", "addr:state": "Rajasthan", "amenity": "hospital", "name": "Harmony National Homeopathy Hospital", "source": "Local Knowledge"}}, {"type": "node", "id": 7695123008, "lat": 26.8030325, "lon": 75.8558498, "tags": {"addr:district": "Jaipur", "addr:full": "Mahal Yojana, Jagatpura", "addr:postcode": "302017", "addr:state": "Rajasthan", "amenity": "hospital", "name": "Shri Kalyan Hospital", "source": "Local Knowledge"}}, {"type": "node", "id": 7695123014, "lat": 26.8238908, "lon": 75.8497392, "tags": {"addr:district": "Jaipur", "addr:full": "Keshar Vihar, Jagatpura, Jaipur", "addr:postcode": "302017", "addr:state": "Rajasthan", "amenity": "dentist", "name": "A2Z Dental Care", "source": "Local Knowledge"}}, {"type": "node", "id": 7695123019, "lat": 26.837706, "lon": 75.832021, "tags": {"addr:district": "Jaipur", "addr:full": "Jagatpura", "addr:postcode": "302017", "addr:state": "Rajasthan", "amenity": "clinic", "name": "Chirakshi ENT and Cancer Clinic", "source": "Local Knowledge"}}, {"type": "node", "id": 7695123040, "lat": 26.8248986, "lon": 75.8474328, "tags": {"addr:district": "Jaipur", "addr:full": "Jagatpura", "addr:postcode": "302017", "addr:state": "Rajasthan", "amenity": "hospital", "name": "Jaipur Eye and Dental Hospital", "source": "Local Knowledge"}}, {"type": "node", "id": 7695123049, "lat": 26.8097423, "lon": 75.8672891, "tags": {"addr:district": "Jaipur", "addr:full": "Jagatpura", "addr:postcode": "302019", "addr:state": "Rajasthan", "amenity": "hospital", "name": "Bhagwati Ayurveda & Panchkarma Research Centre", "source": "Local Knowledge"}}, {"type": "node", "id": 7695123051, "lat": 26.802886, "lon": 75.866088, "tags": {"addr:district": "Jaipur", "addr:full": "Nilay Kunj Road, Jagatpura, Jaipur", "addr:postcode": "303905", "addr:state": "Rajasthan", "amenity": "hospital", "name": "SG Hospital", "source": "Local Knowledge"}}, {"type": "node", "id": 7695123052, "lat": 26.8127301, "lon": 75.8660832, "tags": {"addr:district": "Jaipur", "addr:full": "Ramnagariya", "addr:postcode": "303905", "addr:state": "Rajasthan", "amenity": "clinic", "name": "Dr. Sunil Clinic", "source": "Local Knowledge"}}, {"type": "node", "id": 7695123053, "lat": 26.8247648, "lon": 75.8473899, "tags": {"addr:district": "Jaipur", "addr:full": "Rohini Nagar, Vidhyadhar Nagar, Keshar Vihar, Jagatpura", "addr:postcode": "302017", "addr:state": "Rajasthan", "amenity": "clinic", "name": "Maheshwari Child Clinic", "source": "Local Knowledge"}}, {"type": "node", "id": 7695123055, "lat": 26.8415871, "lon": 75.8308121, "tags": {"addr:district": "Jaipur", "addr:full": "Income Tax Colony, Jagatpura", "addr:postcode": "302017", "addr:state": "Rajasthan", "amenity": "clinic", "name": "Urmil Raj Polyclinic", "source": "Local Knowledge"}}, {"type": "node", "id": 7695123060, "lat": 26.8100721, "lon": 75.8695305, "tags": {"addr:district": "Jaipur", "addr:full": "Jagatpura", "addr:postcode": "302017", "addr:state": "Rajasthan", "amenity": "dentist", "name": "Dr. Amrata Dental Clinic", "source": "Local Knowledge"}}, {"type": "node", "id": 7698578021, "lat": 26.924219, "lon": 75.8356, "tags": {"addr:district": "Jaipur", "addr:full": "Ramganj Bazar", "addr:postcode": "302002", "addr:state": "Rajasthan", "amenity": "hospital", "name": "Rama Hospital", "source": "Local Knowledge"}}, {"type": "node", "id": 7698578028, "lat": 26.9255403, "lon": 75.8360151, "tags": {"addr:district": "Jaipur", "addr:full": "Ramganj Bazar", "addr:postcode": "302002", "addr:state": "Rajasthan", "amenity": "clinic", "name": "Dadhic Clinic", "source": "Local Knowledge"}}, {"type": "node", "id": 7698578034, "lat": 26.9277675, "lon": 75.8305033, "tags": {"addr:district": "Jaipur", "addr:full": "Subhash Chowk", "addr:postcode": "302002", "addr:state": "Rajasthan", "amenity": "clinic", "name": "Vijay Clinic", "source": "Local Knowledge"}}, {"type": "node", "id": 7698578037, "lat": 26.9166816, "lon": 75.8338924, "tags": {"addr:district": "Jaipur", "addr:full": "Jaipur", "addr:postcode": "302003", "addr:state": "Rajasthan", "amenity": "clinic", "name": "Shifa Hijama Clinic", "source": "Local Knowledge"}}, {"type": "node", "id": 7698578044, "lat": 26.9261319, "lon": 75.8308679, "tags": {"addr:district": "Jaipur", "addr:full": "Jaipur", "addr:postcode": "302002", "addr:state": "Rajasthan", "amenity": "clinic", "name": "Nikita Clinic", "source": "Local Knowledge"}}, {"type": "node", "id": 7698578046, "lat": 26.9246196, "lon": 75.8357233, "tags": {"addr:district": "Jaipur", "addr:full": "Janta Colony, Jaipur", "addr:postcode": "302002", "addr:state": "Rajasthan", "amenity": "clinic", "name": "Janta Clinic", "source": "Local Knowledge"}}, {"type": "node", "id": 7698578047, "lat": 26.9064303, "lon": 75.8347373, "tags": {"addr:district": "Jaipur", "addr:full": "Dicazo Road, Jaipur", "addr:postcode": "302007", "addr:state": "Rajasthan", "amenity": "clinic", "name": "Dr. Dinesh Gupta Wisdom Clinic", "source": "Local Knowledge"}}, {"type": "node", "id": 7698578049, "lat": 26.9447157, "lon": 75.8470388, "tags": {"addr:district": "Jaipur", "addr:full": "Hussain Colony, Shankar Nagar", "addr:postcode": "302002", "addr:state": "Rajasthan", "amenity": "clinic", "name": "Khan Clinic", "source": "Local Knowledge"}}, {"type": "node", "id": 7698578050, "lat": 26.8988531, "lon": 75.8339104, "tags": {"addr:district": "Jaipur", "addr:full": "Adarsh Nagar", "addr:postcode": "302004", "addr:state": "Rajasthan", "amenity": "hospital", "name": "Mangalam Hospital", "source": "Local Knowledge"}}, {"type": "node", "id": 7698578058, "lat": 26.9351787, "lon": 75.8472665, "tags": {"addr:district": "Jaipur", "addr:full": "Darbar Colony, Lal Dungri", "addr:postcode": "302002", "addr:state": "Rajasthan", "amenity": "clinic", "name": "Madina Clinic", "source": "Local Knowledge"}}, {"type": "node", "id": 7698578059, "lat": 26.9038394, "lon": 75.8419883, "tags": {"addr:district": "Jaipur", "addr:full": "Sethi Colony, Jaipur", "addr:postcode": "302004", "addr:state": "Rajasthan", "amenity": "clinic", "name": "Dr. Sanjay Kanodia's Skin Clinic", "source": "Local Knowledge"}}, {"type": "node", "id": 7698578060, "lat": 26.930586, "lon": 75.844718, "tags": {"addr:district": "Jaipur", "addr:full": "Delhi Road, Rishi Galav Nagar", "addr:postcode": "302012", "addr:state": "Rajasthan", "amenity": "clinic", "name": "Tawakkal General Clinic", "source": "Local Knowledge"}}, {"type": "node", "id": 7698578065, "lat": 26.9077102, "lon": 75.8299074, "tags": {"addr:district": "Jaipur", "addr:full": "Adarsh Nagar, Jaipur", "addr:postcode": "302007", "addr:state": "Rajasthan", "amenity": "hospital", "name": "Health Line Hospital", "source": "Local Knowledge"}}, {"type": "node", "id": 7698578070, "lat": 26.9090859, "lon": 75.8332479, "tags": {"addr:district": "Jaipur", "addr:full": "Janata Colony, Jaipur", "addr:postcode": "302004", "addr:state": "Rajasthan", "amenity": "clinic", "name": "Goyalsa Homeo Clinic", "source": "Local Knowledge"}}, {"type": "node", "id": 7698578071, "lat": 26.91858, "lon": 75.8311973, "tags": {"addr:district": "Jaipur", "addr:postcode": "302003", "addr:state": "Rajasthan", "amenity": "hospital", "name": "Alok Nursing Home & Fracture Clinic", "source": "Local Knowledge"}}, {"type": "node", "id": 7698578072, "lat": 26.9193316, "lon": 75.8309094, "tags": {"addr:district": "Jaipur", "addr:full": "Ramganj Bazar", "addr:postcode": "302003", "addr:state": "Rajasthan", "amenity": "hospital", "name": "Falor Eye and Phaco Surgery Centre", "source": "Local Knowledge"}}, {"type": "node", "id": 7698578073, "lat": 26.9379259, "lon": 75.8357604, "tags": {"addr:district": "Jaipur", "addr:full": "Govind Nagar", "addr:postcode": "302002", "addr:state": "Rajasthan", "amenity": "clinic", "name": "Govind Clinic", "source": "Local Knowledge"}}, {"type": "node", "id": 7698578085, "lat": 26.9248594, "lon": 75.8358022, "tags": {"addr:district": "Jaipur", "addr:full": "Ganesh Nagar, Badi Chaupar", "addr:postcode": "302002", "addr:state": "Rajasthan", "amenity": "clinic", "name": "Nisa Clinic", "source": "Local Knowledge"}}, {"type": "node", "id": 7698578088, "lat": 26.9167171, "lon": 75.8301137, "tags": {"addr:district": "Jaipur", "addr:postcode": "302003", "addr:state": "Rajasthan", "amenity": "clinic", "name": "Jaipur Skin Cilnic", "source": "Local Knowledge"}}, {"type": "node", "id": 7698578089, "lat": 26.9285973, "lon": 75.8339732, "tags": {"addr:district": "Jaipur", "addr:full": "Subhash Chowk", "addr:postcode": "302002", "addr:state": "Rajasthan", "amenity": "clinic", "name": "Subash Clinic", "source": "Local Knowledge"}}, {"type": "node", "id": 7698578090, "lat": 26.9029257, "lon": 75.8412089, "tags": {"addr:district": "Jaipur", "addr:full": "Sethi Colony", "addr:postcode": "302004", "addr:state": "Rajasthan", "amenity": "clinic", "name": "Rathi's ENT and Women's Clinic", "source": "Local Knowledge"}}, {"type": "node", "id": 7698578092, "lat": 26.9464166, "lon": 75.8481731, "tags": {"addr:district": "Jaipur", "addr:full": "Fatima Colony", "addr:postcode": "302002", "addr:state": "Rajasthan", "amenity": "hospital", "name": "Jalmahal Hospital", "source": "Local Knowledge"}}, {"type": "node", "id": 7698578097, "lat": 26.9443804, "lon": 75.8470097, "tags": {"addr:district": "Jaipur", "addr:full": "Hussain Colony, Shankar Nagar", "addr:postcode": "302002", "addr:state": "Rajasthan", "amenity": "clinic", "name": "Tosif Poly Clinic", "source": "Local Knowledge"}}, {"type": "node", "id": 8479401770, "lat": 26.8885259, "lon": 75.8377772, "tags": {"addr:city": "Jaipur", "addr:housenumber": "3/154", "addr:postcode": "302004", "addr:street": "shivam apartment near jain dadabadi", "amenity": "hospital", "description": "A non-profit govermental organisation rescuing animals", "healthcare": "hospital", "healthcare:speciality": "general", "name": "Enviornment and wildlife care society", "operator": "Akshat Mehta , Ashish Mehta", "operator:type": "non_profit_goverment"}}, {"type": "node", "id": 8903267518, "lat": 26.8344611, "lon": 75.8351443}, {"type": "node", "id": 8903267519, "lat": 26.8344421, "lon": 75.8352572}, {"type": "node", "id": 8903267520, "lat": 26.8342787, "lon": 75.835213}, {"type": "node", "id": 8903267521, "lat": 26.8342933, "lon": 75.8351083}, {"type": "node", "id": 8903267553, "lat": 26.8347397, "lon": 75.8352724}, {"type": "node", "id": 8903267554, "lat": 26.8347455, "lon": 75.8354119}, {"type": "node", "id": 8903267555, "lat": 26.8346306, "lon": 75.8353819}, {"type": "node", "id": 8903267556, "lat": 26.834644, "lon": 75.8352574}, {"type": "node", "id": 8916826950, "lat": 26.8347991, "lon": 75.8582476, "tags": {"addr:postcode": "302017", "amenity": "hospital", "healthcare": "hospital", "name": "Tirupati Sanjeevani Hospital"}}, {"type": "node", "id": 9628877082, "lat": 26.8108201, "lon": 75.8314353, "tags": {"amenity": "dentist", "description": "ENTODONTIST", "name": "Dr. Susheel", "opening_hours": "Mo-Su 04:00-19:00"}}, {"type": "node", "id": 10727363417, "lat": 26.9038103, "lon": 75.8387788}, {"type": "node", "id": 10727363418, "lat": 26.9020521, "lon": 75.8381059}, {"type": "node", "id": 10727363419, "lat": 26.9025834, "lon": 75.8374973}, {"type": "node", "id": 10904677049, "lat": 26.8266309, "lon": 75.8496289, "tags": {"addr:street": "C-27,Kusum Vihar, Ram Nagariya Rd, Railway Colony, Jagatpura, Jaipur, Rajasthan 302017", "amenity": "clinic", "healthcare": "clinic", "name": "Panwar Medical & Provision Store"}}, {"type": "way", "id": 962489671, "nodes": [8903267518, 8903267519, 8903267520, 8903267521, 8903267518], "tags": {"amenity": "hospital", "healthcare": "hospital", "name": "PATALIYA HOSPITAL"}}, {"type": "way", "id": 962490285, "nodes": [8903267553, 8903267554, 8903267555, 8903267556, 8903267553], "tags": {"amenity": "hospital", "healthcare": "hospital", "name": "PATALIYA RESERCH CENTER"}}, {"type": "way", "id": 1153428113, "nodes": [10727363417, 7279102518, 10727363418, 10727363419, 10727363417], "tags": {"amenity": "hospital", "healthcare": "hospital"}}]}