{"version": 0.6, "generator": "Overpass API 0.7.61.5 4133829e", "osm3s": {"timestamp_osm_base": "2024-02-25T09:34:44Z", "copyright": "The data included in this document is from www.openstreetmap.org. The data is made available under ODbL."}, "elements": [{"type": "node", "id": 2240084472, "lat": 26.9596844, "lon": 80.6678072, "tags": {"name": "Dilawarnagar", "name:hi": "\u0926\u093f\u0932\u093e\u0935\u0930 \u0928\u0917\u0930", "name:ur": "\u062f\u0644\u0627\u0648\u0631 \u0634\u06c1\u0631", "network": "IR", "operator": "NR", "public_transport": "station", "railway": "station", "ref": "DIL", "wikidata": "Q63356230"}}, {"type": "node", "id": 2240084487, "lat": 26.883972, "lon": 80.8001979, "tags": {"name": "Kakori", "name:hi": "\u0915\u093e\u0915\u094b\u0930\u0940", "name:ur": "\u06a9\u0627\u06a9\u0648\u0631\u06cc", "operator": "NR", "railway": "station", "ref": "KKJ", "wikidata": "Q30591439", "wikipedia": "en:Kakori railway station"}}, {"type": "node", "id": 2240099004, "lat": 26.99776, "lon": 80.604058, "tags": {"name": "Rahimabad", "name:hi": "\u0930\u0939\u0940\u092e\u093e\u092c\u093e\u0926", "name:ur": "\u0631\u0647\u064a\u0645\u0627\u0628\u0627\u062f", "network": "IR", "operator": "NR", "public_transport": "station", "railway": "station", "ref": "RBD", "wikidata": "Q63355621"}}, {"type": "node", "id": 2271710740, "lat": 26.9309149, "lon": 80.7148515, "tags": {"name": "Malihabad", "name:hi": "\u092e\u0932\u093f\u0939\u093e\u092c\u093e\u0926", "name:ur": "\u0645\u0644\u0647\u0627\u0628\u0627\u062f", "network": "IR", "operator": "NR", "public_transport": "station", "railway": "station", "ref": "MLD", "wikidata": "Q63355566"}}, {"type": "node", "id": 7705617348, "lat": 26.8415195, "lon": 80.8682662, "tags": {"name": "Alamnagar", "name:hi": "\u0906\u0932\u092e \u0928\u0917\u0930", "name:ur": "\u0639\u0627\u0644\u0645 \u0646\u06af\u0631", "network": "IR", "operator": "NR", "public_transport": "station", "railway": "station", "ref": "AMG", "train": "yes", "wikidata": "Q15644865"}}]}