{"version": 0.6, "generator": "Overpass API 0.7.61.5 4133829e", "osm3s": {"timestamp_osm_base": "2024-02-25T07:51:15Z", "copyright": "The data included in this document is from www.openstreetmap.org. The data is made available under ODbL."}, "elements": [{"type": "node", "id": 308300959, "lat": 13.0398535, "lon": 80.2449822, "tags": {"amenity": "pub", "name": "High Time"}}, {"type": "node", "id": 312686078, "lat": 13.0345162, "lon": 80.2690082, "tags": {"addr:city": "Chennai", "addr:housenumber": "70", "addr:postcode": "600004", "addr:street": "North Mada Street", "amenity": "fast_food", "brand": "Saravana Bhavan", "brand:wikidata": "Q3528082", "cuisine": "indian;south_indian", "food": "veg", "name": "Saravana Bhavan", "official_name": "Hotel Saravana Bhavan", "phone": "04424615588", "takeaway": "yes", "wheelchair": "yes", "wheelchair:description": "You should park car in basement and access the lift there to the main building. Toilets not accessible."}}, {"type": "node", "id": 321506493, "lat": 12.9998739, "lon": 80.2518509, "tags": {"amenity": "cafe", "brand": "Cafe Coffee Day", "brand:wikidata": "Q5017235", "cuisine": "coffee_shop", "name": "Cafe Coffee Day", "takeaway": "yes"}}, {"type": "node", "id": 325107569, "lat": 12.9969184, "lon": 80.2713903, "tags": {"amenity": "fast_food", "food": "non-veg", "name": "Planet Yumm"}}, {"type": "node", "id": 334111434, "lat": 13.0402957, "lon": 80.243777, "tags": {"amenity": "pub", "name": "Bike & Barrels"}}, {"type": "node", "id": 353973709, "lat": 13.0456864, "lon": 80.258853, "tags": {"amenity": "pub", "created_by": "Potlatch 0.10f", "name": "Zaras"}}, {"type": "node", "id": 354944093, "lat": 13.0453726, "lon": 80.2669904, "tags": {"alt_name": "Haldiram", "amenity": "fast_food", "brand": "Haldiram's", "brand:wikidata": "Q17054442", "brand:wikipedia": "en:Haldiram's", "cuisine": "indian", "name": "Haldiram's", "takeaway": "yes"}}, {"type": "node", "id": 360806713, "lat": 13.0614085, "lon": 80.2487161, "tags": {"amenity": "fast_food", "brand": "Subway", "brand:pa": "\u0a38\u0a2c\u0a35\u0a47\u0a05", "brand:ur": "\u0633\u0628 \u0648\u06d2", "brand:wikidata": "Q244457", "brand:wikipedia": "en:Subway (restaurant)", "cuisine": "sandwich", "name": "Subway", "name:pa": "\u0a38\u0a2c\u0a35\u0a47\u0a05", "name:ur": "\u0633\u0628 \u0648\u06d2", "takeaway": "yes"}}, {"type": "node", "id": 361176408, "lat": 13.0607136, "lon": 80.2509829, "tags": {"amenity": "cafe", "brand": "Barista", "brand:wikidata": "Q644735", "brand:wikipedia": "en:Barista (company)", "cuisine": "coffee_shop", "name": "Barista", "takeaway": "yes"}}, {"type": "node", "id": 363704800, "lat": 13.0354864, "lon": 80.2496631, "tags": {"amenity": "fast_food", "brand": "Domino's", "brand:ks": "\u0688\u0648\u0645\u06cc\u0646\u0648\u0632", "brand:pa": "\u0a21\u0a4b\u0a2e\u0a40\u0a28\u0a4b\u0a1c\u0a3c", "brand:ur": "\u0688\u0648\u0645\u06cc\u0646\u0648\u0632", "brand:wikidata": "Q839466", "brand:wikipedia": "en:Domino's Pizza", "cuisine": "pizza", "food": "non-veg", "name": "Domino's", "name:ks": "\u0688\u0648\u0645\u06cc\u0646\u0648\u0632", "name:pa": "\u0a21\u0a4b\u0a2e\u0a40\u0a28\u0a4b\u0a1c\u0a3c", "name:ur": "\u0688\u0648\u0645\u06cc\u0646\u0648\u0632", "takeaway": "yes"}}, {"type": "node", "id": 366073574, "lat": 13.0717985, "lon": 80.2029951, "tags": {"amenity": "fast_food", "food": "non-veg", "name": "Marry Brown"}}, {"type": "node", "id": 369644829, "lat": 13.0823329, "lon": 80.2181614, "tags": {"amenity": "cafe", "brand": "Cafe Coffee Day", "brand:wikidata": "Q5017235", "brand:wikipedia": "en:Caf\u00e9 Coffee Day", "cuisine": "coffee_shop", "name": "Cafe Coffee Day", "takeaway": "yes"}}, {"type": "node", "id": 375668364, "lat": 13.0266378, "lon": 80.2326761, "tags": {"amenity": "fast_food", "brand": "Subway", "brand:pa": "\u0a38\u0a2c\u0a35\u0a47\u0a05", "brand:ur": "\u0633\u0628 \u0648\u06d2", "brand:wikidata": "Q244457", "brand:wikipedia": "en:Subway (restaurant)", "cuisine": "sandwich", "name": "Subway", "name:pa": "\u0a38\u0a2c\u0a35\u0a47\u0a05", "name:ur": "\u0633\u0628 \u0648\u06d2", "takeaway": "yes"}}, {"type": "node", "id": 378684871, "lat": 13.0285657, "lon": 80.2503649, "tags": {"amenity": "cafe", "name": "Anokhi"}}, {"type": "node", "id": 378688546, "lat": 13.0295981, "lon": 80.2496967, "tags": {"amenity": "pub", "name": "Westminister"}}, {"type": "node", "id": 378688580, "lat": 13.0460179, "lon": 80.2479281, "tags": {"amenity": "pub", "name": "Rhapsody"}}, {"type": "node", "id": 378688601, "lat": 13.0528394, "lon": 80.2497445, "tags": {"amenity": "pub", "name": "Leather Bar"}}, {"type": "node", "id": 378689452, "lat": 13.0581484, "lon": 80.2471894, "tags": {"amenity": "pub", "name": "Fort St George"}}, {"type": "node", "id": 386780832, "lat": 13.0470203, "lon": 80.2455457, "tags": {"amenity": "cafe", "name": "Coffee Central"}}, {"type": "node", "id": 386890401, "lat": 13.044333, "lon": 80.2644982, "tags": {"amenity": "fast_food", "brand": "Saravana Bhavan", "brand:wikidata": "Q3528082", "brand:wikipedia": "en:Saravana Bhavan", "cuisine": "indian;south_indian", "food": "veg", "name": "Saravana Bhavan", "official_name": "Hotel Saravana Bhavan", "takeaway": "yes"}}, {"type": "node", "id": 391835408, "lat": 13.0065655, "lon": 80.2055843, "tags": {"amenity": "bar", "name": "The Dome"}}, {"type": "node", "id": 391835436, "lat": 13.0064818, "lon": 80.2053411, "tags": {"amenity": "cafe", "name": "The Lobby Lounge"}}, {"type": "node", "id": 416852426, "lat": 12.9857701, "lon": 80.2458097, "tags": {"amenity": "cafe", "name": "Qwikys"}}, {"type": "node", "id": 417750161, "lat": 13.0010132, "lon": 80.2709043, "tags": {"amenity": "fast_food", "name": "Pupil"}}, {"type": "node", "id": 417750164, "lat": 13.0010049, "lon": 80.2708185, "tags": {"amenity": "fast_food", "name": "Cozee"}}, {"type": "node", "id": 417751185, "lat": 13.0005366, "lon": 80.2667244, "tags": {"amenity": "fast_food", "name": "Besant Fast Food"}}, {"type": "node", "id": 417773828, "lat": 13.0007952, "lon": 80.2696857, "tags": {"amenity": "cafe", "brand": "Cafe Coffee Day", "brand:wikidata": "Q5017235", "cuisine": "coffee_shop", "name": "Cafe Coffee Day", "takeaway": "yes"}}, {"type": "node", "id": 442533207, "lat": 12.9641291, "lon": 80.2121529, "tags": {"amenity": "pub", "name": "TASMAC", "wheelchair": "yes"}}, {"type": "node", "id": 471988623, "lat": 13.060307, "lon": 80.2546115, "tags": {"amenity": "fast_food", "name": "Fruit Shop on Greams Road"}}, {"type": "node", "id": 471988656, "lat": 13.0603857, "lon": 80.254815, "tags": {"amenity": "fast_food", "name": "Hajiali Juice Centre"}}, {"type": "node", "id": 471989141, "lat": 13.0574642, "lon": 80.2551093, "tags": {"amenity": "fast_food", "name": "Sea Shell"}}, {"type": "node", "id": 473396866, "lat": 13.0072346, "lon": 80.2594099, "tags": {"amenity": "bar", "name": "Esthell Continental Hotels"}}, {"type": "node", "id": 577362174, "lat": 13.0670856, "lon": 80.2056503, "tags": {"amenity": "fast_food", "food": "veg"}}, {"type": "node", "id": 577362175, "lat": 13.0671848, "lon": 80.2057726, "tags": {"amenity": "cafe", "name": "Aavin"}}, {"type": "node", "id": 577362199, "lat": 13.0671013, "lon": 80.2050495, "tags": {"amenity": "fast_food", "food": "veg", "name": "Dosa Cafe"}}, {"type": "node", "id": 577362201, "lat": 13.0670804, "lon": 80.2062941, "tags": {"amenity": "fast_food", "food": "veg", "name": "Hot Chips"}}, {"type": "node", "id": 577376027, "lat": 12.9228761, "lon": 80.1520808, "tags": {"amenity": "cafe", "brand": "Cafe Coffee Day", "brand:wikidata": "Q5017235", "brand:wikipedia": "en:Caf\u00e9 Coffee Day", "cuisine": "coffee_shop", "name": "Cafe Coffee Day", "takeaway": "yes"}}, {"type": "node", "id": 577376034, "lat": 13.0352358, "lon": 80.2125834, "tags": {"amenity": "fast_food", "brand": "Saravana Bhavan", "brand:wikidata": "Q3528082", "brand:wikipedia": "en:Saravana Bhavan", "cuisine": "indian;south_indian", "food": "veg", "name": "Saravana Bhavan", "official_name": "Hotel Saravana Bhavan", "takeaway": "yes"}}, {"type": "node", "id": 623010739, "lat": 13.0688594, "lon": 80.2572278, "tags": {"amenity": "cafe", "name": "Cafe Caffee Day"}}, {"type": "node", "id": 653151700, "lat": 12.9269376, "lon": 80.2515763, "tags": {"amenity": "fast_food", "name": "Subway ECR"}}, {"type": "node", "id": 700881145, "lat": 12.986194, "lon": 80.2619161, "tags": {"amenity": "fast_food", "building": "yes", "name": "Sri Annalaxmi Sweets and Snacks"}}, {"type": "node", "id": 751934585, "lat": 13.0940164, "lon": 80.2926773, "tags": {"amenity": "fast_food", "brand": "Saravana Bhavan", "brand:wikidata": "Q3528082", "brand:wikipedia": "en:Saravana Bhavan", "cuisine": "indian;south_indian", "name": "Saravana Bhavan", "official_name": "Hotel Saravana Bhavan", "takeaway": "yes"}}, {"type": "node", "id": 864565806, "lat": 13.0610992, "lon": 80.2482881, "tags": {"amenity": "cafe", "name": "Sandys"}}, {"type": "node", "id": 941574497, "lat": 13.0738558, "lon": 80.2216203, "tags": {"alt_name": "Kentucky Fried Chicken", "amenity": "fast_food", "brand": "KFC", "brand:pa": "\u0a15\u0a47\u0a10\u0a2b\u0a38\u0a40", "brand:ur": "\u06a9\u06cc\u0646\u0679\u06a9\u06cc \u0641\u0631\u0627\u0626\u06cc\u0688 \u0686\u06a9\u0646", "brand:wikidata": "Q524757", "brand:wikipedia": "en:KFC", "brand:wikipedia:pa": "\u0a15\u0a47\u0a10\u0a2b\u0a38\u0a40", "brand:wikipedia:ur": "\u06a9\u06cc\u0646\u0679\u06a9\u06cc \u0641\u0631\u0627\u0626\u06cc\u0688 \u0686\u06a9\u0646", "cuisine": "chicken", "name": "KFC", "name:pa": "\u0a15\u0a47\u0a10\u0a2b\u0a38\u0a40", "name:ur": "\u06a9\u06cc\u0646\u0679\u06a9\u06cc \u0641\u0631\u0627\u0626\u06cc\u0688 \u0686\u06a9\u0646", "takeaway": "yes"}}, {"type": "node", "id": 941579777, "lat": 13.0738688, "lon": 80.2214298, "tags": {"amenity": "fast_food", "brand": "McDonald's", "brand:pa": "\u0a2e\u0a48\u0a15\u0a21\u0a4b\u0a28\u0a32\u0a21\u2019\u0a1c\u0a3c", "brand:ur": "\u0645\u06a9\u0688\u0648\u0646\u0644\u0688\u0632", "brand:wikidata": "Q38076", "brand:wikipedia": "en:McDonald's", "brand:wikipedia:pa": "\u0a2e\u0a48\u0a15\u0a21\u0a4b\u0a28\u0a32\u0a21\u2019\u0a1c\u0a3c", "brand:wikipedia:ur": "\u0645\u06a9\u0688\u0648\u0646\u0644\u0688\u0632", "cuisine": "burger", "name": "McDonald's", "name:pa": "\u0a2e\u0a48\u0a15\u0a21\u0a4b\u0a28\u0a32\u0a21\u2019\u0a1c\u0a3c", "name:ur": "\u0645\u06a9\u0688\u0648\u0646\u0644\u0688\u0632", "takeaway": "yes"}}, {"type": "node", "id": 1024552644, "lat": 13.0344347, "lon": 80.2134924, "tags": {"amenity": "fast_food", "brand": "Domino's", "brand:ks": "\u0688\u0648\u0645\u06cc\u0646\u0648\u0632", "brand:pa": "\u0a21\u0a4b\u0a2e\u0a40\u0a28\u0a4b\u0a1c\u0a3c", "brand:ur": "\u0688\u0648\u0645\u06cc\u0646\u0648\u0632", "brand:wikidata": "Q839466", "brand:wikipedia": "en:Domino's Pizza", "cuisine": "pizza", "name": "Domino's", "name:ks": "\u0688\u0648\u0645\u06cc\u0646\u0648\u0632", "name:pa": "\u0a21\u0a4b\u0a2e\u0a40\u0a28\u0a4b\u0a1c\u0a3c", "name:ur": "\u0688\u0648\u0645\u06cc\u0646\u0648\u0632", "takeaway": "yes"}}, {"type": "node", "id": 1067496693, "lat": 13.026704, "lon": 80.2641228, "tags": {"amenity": "fast_food", "brand": "Domino's", "brand:ks": "\u0688\u0648\u0645\u06cc\u0646\u0648\u0632", "brand:pa": "\u0a21\u0a4b\u0a2e\u0a40\u0a28\u0a4b\u0a1c\u0a3c", "brand:ur": "\u0688\u0648\u0645\u06cc\u0646\u0648\u0632", "brand:wikidata": "Q839466", "brand:wikipedia": "en:Domino's Pizza", "cuisine": "pizza", "name": "Domino's", "name:ks": "\u0688\u0648\u0645\u06cc\u0646\u0648\u0632", "name:pa": "\u0a21\u0a4b\u0a2e\u0a40\u0a28\u0a4b\u0a1c\u0a3c", "name:ur": "\u0688\u0648\u0645\u06cc\u0646\u0648\u0632", "takeaway": "yes"}}, {"type": "node", "id": 1067524447, "lat": 13.042947, "lon": 80.2741274, "tags": {"addr:city": "Chennai", "addr:street": "Dr Radhakrishnan Salai", "amenity": "fast_food", "brand": "McDonald's", "brand:pa": "\u0a2e\u0a48\u0a15\u0a21\u0a4b\u0a28\u0a32\u0a21\u2019\u0a1c\u0a3c", "brand:ur": "\u0645\u06a9\u0688\u0648\u0646\u0644\u0688\u0632", "brand:wikidata": "Q38076", "brand:wikipedia": "en:McDonald's", "brand:wikipedia:pa": "\u0a2e\u0a48\u0a15\u0a21\u0a4b\u0a28\u0a32\u0a21\u2019\u0a1c\u0a3c", "brand:wikipedia:ur": "\u0645\u06a9\u0688\u0648\u0646\u0644\u0688\u0632", "cuisine": "burger", "name": "McDonald's", "name:pa": "\u0a2e\u0a48\u0a15\u0a21\u0a4b\u0a28\u0a32\u0a21\u2019\u0a1c\u0a3c", "name:ur": "\u0645\u06a9\u0688\u0648\u0646\u0644\u0688\u0632", "takeaway": "yes"}}, {"type": "node", "id": 1110063792, "lat": 12.9440046, "lon": 80.1212087}, {"type": "node", "id": 1110063793, "lat": 12.944185, "lon": 80.1207206}, {"type": "node", "id": 1110063794, "lat": 12.9451443, "lon": 80.121088}, {"type": "node", "id": 1110063795, "lat": 12.9446816, "lon": 80.1213267}, {"type": "node", "id": 1110063796, "lat": 12.9445326, "lon": 80.1209861}, {"type": "node", "id": 1125911071, "lat": 12.9449114, "lon": 80.1212082}, {"type": "node", "id": 1129195836, "lat": 12.9445695, "lon": 80.1210689, "tags": {"amenity": "hospital"}}, {"type": "node", "id": 1171632060, "lat": 13.0293344, "lon": 80.2306558, "tags": {"amenity": "fast_food", "name": "krishna bhavan"}}, {"type": "node", "id": 1428775347, "lat": 12.9055133, "lon": 80.0961112, "tags": {"amenity": "bar", "name": "Tasmac"}}, {"type": "node", "id": 1532684635, "lat": 12.8954312, "lon": 80.2523229, "tags": {"addr:housenumber": "14", "addr:postcode": "600047", "addr:street": "L. Jey Avenue", "amenity": "cafe", "cuisine": "thai", "name": "Kipling Cafe"}}, {"type": "node", "id": 1597154722, "lat": 13.0583681, "lon": 80.2012409, "tags": {"amenity": "cafe"}}, {"type": "node", "id": 1640622120, "lat": 12.9812466, "lon": 80.229595, "tags": {"amenity": "fast_food", "brand": "Domino's", "brand:ks": "\u0688\u0648\u0645\u06cc\u0646\u0648\u0632", "brand:pa": "\u0a21\u0a4b\u0a2e\u0a40\u0a28\u0a4b\u0a1c\u0a3c", "brand:ur": "\u0688\u0648\u0645\u06cc\u0646\u0648\u0632", "brand:wikidata": "Q839466", "brand:wikipedia": "en:Domino's Pizza", "cuisine": "pizza", "name": "Domino's", "name:ks": "\u0688\u0648\u0645\u06cc\u0646\u0648\u0632", "name:pa": "\u0a21\u0a4b\u0a2e\u0a40\u0a28\u0a4b\u0a1c\u0a3c", "name:ur": "\u0688\u0648\u0645\u06cc\u0646\u0648\u0632", "takeaway": "yes"}}, {"type": "node", "id": 1640627080, "lat": 12.9810036, "lon": 80.2298659, "tags": {"amenity": "fast_food", "cuisine": "indian", "name": "Sip and Munch"}}, {"type": "node", "id": 1645216233, "lat": 13.0133683, "lon": 80.23485, "tags": {"amenity": "cafe", "cuisine": "coffee_shop", "name": "HUT", "wifi": "free"}}, {"type": "node", "id": 1703288423, "lat": 13.0014275, "lon": 80.2713271, "tags": {"amenity": "fast_food", "cuisine": "sandwich", "internet_access": "no", "internet_access:fee": "no", "name": "FunkJazz", "smoking": "no", "wheelchair": "yes"}}, {"type": "node", "id": 1764114681, "lat": 12.9723892, "lon": 80.2198627, "tags": {"addr:housenumber": "S.No. 330/12", "addr:postcode": "600042", "addr:street": "Dr.Seetharaman Nagar,Velacherry Village", "amenity": "fast_food", "brand": "McDonald's", "brand:pa": "\u0a2e\u0a48\u0a15\u0a21\u0a4b\u0a28\u0a32\u0a21\u2019\u0a1c\u0a3c", "brand:ur": "\u0645\u06a9\u0688\u0648\u0646\u0644\u0688\u0632", "brand:wikidata": "Q38076", "brand:wikipedia": "en:McDonald's", "brand:wikipedia:pa": "\u0a2e\u0a48\u0a15\u0a21\u0a4b\u0a28\u0a32\u0a21\u2019\u0a1c\u0a3c", "brand:wikipedia:ur": "\u0645\u06a9\u0688\u0648\u0646\u0644\u0688\u0632", "cuisine": "burger", "diet:vegetarian": "yes", "name": "McDonald's", "name:pa": "\u0a2e\u0a48\u0a15\u0a21\u0a4b\u0a28\u0a32\u0a21\u2019\u0a1c\u0a3c", "name:ur": "\u0645\u06a9\u0688\u0648\u0646\u0644\u0688\u0632", "opening_hours": "Mo-Sa 10:00-22:00", "takeaway": "yes", "website": "https://www.mcdonaldsindia.com/"}}, {"type": "node", "id": 1764303837, "lat": 12.9726215, "lon": 80.2192111, "tags": {"addr:housenumber": "No. 185", "addr:postcode": "600042", "addr:street": "Vijaynagar, 3rd Cross Street", "alt_name": "Kentucky Fried Chicken", "alt_name:en": "Kentucky Fried Chicken", "alt_name:hi": "\u0915\u0947\u0902\u091f\u0941\u0915\u0940 \u092b\u094d\u0930\u093e\u0907\u0921 \u091a\u093f\u0915\u0928", "alt_name:pa": "\u0a15\u0a48\u0a02\u0a1f\u0a41\u0a15\u0a40 \u0a2b\u0a4d\u0a30\u0a3e\u0a08\u0a21 \u0a1a\u0a3f\u0a15\u0a28", "alt_name:pnb": "\u06a9\u06cc\u0646\u0679\u06a9\u06cc \u0641\u0631\u0627\u0626\u06cc\u0688 \u0686\u06a9\u0646", "alt_name:ur": "\u06a9\u06cc\u0646\u0679\u06a9\u06cc \u0641\u0631\u0627\u0626\u06cc\u0688 \u0686\u06a9\u0646", "amenity": "fast_food", "brand": "KFC", "brand:en": "KFC", "brand:hi": "\u0915\u0947\u090f\u092b\u0938\u0940", "brand:pa": "\u0a15\u0a47\u0a10\u0a2b\u0a38\u0a40", "brand:pnb": "\u06a9\u06d2 \u0627\u06cc\u0641 \u0633\u06cc", "brand:ur": "\u06a9\u06d2 \u0627\u06cc\u0641 \u0633\u06cc", "brand:wikidata": "Q524757", "brand:wikipedia": "en:KFC", "brand:wikipedia:pa": "\u0a15\u0a47\u0a10\u0a2b\u0a38\u0a40", "brand:wikipedia:ur": "\u06a9\u06cc\u0646\u0679\u06a9\u06cc \u0641\u0631\u0627\u0626\u06cc\u0688 \u0686\u06a9\u0646", "cuisine": "chicken", "name": "KFC", "name:en": "KFC", "name:hi": "\u0915\u0947\u090f\u092b\u0938\u0940", "name:pa": "\u0a15\u0a47\u0a10\u0a2b\u0a38\u0a40", "name:pnb": "\u06a9\u06d2 \u0627\u06cc\u0641 \u0633\u06cc", "name:ur": "\u06a9\u06d2 \u0627\u06cc\u0641 \u0633\u06cc", "takeaway": "yes", "website": "http://www.kfc.co.in/"}}, {"type": "node", "id": 1914143612, "lat": 12.9775803, "lon": 80.2618165, "tags": {"amenity": "fast_food", "cuisine": "indian", "name": "Anbu Foods"}}, {"type": "node", "id": 1973406477, "lat": 12.9991655, "lon": 80.2706963, "tags": {"amenity": "cafe", "brand": "Barista", "brand:wikidata": "Q644735", "cuisine": "coffee_shop", "name": "Barista", "takeaway": "yes"}}, {"type": "node", "id": 1993242743, "lat": 13.0218776, "lon": 80.173846, "tags": {"amenity": "fast_food", "brand": "Subway", "brand:wikidata": "Q244457", "cuisine": "sandwich", "name": "Subway", "takeaway": "yes"}}, {"type": "node", "id": 2084163664, "lat": 12.9727572, "lon": 80.2193592, "tags": {"amenity": "fast_food", "brand": "Domino's", "brand:ks": "\u0688\u0648\u0645\u06cc\u0646\u0648\u0632", "brand:pa": "\u0a21\u0a4b\u0a2e\u0a40\u0a28\u0a4b\u0a1c\u0a3c", "brand:ur": "\u0688\u0648\u0645\u06cc\u0646\u0648\u0632", "brand:wikidata": "Q839466", "brand:wikipedia": "en:Domino's Pizza", "cuisine": "pizza", "name": "Domino's", "name:ks": "\u0688\u0648\u0645\u06cc\u0646\u0648\u0632", "name:pa": "\u0a21\u0a4b\u0a2e\u0a40\u0a28\u0a4b\u0a1c\u0a3c", "name:ur": "\u0688\u0648\u0645\u06cc\u0646\u0648\u0632", "takeaway": "yes"}}, {"type": "node", "id": 2124737402, "lat": 12.9278815, "lon": 80.2317327, "tags": {"amenity": "fast_food", "brand": "Domino's", "brand:ks": "\u0688\u0648\u0645\u06cc\u0646\u0648\u0632", "brand:pa": "\u0a21\u0a4b\u0a2e\u0a40\u0a28\u0a4b\u0a1c\u0a3c", "brand:ur": "\u0688\u0648\u0645\u06cc\u0646\u0648\u0632", "brand:wikidata": "Q839466", "brand:wikipedia": "en:Domino's Pizza", "name": "Domino's", "name:ks": "\u0688\u0648\u0645\u06cc\u0646\u0648\u0632", "name:pa": "\u0a21\u0a4b\u0a2e\u0a40\u0a28\u0a4b\u0a1c\u0a3c", "name:ur": "\u0688\u0648\u0645\u06cc\u0646\u0648\u0632"}}, {"type": "node", "id": 2145411230, "lat": 12.9809077, "lon": 80.1867898, "tags": {"amenity": "fast_food", "name": "Hot Chappathies"}}, {"type": "node", "id": 2158661709, "lat": 12.990388, "lon": 80.2427276, "tags": {"amenity": "food_court", "layer": "0", "name": "IITM-RP Food Court"}}, {"type": "node", "id": 2185690804, "lat": 13.0132051, "lon": 80.1701491, "tags": {"amenity": "fast_food"}}, {"type": "node", "id": 2197189947, "lat": 12.9848913, "lon": 80.1873641, "tags": {"amenity": "bar"}}, {"type": "node", "id": 2270535381, "lat": 13.0505995, "lon": 80.2138617}, {"type": "node", "id": 2270535382, "lat": 13.050603, "lon": 80.2136599}, {"type": "node", "id": 2270535390, "lat": 13.0510172, "lon": 80.2138762}, {"type": "node", "id": 2270535391, "lat": 13.0510286, "lon": 80.2136928}, {"type": "node", "id": 2270535397, "lat": 13.0514596, "lon": 80.2139194}, {"type": "node", "id": 2270535399, "lat": 13.0514806, "lon": 80.2137284}, {"type": "node", "id": 2322086409, "lat": 12.9834404, "lon": 80.188332, "tags": {"addr:city": "Chennai", "addr:postcode": "600061", "addr:street": "4th Main Road", "amenity": "fast_food", "brand": "Domino's", "brand:ks": "\u0688\u0648\u0645\u06cc\u0646\u0648\u0632", "brand:pa": "\u0a21\u0a4b\u0a2e\u0a40\u0a28\u0a4b\u0a1c\u0a3c", "brand:ur": "\u0688\u0648\u0645\u06cc\u0646\u0648\u0632", "brand:wikidata": "Q839466", "brand:wikipedia": "en:Domino's Pizza", "cuisine": "pizza", "name": "Domino's", "name:ks": "\u0688\u0648\u0645\u06cc\u0646\u0648\u0632", "name:pa": "\u0a21\u0a4b\u0a2e\u0a40\u0a28\u0a4b\u0a1c\u0a3c", "name:ur": "\u0688\u0648\u0645\u06cc\u0646\u0648\u0632", "takeaway": "yes"}}, {"type": "node", "id": 2375714082, "lat": 13.079959, "lon": 80.2499986, "tags": {"addr:housenumber": "8", "addr:street": "Flowers Road", "amenity": "fast_food", "brand": "Domino's", "brand:ks": "\u0688\u0648\u0645\u06cc\u0646\u0648\u0632", "brand:pa": "\u0a21\u0a4b\u0a2e\u0a40\u0a28\u0a4b\u0a1c\u0a3c", "brand:ur": "\u0688\u0648\u0645\u06cc\u0646\u0648\u0632", "brand:wikidata": "Q839466", "brand:wikipedia": "en:Domino's Pizza", "cuisine": "pizza", "name": "Domino's", "name:ks": "\u0688\u0648\u0645\u06cc\u0646\u0648\u0632", "name:pa": "\u0a21\u0a4b\u0a2e\u0a40\u0a28\u0a4b\u0a1c\u0a3c", "name:ur": "\u0688\u0648\u0645\u06cc\u0646\u0648\u0632", "takeaway": "yes"}}, {"type": "node", "id": 2394701215, "lat": 13.0906096, "lon": 80.2183881, "tags": {"amenity": "fast_food", "brand": "Domino's", "brand:ks": "\u0688\u0648\u0645\u06cc\u0646\u0648\u0632", "brand:pa": "\u0a21\u0a4b\u0a2e\u0a40\u0a28\u0a4b\u0a1c\u0a3c", "brand:ur": "\u0688\u0648\u0645\u06cc\u0646\u0648\u0632", "brand:wikidata": "Q839466", "brand:wikipedia": "en:Domino's Pizza", "cuisine": "pizza", "name": "Domino's", "name:ks": "\u0688\u0648\u0645\u06cc\u0646\u0648\u0632", "name:pa": "\u0a21\u0a4b\u0a2e\u0a40\u0a28\u0a4b\u0a1c\u0a3c", "name:ur": "\u0688\u0648\u0645\u06cc\u0646\u0648\u0632", "takeaway": "yes"}}, {"type": "node", "id": 2394701221, "lat": 13.0906956, "lon": 80.2184222, "tags": {"amenity": "fast_food", "brand": "Papa John's", "brand:wikidata": "Q2759586", "brand:wikipedia": "en:Papa John's Pizza", "cuisine": "pizza", "name": "Papa John's", "takeaway": "yes"}}, {"type": "node", "id": 2394703604, "lat": 13.0849157, "lon": 80.2172243, "tags": {"amenity": "fast_food", "brand": "McDonald's", "brand:pa": "\u0a2e\u0a48\u0a15\u0a21\u0a4b\u0a28\u0a32\u0a21\u2019\u0a1c\u0a3c", "brand:ur": "\u0645\u06a9\u0688\u0648\u0646\u0644\u0688\u0632", "brand:wikidata": "Q38076", "brand:wikipedia": "en:McDonald's", "brand:wikipedia:pa": "\u0a2e\u0a48\u0a15\u0a21\u0a4b\u0a28\u0a32\u0a21\u2019\u0a1c\u0a3c", "brand:wikipedia:ur": "\u0645\u06a9\u0688\u0648\u0646\u0644\u0688\u0632", "cuisine": "burger", "name": "McDonald's", "name:pa": "\u0a2e\u0a48\u0a15\u0a21\u0a4b\u0a28\u0a32\u0a21\u2019\u0a1c\u0a3c", "name:ur": "\u0645\u06a9\u0688\u0648\u0646\u0644\u0688\u0632", "takeaway": "yes"}}, {"type": "node", "id": 2394717810, "lat": 13.0835203, "lon": 80.2400173, "tags": {"amenity": "cafe", "brand": "Cafe Coffee Day", "brand:wikidata": "Q5017235", "brand:wikipedia": "en:Caf\u00e9 Coffee Day", "cuisine": "coffee_shop", "internet_access": "no", "name": "Cafe Coffee Day", "takeaway": "yes"}}, {"type": "node", "id": 2394717811, "lat": 13.0832826, "lon": 80.2402319, "tags": {"amenity": "fast_food", "brand": "McDonald's", "brand:pa": "\u0a2e\u0a48\u0a15\u0a21\u0a4b\u0a28\u0a32\u0a21\u2019\u0a1c\u0a3c", "brand:ur": "\u0645\u06a9\u0688\u0648\u0646\u0644\u0688\u0632", "brand:wikidata": "Q38076", "brand:wikipedia": "en:McDonald's", "brand:wikipedia:pa": "\u0a2e\u0a48\u0a15\u0a21\u0a4b\u0a28\u0a32\u0a21\u2019\u0a1c\u0a3c", "brand:wikipedia:ur": "\u0645\u06a9\u0688\u0648\u0646\u0644\u0688\u0632", "cuisine": "burger", "name": "McDonald's", "name:pa": "\u0a2e\u0a48\u0a15\u0a21\u0a4b\u0a28\u0a32\u0a21\u2019\u0a1c\u0a3c", "name:ur": "\u0645\u06a9\u0688\u0648\u0646\u0644\u0688\u0632", "takeaway": "yes"}}, {"type": "node", "id": 2398060289, "lat": 13.0824583, "lon": 80.2151839, "tags": {"amenity": "fast_food", "cuisine": "indian", "name": "Gangotree", "name:en": "Gangotree Sweets & Chats"}}, {"type": "node", "id": 2398076137, "lat": 13.0903593, "lon": 80.2186171, "tags": {"amenity": "fast_food", "cuisine": "chinese", "name": "Quality Fast Food"}}, {"type": "node", "id": 2587520220, "lat": 12.9873277, "lon": 80.2582378, "tags": {"amenity": "fast_food", "name": "Bismi Biryani"}}, {"type": "node", "id": 2612143036, "lat": 13.0152012, "lon": 80.2250384, "tags": {"addr:city": "Chennai", "addr:postcode": "600015", "addr:street": "Anna Salai (Mount Road)", "amenity": "fast_food", "capacity": "30", "cuisine": "regional", "diet:vegetarian": "only", "name": "Adyar Ananda Bhavan", "note": "It is a fast food restaurant, so no chairs to sit down", "phone": "+91 44 4504 2333", "website": "https://aabsweets.com"}}, {"type": "node", "id": 2613603183, "lat": 13.0868942, "lon": 80.2019157, "tags": {"amenity": "cafe", "branch": "(CCD)", "brand": "Cafe Coffee Day", "brand:wikidata": "Q5017235", "brand:wikipedia": "en:Caf\u00e9 Coffee Day", "cuisine": "coffee_shop", "internet_access": "wlan", "internet_access:fee": "no", "name": "Cafe Coffee Day", "takeaway": "yes"}}, {"type": "node", "id": 2878239762, "lat": 12.99415, "lon": 80.1872174, "tags": {"amenity": "fast_food", "brand": "Papa John's", "brand:wikidata": "Q2759586", "brand:wikipedia": "en:Papa John's Pizza", "cuisine": "pizza", "name": "Papa John's", "takeaway": "yes"}}, {"type": "node", "id": 2878248837, "lat": 12.9940614, "lon": 80.186987, "tags": {"amenity": "fast_food", "cuisine": "chinese", "name": "Noodle King"}}, {"type": "node", "id": 2878249758, "lat": 12.9941657, "lon": 80.1872979, "tags": {"amenity": "fast_food", "name": "Fruit Shop on Greams Road"}}, {"type": "node", "id": 3055408127, "lat": 12.9222759, "lon": 80.1448714, "tags": {"amenity": "fast_food", "brand": "Domino's", "brand:ks": "\u0688\u0648\u0645\u06cc\u0646\u0648\u0632", "brand:pa": "\u0a21\u0a4b\u0a2e\u0a40\u0a28\u0a4b\u0a1c\u0a3c", "brand:ur": "\u0688\u0648\u0645\u06cc\u0646\u0648\u0632", "brand:wikidata": "Q839466", "brand:wikipedia": "en:Domino's Pizza", "cuisine": "pizza", "name": "Domino's", "name:ks": "\u0688\u0648\u0645\u06cc\u0646\u0648\u0632", "name:pa": "\u0a21\u0a4b\u0a2e\u0a40\u0a28\u0a4b\u0a1c\u0a3c", "name:ur": "\u0688\u0648\u0645\u06cc\u0646\u0648\u0632", "takeaway": "yes"}}, {"type": "node", "id": 3120780787, "lat": 13.0205079, "lon": 80.1842431, "tags": {"air_conditioning": "yes", "amenity": "fast_food", "brand": "KFC", "brand:pa": "\u0a15\u0a47\u0a10\u0a2b\u0a38\u0a40", "brand:ur": "\u06a9\u06cc\u0646\u0679\u06a9\u06cc \u0641\u0631\u0627\u0626\u06cc\u0688 \u0686\u06a9\u0646", "brand:wikidata": "Q524757", "brand:wikipedia": "en:KFC", "brand:wikipedia:pa": "\u0a15\u0a47\u0a10\u0a2b\u0a38\u0a40", "brand:wikipedia:ur": "\u06a9\u06cc\u0646\u0679\u06a9\u06cc \u0641\u0631\u0627\u0626\u06cc\u0688 \u0686\u06a9\u0646", "cuisine": "chicken", "diet:vegetarian": "yes", "indoor_seating": "yes", "name": "KFC", "name:pa": "\u0a15\u0a47\u0a10\u0a2b\u0a38\u0a40", "name:ur": "\u06a9\u06cc\u0646\u0679\u06a9\u06cc \u0641\u0631\u0627\u0626\u06cc\u0688 \u0686\u06a9\u0646", "outdoor_seating": "no", "smoking": "no", "takeaway": "yes"}}, {"type": "node", "id": 3428272585, "lat": 12.9826865, "lon": 80.2194485, "tags": {"addr:street": "Velachery Bypass Road", "amenity": "cafe", "internet_access": "yes", "name": "thilak cafe"}}, {"type": "node", "id": 3450050680, "lat": 13.0221823, "lon": 80.2222181, "tags": {"addr:street": "Vadhyar Subbraya mudali street", "amenity": "cafe", "internet_access": "no", "name": "Kumbakonam Degree Coffee"}}, {"type": "node", "id": 3485915692, "lat": 13.0354307, "lon": 80.221147, "tags": {"addr:city": "West Mambalam", "addr:postcode": "600033", "addr:street": "Lake View Road", "amenity": "fast_food", "delivery": "no", "drive_through": "no", "name": "O.S.B. Hot & Chaat", "smoking": "no", "takeaway": "yes"}}, {"type": "node", "id": 3568398403, "lat": 12.927839, "lon": 80.2317171, "tags": {"amenity": "cafe", "name": "Coffee Day"}}, {"type": "node", "id": 3602158738, "lat": 12.9806776, "lon": 80.1883627}, {"type": "node", "id": 3602158739, "lat": 12.9806783, "lon": 80.1882812}, {"type": "node", "id": 3602158740, "lat": 12.9807199, "lon": 80.1883674}, {"type": "node", "id": 3602158741, "lat": 12.9807222, "lon": 80.1882804}, {"type": "node", "id": 3602158743, "lat": 12.9807498, "lon": 80.1882429}, {"type": "node", "id": 3602158744, "lat": 12.980753, "lon": 80.1881441}, {"type": "node", "id": 3602158745, "lat": 12.9807814, "lon": 80.1882478}, {"type": "node", "id": 3602158746, "lat": 12.9807811, "lon": 80.1881474}, {"type": "node", "id": 3602212825, "lat": 12.9823332, "lon": 80.1882296}, {"type": "node", "id": 3602212826, "lat": 12.9823354, "lon": 80.1883361}, {"type": "node", "id": 3602212827, "lat": 12.9823921, "lon": 80.1883438}, {"type": "node", "id": 3602212828, "lat": 12.9823932, "lon": 80.1882208}, {"type": "node", "id": 3602545100, "lat": 13.0473471, "lon": 80.2372382}, {"type": "node", "id": 3602545103, "lat": 13.0473697, "lon": 80.2371388}, {"type": "node", "id": 3602545118, "lat": 13.0474813, "lon": 80.2372704}, {"type": "node", "id": 3602545119, "lat": 13.0475038, "lon": 80.237171}, {"type": "node", "id": 3602566121, "lat": 13.04697, "lon": 80.2365526}, {"type": "node", "id": 3602566122, "lat": 13.0469836, "lon": 80.236488}, {"type": "node", "id": 3602566127, "lat": 13.0470772, "lon": 80.2365764}, {"type": "node", "id": 3602566130, "lat": 13.0470908, "lon": 80.2365117}, {"type": "node", "id": 3604397188, "lat": 13.0467061, "lon": 80.2359313}, {"type": "node", "id": 3604397192, "lat": 13.0467222, "lon": 80.2358258}, {"type": "node", "id": 3604397253, "lat": 13.0468448, "lon": 80.2359536}, {"type": "node", "id": 3604397258, "lat": 13.0468609, "lon": 80.2358482}, {"type": "node", "id": 3604420203, "lat": 12.9678776, "lon": 80.2575843}, {"type": "node", "id": 3604420216, "lat": 12.9679246, "lon": 80.2573217}, {"type": "node", "id": 3604420225, "lat": 12.9679941, "lon": 80.2576062}, {"type": "node", "id": 3604420237, "lat": 12.9680411, "lon": 80.2573437}, {"type": "node", "id": 3604861344, "lat": 13.03153, "lon": 80.21132}, {"type": "node", "id": 3604861347, "lat": 13.0315761, "lon": 80.2110164}, {"type": "node", "id": 3604861359, "lat": 13.031737, "lon": 80.211353}, {"type": "node", "id": 3604861361, "lat": 13.031783, "lon": 80.2110494}, {"type": "node", "id": 3605086958, "lat": 12.9321216, "lon": 80.2535454}, {"type": "node", "id": 3605086960, "lat": 12.9322569, "lon": 80.2522934}, {"type": "node", "id": 3605086971, "lat": 12.9326606, "lon": 80.253609}, {"type": "node", "id": 3605086972, "lat": 12.9328193, "lon": 80.252357}, {"type": "node", "id": 3606433190, "lat": 13.0543255, "lon": 80.2563843}, {"type": "node", "id": 3606433191, "lat": 13.0543374, "lon": 80.2560442}, {"type": "node", "id": 3606435294, "lat": 13.0544381, "lon": 80.2563884}, {"type": "node", "id": 3606435295, "lat": 13.05445, "lon": 80.2560484}, {"type": "node", "id": 3606976179, "lat": 13.0313368, "lon": 80.2565839}, {"type": "node", "id": 3606976182, "lat": 13.0313437, "lon": 80.2564084}, {"type": "node", "id": 3606976304, "lat": 13.0314439, "lon": 80.2565883}, {"type": "node", "id": 3606976308, "lat": 13.0314508, "lon": 80.2564129}, {"type": "node", "id": 3614821135, "lat": 12.9260079, "lon": 80.1065446}, {"type": "node", "id": 3614821136, "lat": 12.9260171, "lon": 80.1064405}, {"type": "node", "id": 3614821148, "lat": 12.9261899, "lon": 80.1065615}, {"type": "node", "id": 3614821152, "lat": 12.926199, "lon": 80.1064574}, {"type": "node", "id": 3683320204, "lat": 13.0508942, "lon": 80.2274794}, {"type": "node", "id": 3683320211, "lat": 13.0509202, "lon": 80.2273544}, {"type": "node", "id": 3683320214, "lat": 13.0509519, "lon": 80.227492}, {"type": "node", "id": 3683320219, "lat": 13.0509779, "lon": 80.227367}, {"type": "node", "id": 3685495682, "lat": 13.0348232, "lon": 80.2126171, "tags": {"amenity": "fast_food", "brand": "Saravana Bhavan", "brand:wikidata": "Q3528082", "brand:wikipedia": "en:Saravana Bhavan", "cuisine": "indian;south_indian", "name": "Saravana Bhavan", "official_name": "Hotel Saravana Bhavan", "takeaway": "yes"}}, {"type": "node", "id": 3685562929, "lat": 13.0298367, "lon": 80.2422978, "tags": {"addr:city": "Chennai", "addr:housenumber": "132", "addr:postcode": "600035", "addr:street": "Pasumpon Muthuramalingar Thevar Salai (Chamiers Road)", "amenity": "bar", "name": "Paddington Sports Bar"}}, {"type": "node", "id": 3685645437, "lat": 13.0523188, "lon": 80.2281511, "tags": {"amenity": "fast_food", "name": "Mannah Sweets"}}, {"type": "node", "id": 3686393228, "lat": 13.0338021, "lon": 80.2533553, "tags": {"addr:city": "Chennai", "addr:housenumber": "159/160", "addr:postcode": "600018", "addr:street": "T T Krishnamachari Road", "amenity": "fast_food", "cuisine": "sandwich", "delivery": "yes", "name": "Royal Sandwich", "opening_hours": "Mo-Su 09:30-21:30", "takeaway": "yes"}}, {"type": "node", "id": 3686395696, "lat": 13.029088, "lon": 80.2503083, "tags": {"amenity": "fast_food", "cuisine": "sandwich", "name": "Royal Sandwich"}}, {"type": "node", "id": 3687672105, "lat": 13.017152, "lon": 80.2410121, "tags": {"amenity": "fast_food", "cuisine": "sandwich", "name": "Royal Sandwich", "takeaway": "yes"}}, {"type": "node", "id": 3687693297, "lat": 12.9645311, "lon": 80.1878329, "tags": {"amenity": "cafe", "cuisine": "pizza,burger", "name": "Snow Cube"}}, {"type": "node", "id": 3696257961, "lat": 13.0485453, "lon": 80.2457412, "tags": {"amenity": "cafe", "brand": "Cafe Coffee Day", "brand:wikidata": "Q5017235", "brand:wikipedia": "en:Caf\u00e9 Coffee Day", "cuisine": "coffee_shop", "name": "Cafe Coffee Day", "takeaway": "yes"}}, {"type": "node", "id": 3755454941, "lat": 13.0121666, "lon": 80.2441549, "tags": {"amenity": "cafe"}}, {"type": "node", "id": 3810841791, "lat": 13.0364977, "lon": 80.2230573, "tags": {"addr:city": "West Mambalam", "addr:postcode": "600033", "addr:street": "Lake View Road", "amenity": "fast_food", "delivery": "no", "drive_through": "no", "name": "VSP Kitchen House", "smoking": "no", "takeaway": "yes"}}, {"type": "node", "id": 3875702946, "lat": 13.0963403, "lon": 80.2640741, "tags": {"addr:city": "CHENNAI", "addr:housenumber": "142", "addr:postcode": "600011", "addr:street": "D'Mellows Rd", "amenity": "cafe", "cuisine": "coffee_shop", "internet_access": "wlan", "name": "ARAVIND Traveler's Coffee", "smoking": "isolated"}}, {"type": "node", "id": 3961459332, "lat": 13.08175, "lon": 80.224869, "tags": {"amenity": "cafe", "name": "Coffee Tales", "smoking": "outside"}}, {"type": "node", "id": 3961459335, "lat": 13.0828046, "lon": 80.2255686, "tags": {"amenity": "fast_food", "name": "Sandwich Square"}}, {"type": "node", "id": 3969967344, "lat": 12.9682414, "lon": 80.1487046, "tags": {"amenity": "fast_food", "cuisine": "north_indian", "name": "Sri Gupta Bhavan"}}, {"type": "node", "id": 4226456530, "lat": 12.9894582, "lon": 80.2416245}, {"type": "node", "id": 4226456531, "lat": 12.9894664, "lon": 80.2416755}, {"type": "node", "id": 4226456532, "lat": 12.9895748, "lon": 80.2416337}, {"type": "node", "id": 4226456533, "lat": 12.9895757, "lon": 80.2416857}, {"type": "node", "id": 4241530290, "lat": 13.0469371, "lon": 80.2368552, "tags": {"addr:street": "Rajan Street", "amenity": "cafe", "name": "madras coffee house"}}, {"type": "node", "id": 4284002190, "lat": 13.1170333, "lon": 80.2279792, "tags": {"alt_name": "Kentucky Fried Chicken", "amenity": "fast_food", "brand": "KFC", "brand:pa": "\u0a15\u0a47\u0a10\u0a2b\u0a38\u0a40", "brand:ur": "\u06a9\u06cc\u0646\u0679\u06a9\u06cc \u0641\u0631\u0627\u0626\u06cc\u0688 \u0686\u06a9\u0646", "brand:wikidata": "Q524757", "brand:wikipedia": "en:KFC", "brand:wikipedia:pa": "\u0a15\u0a47\u0a10\u0a2b\u0a38\u0a40", "brand:wikipedia:ur": "\u06a9\u06cc\u0646\u0679\u06a9\u06cc \u0641\u0631\u0627\u0626\u06cc\u0688 \u0686\u06a9\u0646", "cuisine": "chicken", "name": "KFC", "name:pa": "\u0a15\u0a47\u0a10\u0a2b\u0a38\u0a40", "name:ur": "\u06a9\u06cc\u0646\u0679\u06a9\u06cc \u0641\u0631\u0627\u0626\u06cc\u0688 \u0686\u06a9\u0646", "takeaway": "yes"}}, {"type": "node", "id": 4297746818, "lat": 12.9922389, "lon": 80.2304633, "tags": {"amenity": "bicycle_parking", "covered": "no"}}, {"type": "node", "id": 4297746819, "lat": 12.9922266, "lon": 80.230927}, {"type": "node", "id": 4297746820, "lat": 12.9927043, "lon": 80.2309337}, {"type": "node", "id": 4297746821, "lat": 12.9926175, "lon": 80.2307491}, {"type": "node", "id": 4297746822, "lat": 12.9923473, "lon": 80.2304427}, {"type": "node", "id": 4305466960, "lat": 12.9901763, "lon": 80.2585575, "tags": {"addr:postcode": "600041", "addr:street": "Kalakshethra Rd", "amenity": "bar", "name": "Unlock", "operator": "Keys Kattima", "smoking": "isolated"}}, {"type": "node", "id": 4335525921, "lat": 13.03836, "lon": 80.2621637, "tags": {"amenity": "cafe", "cuisine": "Vending Machine", "name": "Tea Shop", "wheelchair": "yes"}}, {"type": "node", "id": 4359470392, "lat": 13.062902, "lon": 80.2437191, "tags": {"addr:street": "Valluvar Kottam High Road", "amenity": "bar", "name:en": "TASMAC"}}, {"type": "node", "id": 4379537180, "lat": 12.9855891, "lon": 80.2459716, "tags": {"amenity": "fast_food", "brand": "Saravana Bhavan", "brand:wikidata": "Q3528082", "cuisine": "indian;south_indian", "diet:vegetarian": "yes", "name": "Saravana Bhavan", "name:en": "Hotel Saravana Bhavan", "official_name": "Hotel Saravana Bhavan", "takeaway": "yes"}}, {"type": "node", "id": 4405513859, "lat": 12.904328, "lon": 80.228305, "tags": {"amenity": "cafe", "cuisine": "juice", "name": "Juiceteria"}}, {"type": "node", "id": 4405513877, "lat": 12.9067585, "lon": 80.2298996, "tags": {"amenity": "cafe", "cuisine": "juice", "name": "Metro Juice"}}, {"type": "node", "id": 4411798692, "lat": 12.9915385, "lon": 80.2194351, "tags": {"amenity": "fast_food", "name:en": "DELHI EXPRESS"}}, {"type": "node", "id": 4411841290, "lat": 13.0211168, "lon": 80.183088, "tags": {"amenity": "fast_food", "name": "New Arcot Biryani", "name:en": "VASANTH BHAVAN"}}, {"type": "node", "id": 4411841293, "lat": 13.022756, "lon": 80.1838415, "tags": {"amenity": "cafe", "name:en": "PRIYA TEA STALL"}}, {"type": "node", "id": 4411841297, "lat": 12.9783186, "lon": 80.2189624, "tags": {"amenity": "fast_food", "name:en": "asife briyani"}}, {"type": "node", "id": 4411851893, "lat": 13.0231089, "lon": 80.1839792, "tags": {"amenity": "cafe"}}, {"type": "node", "id": 4411852389, "lat": 13.0214797, "lon": 80.1829866, "tags": {"amenity": "fast_food", "name:en": "dindugal thalapakaati briyani"}}, {"type": "node", "id": 4452099990, "lat": 13.0645733, "lon": 80.2433771, "tags": {"amenity": "fast_food", "name:en": "Hot Chips"}}, {"type": "node", "id": 4469843446, "lat": 12.9969533, "lon": 80.2405831, "tags": {"amenity": "cafe", "layer": "1", "name": "Coffee Shop", "opening_hours": "09:30-20:00", "smoking": "no", "takeaway": "yes", "wheelchair": "yes"}}, {"type": "node", "id": 4484446333, "lat": 13.0262822, "lon": 80.2755652, "tags": {"alt_name": "Kentucky Fried Chicken", "amenity": "fast_food", "brand": "KFC", "brand:pa": "\u0a15\u0a47\u0a10\u0a2b\u0a38\u0a40", "brand:ur": "\u06a9\u06cc\u0646\u0679\u06a9\u06cc \u0641\u0631\u0627\u0626\u06cc\u0688 \u0686\u06a9\u0646", "brand:wikidata": "Q524757", "brand:wikipedia": "en:KFC", "brand:wikipedia:pa": "\u0a15\u0a47\u0a10\u0a2b\u0a38\u0a40", "brand:wikipedia:ur": "\u06a9\u06cc\u0646\u0679\u06a9\u06cc \u0641\u0631\u0627\u0626\u06cc\u0688 \u0686\u06a9\u0646", "cuisine": "chicken", "name": "KFC", "name:pa": "\u0a15\u0a47\u0a10\u0a2b\u0a38\u0a40", "name:ur": "\u06a9\u06cc\u0646\u0679\u06a9\u06cc \u0641\u0631\u0627\u0626\u06cc\u0688 \u0686\u06a9\u0646", "takeaway": "yes"}}, {"type": "node", "id": 4544639994, "lat": 13.0462701, "lon": 80.2464611, "tags": {"addr:street": "Narashiman 2nd Street", "amenity": "cafe", "cuisine": "indian;chinese", "internet_access": "wlan", "name": "Absolem"}}, {"type": "node", "id": 4555470484, "lat": 13.0500056, "lon": 80.2510478}, {"type": "node", "id": 4555470485, "lat": 13.0499998, "lon": 80.2512247}, {"type": "node", "id": 4555470486, "lat": 13.0500623, "lon": 80.2512269}, {"type": "node", "id": 4555470487, "lat": 13.0500682, "lon": 80.2510499}, {"type": "node", "id": 4580909689, "lat": 13.0004043, "lon": 80.2665723, "tags": {"addr:housenumber": "1", "addr:postcode": "600090", "addr:street": "Besant Nagar 1st Avenue", "amenity": "bar", "cuisine": "indian", "name:en": "Tamsac Local Bar", "opening_hours": "Mo-Su 10:00-22:00"}}, {"type": "node", "id": 4594634884, "lat": 13.013219, "lon": 80.2373374, "tags": {"addr:city": "chennai", "addr:postcode": "600025", "addr:street": "sardar patel road", "amenity": "cafe", "cuisine": "regional", "fixme": "Unusual hours (open for just one hour?)", "internet_access": "wlan", "internet_access:fee": "no", "name": "recreation centre", "opening_hours": "21:30-22:30"}}, {"type": "node", "id": 4603134111, "lat": 13.0065052, "lon": 80.2444537, "tags": {"amenity": "cafe", "cuisine": "tea_shop", "description": "Best tea ever", "name": "Hi-Look"}}, {"type": "node", "id": 4622159700, "lat": 13.0133234, "lon": 80.2360891, "tags": {"amenity": "cafe", "internet_access": "no", "name": "Cafeteria", "outdoor_seating": "no", "smoking": "no"}}, {"type": "node", "id": 4639687855, "lat": 12.9215731, "lon": 80.0922201, "tags": {"amenity": "cafe", "name": "Metro Juice Park"}}, {"type": "node", "id": 4639712096, "lat": 12.921007, "lon": 80.0907133, "tags": {"amenity": "bar", "name": "Tasmac Wine Shop", "outdoor_seating": "no", "smoking": "isolated"}}, {"type": "node", "id": 4639777306, "lat": 12.9212163, "lon": 80.0914842, "tags": {"amenity": "fast_food", "cuisine": "chinese", "name": "Jeya Fastfood"}}, {"type": "node", "id": 4681455945, "lat": 13.0393687, "lon": 80.2288468, "tags": {"addr:city": "t.nagar", "addr:housenumber": "28", "addr:postcode": "600 017", "addr:street": "Rameswaram Street", "amenity": "cafe", "cuisine": "italian", "name": "Candose Ice Cream Palour", "outdoor_seating": "no", "phone": "+914442178384"}}, {"type": "node", "id": 4688927498, "lat": 13.0377106, "lon": 80.2302098, "tags": {"addr:housenumber": "9", "addr:postcode": "600 017", "addr:street": "Ramanathan Street", "amenity": "cafe", "name:en": "Murugan Idli Shop", "opening_hours": "Mo-Su 07:00-23:00", "phone": "04442084842"}}, {"type": "node", "id": 4711359172, "lat": 13.0428978, "lon": 80.2334236, "tags": {"addr:city": "T.Nagar,Chennai", "addr:housenumber": "453", "addr:postcode": "600017", "addr:street": "Govindu Street", "amenity": "cafe", "cuisine": "regional", "name": "Cafeteria", "outdoor_seating": "yes", "phone": "+9133578", "smoking": "no", "website": "www.ccd.com"}}, {"type": "node", "id": 4711364259, "lat": 13.0431359, "lon": 80.2328234}, {"type": "node", "id": 4711364260, "lat": 13.0430104, "lon": 80.2327993}, {"type": "node", "id": 4711364261, "lat": 13.0429791, "lon": 80.232928}, {"type": "node", "id": 4711364262, "lat": 13.0431124, "lon": 80.2329549}, {"type": "node", "id": 4733574173, "lat": 12.9106093, "lon": 80.2222439}, {"type": "node", "id": 4733574174, "lat": 12.9108315, "lon": 80.2223961}, {"type": "node", "id": 4733574175, "lat": 12.9104769, "lon": 80.2229407}, {"type": "node", "id": 4733574176, "lat": 12.9102737, "lon": 80.222806}, {"type": "node", "id": 4733574177, "lat": 12.9102978, "lon": 80.2220235}, {"type": "node", "id": 4733574178, "lat": 12.9105222, "lon": 80.2221793}, {"type": "node", "id": 4733574179, "lat": 12.9101703, "lon": 80.2227277}, {"type": "node", "id": 4733574180, "lat": 12.9099553, "lon": 80.2225817}, {"type": "node", "id": 4785441722, "lat": 13.0314444, "lon": 80.1910391, "tags": {"addr:postcode": "600078", "addr:street": "Kamarajar Salai", "amenity": "bar", "name:en": "TASMAC"}}, {"type": "node", "id": 4785447221, "lat": 13.0377329, "lon": 80.1927828, "tags": {"addr:postcode": "600078", "addr:street": "Munusamy Salai", "amenity": "bar", "name:en": "TASMAC"}}, {"type": "node", "id": 4794992304, "lat": 13.0236753, "lon": 80.1841038, "tags": {"amenity": "cafe", "cuisine": "ice_cream", "name": "corner shop"}}, {"type": "node", "id": 4815922448, "lat": 13.0332203, "lon": 80.1915785, "tags": {"addr:street": "Thiruvalluvar 2nd Street", "amenity": "bar", "name:en": "Colosed"}}, {"type": "node", "id": 4816021122, "lat": 13.0377925, "lon": 80.1927724, "tags": {"addr:postcode": "600078", "addr:street": "Anna Main Road", "amenity": "fast_food", "name:en": "FAST FOOD"}}, {"type": "node", "id": 4832843422, "lat": 13.040968, "lon": 80.2367098, "tags": {"amenity": "fast_food", "brand": "Saravana Bhavan", "brand:wikidata": "Q3528082", "brand:wikipedia": "en:Saravana Bhavan", "cuisine": "indian;south_indian", "name": "Saravana Bhavan", "name:en": "saravana bhavan", "official_name": "Hotel Saravana Bhavan", "takeaway": "yes"}}, {"type": "node", "id": 4851245176, "lat": 13.0597983, "lon": 80.2229583, "tags": {"addr:city": "Chennai", "addr:street": "Ramapuram 2nd Street, Choolaimedu", "amenity": "fast_food", "description": "Best Beef Biriyani in the City", "name": "AL Tharik Beef Biriyani Hotel"}}, {"type": "node", "id": 4948911363, "lat": 13.0850931, "lon": 80.2123962, "tags": {"addr:housenumber": "No: 221", "addr:street": "TBR Tower, Near Ayyappa Temple, 2nd Avenue, Block Y, Anna Nagar, Y Block, Anna Nagar, Chennai, Tamil Nadu 600040", "amenity": "cafe", "brand": "Starbucks", "brand:pa": "\u0a38\u0a1f\u0a3e\u0a30\u0a2c\u0a15\u0a38", "brand:ur": "\u0627\u0633\u0679\u0627\u0631\u0628\u06a9\u0633", "brand:wikidata": "Q37158", "brand:wikipedia": "en:Starbucks", "cuisine": "coffee_shop", "description": "Seattle based Coffeehouse chain", "name": "Starbucks", "name:pa": "\u0a38\u0a1f\u0a3e\u0a30\u0a2c\u0a15\u0a38", "name:ur": "\u0627\u0633\u0679\u0627\u0631\u0628\u06a9\u0633", "official_name": "Starbucks Coffee", "official_name:pa": "\u0a38\u0a1f\u0a3e\u0a30\u0a2c\u0a15\u0a38 \u0a15\u0a4c\u0a2b\u0a40", "official_name:ur": "\u0627\u0633\u0679\u0627\u0631\u0628\u06a9\u0633 \u06a9\u0627\u0641\u06cc", "opening_hours": "Mo-Su 09:00-23:00", "phone": "+918939867915", "takeaway": "yes", "website": "https://www.starbucks.in/"}}, {"type": "node", "id": 5079356668, "lat": 13.0775405, "lon": 80.2619973, "tags": {"amenity": "cafe", "name": "Impala Food center"}}, {"type": "node", "id": 5087493125, "lat": 12.9227226, "lon": 80.1432655, "tags": {"alt_name": "Kentucky Fried Chicken", "amenity": "fast_food", "brand": "KFC", "brand:pa": "\u0a15\u0a47\u0a10\u0a2b\u0a38\u0a40", "brand:ur": "\u06a9\u06cc\u0646\u0679\u06a9\u06cc \u0641\u0631\u0627\u0626\u06cc\u0688 \u0686\u06a9\u0646", "brand:wikidata": "Q524757", "brand:wikipedia": "en:KFC", "brand:wikipedia:pa": "\u0a15\u0a47\u0a10\u0a2b\u0a38\u0a40", "brand:wikipedia:ur": "\u06a9\u06cc\u0646\u0679\u06a9\u06cc \u0641\u0631\u0627\u0626\u06cc\u0688 \u0686\u06a9\u0646", "cuisine": "chicken", "name": "KFC", "name:pa": "\u0a15\u0a47\u0a10\u0a2b\u0a38\u0a40", "name:ur": "\u06a9\u06cc\u0646\u0679\u06a9\u06cc \u0641\u0631\u0627\u0626\u06cc\u0688 \u0686\u06a9\u0646", "takeaway": "yes"}}, {"type": "node", "id": 5090925922, "lat": 12.9226942, "lon": 80.1615625, "tags": {"amenity": "cafe", "brand": "Cafe Coffee Day", "brand:wikidata": "Q5017235", "cuisine": "coffee_shop", "name": "Cafe Coffee Day", "takeaway": "yes"}}, {"type": "node", "id": 5093965223, "lat": 12.8988584, "lon": 80.2280206, "tags": {"amenity": "cafe", "name": "My bakers juice shop"}}, {"type": "node", "id": 5228470389, "lat": 13.0225542, "lon": 80.2060458}, {"type": "node", "id": 5228470390, "lat": 13.0225542, "lon": 80.2061202}, {"type": "node", "id": 5228470391, "lat": 13.0225206, "lon": 80.2062512}, {"type": "node", "id": 5228470392, "lat": 13.0225086, "lon": 80.2063257}, {"type": "node", "id": 5228470393, "lat": 13.0222681, "lon": 80.2062733}, {"type": "node", "id": 5228470394, "lat": 13.0223272, "lon": 80.2059837}, {"type": "node", "id": 5239595670, "lat": 13.087417, "lon": 80.1982028, "tags": {"addr:city": "Thirumangalam, Chennai", "addr:postcode": "600040", "addr:street": "TNEB Complex, Welcome colony, Anna nagar west, Ambattur estate road", "amenity": "fast_food", "brand": "Saravana Bhavan", "brand:wikidata": "Q3528082", "cuisine": "indian;south_indian", "name": "Saravana Bhavan", "official_name": "Hotel Saravana Bhavan", "outdoor_seating": "no", "takeaway": "yes"}}, {"type": "node", "id": 5258898325, "lat": 12.9120966, "lon": 80.1434134, "tags": {"amenity": "fast_food", "brand": "Domino's", "brand:wikidata": "Q839466", "cuisine": "pizza", "name": "Domino's", "name:en": "Domino's pizza", "phone": "04468886888", "takeaway": "yes"}}, {"type": "node", "id": 5372357422, "lat": 13.0590233, "lon": 80.23652, "tags": {"amenity": "cafe", "name:en": "Liba cafeteriya"}}, {"type": "node", "id": 5372361522, "lat": 13.0589332, "lon": 80.2365159, "tags": {"amenity": "cafe", "name:en": "Liba cafe"}}, {"type": "node", "id": 5379859523, "lat": 13.0656063, "lon": 80.273769, "tags": {"amenity": "fast_food", "name": "\u0bb2\u0bbe\u0bae\u0bcd\u0b9a\u0bbf \u0b95\u0bc7\u0baa\u0bcd", "name:en": "Lamcy cafe"}}, {"type": "node", "id": 5551877221, "lat": 13.0662325, "lon": 80.2738, "tags": {"amenity": "fast_food", "brand": "Domino's", "brand:ks": "\u0688\u0648\u0645\u06cc\u0646\u0648\u0632", "brand:pa": "\u0a21\u0a4b\u0a2e\u0a40\u0a28\u0a4b\u0a1c\u0a3c", "brand:ur": "\u0688\u0648\u0645\u06cc\u0646\u0648\u0632", "brand:wikidata": "Q839466", "brand:wikipedia": "en:Domino's Pizza", "cuisine": "pizza", "name": "Domino's", "name:ks": "\u0688\u0648\u0645\u06cc\u0646\u0648\u0632", "name:pa": "\u0a21\u0a4b\u0a2e\u0a40\u0a28\u0a4b\u0a1c\u0a3c", "name:ur": "\u0688\u0648\u0645\u06cc\u0646\u0648\u0632", "takeaway": "yes"}}, {"type": "node", "id": 5570584565, "lat": 12.9811251, "lon": 80.2294284, "tags": {"amenity": "cafe", "cuisine": "Tea and Snacks", "name": "Tea Shop"}}, {"type": "node", "id": 5594895224, "lat": 13.0068373, "lon": 80.2542291, "tags": {"amenity": "fast_food", "brand": "McDonald's", "brand:wikidata": "Q38076", "cuisine": "burger", "name": "McDonald's", "name:en": "McDonald\u2019s", "takeaway": "yes"}}, {"type": "node", "id": 5628206599, "lat": 12.9926901, "lon": 80.2307483}, {"type": "node", "id": 5631872262, "lat": 13.0287086, "lon": 80.219855, "tags": {"addr:city": "chennai", "addr:postcode": "600015", "addr:street": "Kodambakkam Rd", "amenity": "fast_food", "cuisine": "regional", "delivery": "no", "name": "Jamba Juice", "opening_hours": "Mo-Su 09:00-21:00", "smoking": "no", "takeaway": "yes"}}, {"type": "node", "id": 5631872267, "lat": 13.0314265, "lon": 80.2227985, "tags": {"addr:city": "Saidapet", "addr:postcode": "600033", "addr:street": "Govindan Road", "amenity": "cafe", "cuisine": "coffee_shop", "internet_access": "yes", "smoking": "no"}}, {"type": "node", "id": 5631872268, "lat": 13.0283112, "lon": 80.2239348, "tags": {"addr:city": "Chennai", "addr:housenumber": "125", "addr:postcode": "600033", "addr:street": "Reddy Kuppam Street", "amenity": "fast_food", "cuisine": "regional", "drive_through": "no", "name": "Saran fast food", "operator": "anbu", "smoking": "no", "takeaway": "yes"}}, {"type": "node", "id": 5633031066, "lat": 12.9913212, "lon": 80.2341572}, {"type": "node", "id": 5633031067, "lat": 12.9913911, "lon": 80.2342565}, {"type": "node", "id": 5633031068, "lat": 12.9912975, "lon": 80.234325}, {"type": "node", "id": 5633031069, "lat": 12.9912282, "lon": 80.2342254}, {"type": "node", "id": 5633031070, "lat": 12.9913307, "lon": 80.2341707}, {"type": "node", "id": 5633031071, "lat": 12.9913821, "lon": 80.2342435}, {"type": "node", "id": 5649401606, "lat": 13.0454715, "lon": 80.2615074, "tags": {"addr:housenumber": "65/5", "addr:street": "Dr Radhakrishnan Salai", "amenity": "cafe", "cuisine": "breakfast;coffee_shop", "diet:vegan": "yes", "name:en": "Brew Room", "website": "https://saverahotel.com/"}}, {"type": "node", "id": 5653260321, "lat": 13.029281, "lon": 80.2485711, "tags": {"amenity": "cafe", "brand": "Starbucks", "brand:pa": "\u0a38\u0a1f\u0a3e\u0a30\u0a2c\u0a15\u0a38", "brand:ur": "\u0627\u0633\u0679\u0627\u0631\u0628\u06a9\u0633", "brand:wikidata": "Q37158", "brand:wikipedia": "en:Starbucks", "cuisine": "coffee_shop", "name": "Starbucks", "name:pa": "\u0a38\u0a1f\u0a3e\u0a30\u0a2c\u0a15\u0a38", "name:ur": "\u0627\u0633\u0679\u0627\u0631\u0628\u06a9\u0633", "official_name": "Starbucks Coffee", "official_name:pa": "\u0a38\u0a1f\u0a3e\u0a30\u0a2c\u0a15\u0a38 \u0a15\u0a4c\u0a2b\u0a40", "official_name:ur": "\u0627\u0633\u0679\u0627\u0631\u0628\u06a9\u0633 \u06a9\u0627\u0641\u06cc", "shop": "bakery", "takeaway": "yes"}}, {"type": "node", "id": 5653260421, "lat": 13.0297072, "lon": 80.2454577, "tags": {"amenity": "fast_food", "brand": "Subway", "brand:pa": "\u0a38\u0a2c\u0a35\u0a47\u0a05", "brand:ur": "\u0633\u0628 \u0648\u06d2", "brand:wikidata": "Q244457", "brand:wikipedia": "en:Subway (restaurant)", "cuisine": "sandwich", "name": "Subway", "name:pa": "\u0a38\u0a2c\u0a35\u0a47\u0a05", "name:ur": "\u0633\u0628 \u0648\u06d2", "takeaway": "yes"}}, {"type": "node", "id": 5737223333, "lat": 13.0741894, "lon": 80.2621162, "tags": {"amenity": "fast_food", "brand": "Subway", "brand:pa": "\u0a38\u0a2c\u0a35\u0a47\u0a05", "brand:ur": "\u0633\u0628 \u0648\u06d2", "brand:wikidata": "Q244457", "brand:wikipedia": "en:Subway (restaurant)", "cuisine": "sandwich", "name": "Subway", "name:pa": "\u0a38\u0a2c\u0a35\u0a47\u0a05", "name:ur": "\u0633\u0628 \u0648\u06d2", "takeaway": "yes"}}, {"type": "node", "id": 5737223350, "lat": 13.0768575, "lon": 80.2622942, "tags": {"amenity": "fast_food", "brand": "Saravana Bhavan", "brand:wikidata": "Q3528082", "brand:wikipedia": "en:Saravana Bhavan", "cuisine": "indian;south_indian", "name": "Saravana Bhavan", "official_name": "Hotel Saravana Bhavan", "takeaway": "yes"}}, {"type": "node", "id": 5737223364, "lat": 13.084481, "lon": 80.2760751, "tags": {"amenity": "fast_food", "cuisine": "juice", "description": "Cake bar Juice Shop", "name": "Greenapple"}}, {"type": "node", "id": 5737223366, "lat": 13.0766998, "lon": 80.2625321, "tags": {"amenity": "bar", "name": "Tropicana Bar"}}, {"type": "node", "id": 5744866568, "lat": 13.0680696, "lon": 80.2563969, "tags": {"amenity": "cafe", "name": "IndCafe"}}, {"type": "node", "id": 5745381642, "lat": 13.0723679, "lon": 80.2551337, "tags": {"amenity": "bar"}}, {"type": "node", "id": 5851483386, "lat": 12.984588, "lon": 80.1676556, "tags": {"alt_name": "Kentucky Fried Chicken", "alt_name:en": "Kentucky Fried Chicken", "alt_name:hi": "\u0915\u0947\u0902\u091f\u0941\u0915\u0940 \u092b\u094d\u0930\u093e\u0907\u0921 \u091a\u093f\u0915\u0928", "alt_name:pa": "\u0a15\u0a48\u0a02\u0a1f\u0a41\u0a15\u0a40 \u0a2b\u0a4d\u0a30\u0a3e\u0a08\u0a21 \u0a1a\u0a3f\u0a15\u0a28", "alt_name:pnb": "\u06a9\u06cc\u0646\u0679\u06a9\u06cc \u0641\u0631\u0627\u0626\u06cc\u0688 \u0686\u06a9\u0646", "alt_name:ur": "\u06a9\u06cc\u0646\u0679\u06a9\u06cc \u0641\u0631\u0627\u0626\u06cc\u0688 \u0686\u06a9\u0646", "amenity": "fast_food", "brand": "KFC", "brand:en": "KFC", "brand:hi": "\u0915\u0947\u090f\u092b\u0938\u0940", "brand:pa": "\u0a15\u0a47\u0a10\u0a2b\u0a38\u0a40", "brand:pnb": "\u06a9\u06d2 \u0627\u06cc\u0641 \u0633\u06cc", "brand:ur": "\u06a9\u06d2 \u0627\u06cc\u0641 \u0633\u06cc", "brand:wikidata": "Q524757", "brand:wikipedia": "en:KFC", "brand:wikipedia:pa": "\u0a15\u0a47\u0a10\u0a2b\u0a38\u0a40", "brand:wikipedia:ur": "\u06a9\u06cc\u0646\u0679\u06a9\u06cc \u0641\u0631\u0627\u0626\u06cc\u0688 \u0686\u06a9\u0646", "cuisine": "chicken", "name": "KFC", "name:en": "KFC", "name:hi": "\u0915\u0947\u090f\u092b\u0938\u0940", "name:pa": "\u0a15\u0a47\u0a10\u0a2b\u0a38\u0a40", "name:pnb": "\u06a9\u06d2 \u0627\u06cc\u0641 \u0633\u06cc", "name:ur": "\u06a9\u06d2 \u0627\u06cc\u0641 \u0633\u06cc", "takeaway": "yes"}}, {"type": "node", "id": 6039312690, "lat": 13.08748, "lon": 80.1979799, "tags": {"addr:street": "TNEB Complex, Welcome colony, Anna nagar west", "amenity": "food_court", "name": "Guruchandra Food Court"}}, {"type": "node", "id": 6057945755, "lat": 13.0292984, "lon": 80.2484733, "tags": {"amenity": "cafe", "brand": "Starbucks", "brand:pa": "\u0a38\u0a1f\u0a3e\u0a30\u0a2c\u0a15\u0a38", "brand:ur": "\u0627\u0633\u0679\u0627\u0631\u0628\u06a9\u0633", "brand:wikidata": "Q37158", "brand:wikipedia": "en:Starbucks", "cuisine": "coffee_shop", "name": "Starbucks", "name:pa": "\u0a38\u0a1f\u0a3e\u0a30\u0a2c\u0a15\u0a38", "name:ur": "\u0627\u0633\u0679\u0627\u0631\u0628\u06a9\u0633", "official_name": "Starbucks Coffee", "official_name:pa": "\u0a38\u0a1f\u0a3e\u0a30\u0a2c\u0a15\u0a38 \u0a15\u0a4c\u0a2b\u0a40", "official_name:ur": "\u0627\u0633\u0679\u0627\u0631\u0628\u06a9\u0633 \u06a9\u0627\u0641\u06cc", "shop": "coffee", "takeaway": "yes"}}, {"type": "node", "id": 6161110012, "lat": 13.0768494, "lon": 80.2408406}, {"type": "node", "id": 6161110013, "lat": 13.0771087, "lon": 80.2410665}, {"type": "node", "id": 6161110023, "lat": 13.0768885, "lon": 80.2413328}, {"type": "node", "id": 6161110024, "lat": 13.0766293, "lon": 80.2411068}, {"type": "node", "id": 6161110025, "lat": 13.0767301, "lon": 80.2409849}, {"type": "node", "id": 6165465886, "lat": 13.0635226, "lon": 80.2759605, "tags": {"amenity": "bar", "name:en": "Dosai in 30"}}, {"type": "node", "id": 6180354768, "lat": 12.9962491, "lon": 80.190031}, {"type": "node", "id": 6180354769, "lat": 12.9964445, "lon": 80.1900758}, {"type": "node", "id": 6180354770, "lat": 12.9964345, "lon": 80.1901217}, {"type": "node", "id": 6180354771, "lat": 12.9964798, "lon": 80.1901321}, {"type": "node", "id": 6180354772, "lat": 12.9964463, "lon": 80.1902859}, {"type": "node", "id": 6180354773, "lat": 12.9964319, "lon": 80.1902826}, {"type": "node", "id": 6180354774, "lat": 12.9964166, "lon": 80.1903527}, {"type": "node", "id": 6180354775, "lat": 12.9963627, "lon": 80.1903404}, {"type": "node", "id": 6180354776, "lat": 12.9963671, "lon": 80.1903199}, {"type": "node", "id": 6180354777, "lat": 12.9962218, "lon": 80.1902866}, {"type": "node", "id": 6180354778, "lat": 12.9962346, "lon": 80.1902276}, {"type": "node", "id": 6180354779, "lat": 12.9962231, "lon": 80.190225}, {"type": "node", "id": 6180354780, "lat": 12.9962456, "lon": 80.1901217}, {"type": "node", "id": 6180354781, "lat": 12.9962301, "lon": 80.1901182}, {"type": "node", "id": 6274205286, "lat": 13.0660577, "lon": 80.2752134, "tags": {"amenity": "cafe", "name:en": "LU LU Snacks"}}, {"type": "node", "id": 6274215888, "lat": 13.0647608, "lon": 80.2780404, "tags": {"amenity": "cafe", "name:en": "Lassi House"}}, {"type": "node", "id": 6274226287, "lat": 13.0651853, "lon": 80.2773116, "tags": {"amenity": "cafe", "name:en": "Majestic"}}, {"type": "node", "id": 6274226387, "lat": 13.0655376, "lon": 80.2765068, "tags": {"amenity": "cafe", "name:en": "Sabari Tea Stall"}}, {"type": "node", "id": 6274226685, "lat": 13.0655942, "lon": 80.2763125, "tags": {"amenity": "cafe", "name:en": "Minnu Snacks"}}, {"type": "node", "id": 6274318386, "lat": 13.0634326, "lon": 80.2751869, "tags": {"amenity": "fast_food", "name:en": "Madras Biriyani"}}, {"type": "node", "id": 6274320986, "lat": 13.0633702, "lon": 80.2760153, "tags": {"amenity": "fast_food", "name:en": "Shake Shack"}}, {"type": "node", "id": 6274340487, "lat": 13.0654402, "lon": 80.2738941, "tags": {"amenity": "cafe", "name:en": "Babylon Cafe"}}, {"type": "node", "id": 6276050899, "lat": 13.0509433, "lon": 80.2114882, "tags": {"amenity": "cafe", "name:en": "Madras Coffee House"}}, {"type": "node", "id": 6276433494, "lat": 12.9806527, "lon": 80.1639502, "tags": {"amenity": "fast_food", "name": "Wow! Momos"}}, {"type": "node", "id": 6276702685, "lat": 12.9844031, "lon": 80.167661, "tags": {"amenity": "fast_food", "brand": "Subway", "brand:pa": "\u0a38\u0a2c\u0a35\u0a47\u0a05", "brand:ur": "\u0633\u0628 \u0648\u06d2", "brand:wikidata": "Q244457", "brand:wikipedia": "en:Subway (restaurant)", "cuisine": "sandwich", "name": "Subway", "name:pa": "\u0a38\u0a2c\u0a35\u0a47\u0a05", "name:ur": "\u0633\u0628 \u0648\u06d2", "takeaway": "yes"}}, {"type": "node", "id": 6276702686, "lat": 12.984361, "lon": 80.1674836, "tags": {"amenity": "fast_food", "brand": "Wow! Momo", "brand:wikidata": "Q8037446", "brand:wikipedia": "en:Wow! Momo", "cuisine": "momo", "name": "Wow! Momo", "name:en": "Wow momo", "takeaway": "yes"}}, {"type": "node", "id": 6276730985, "lat": 12.9841835, "lon": 80.167036, "tags": {"amenity": "cafe", "name:en": "Cafeccino"}}, {"type": "node", "id": 6276748385, "lat": 12.9842303, "lon": 80.1668565, "tags": {"amenity": "cafe", "name:en": "Cookie Man"}}, {"type": "node", "id": 6301045090, "lat": 13.0619059, "lon": 80.2742815, "tags": {"amenity": "bar"}}, {"type": "node", "id": 6387287248, "lat": 12.9433087, "lon": 80.1342572, "tags": {"amenity": "fast_food", "brand": "KFC", "brand:pa": "\u0a15\u0a47\u0a10\u0a2b\u0a38\u0a40", "brand:ur": "\u06a9\u06cc\u0646\u0679\u06a9\u06cc \u0641\u0631\u0627\u0626\u06cc\u0688 \u0686\u06a9\u0646", "brand:wikidata": "Q524757", "brand:wikipedia": "en:KFC", "brand:wikipedia:pa": "\u0a15\u0a47\u0a10\u0a2b\u0a38\u0a40", "brand:wikipedia:ur": "\u06a9\u06cc\u0646\u0679\u06a9\u06cc \u0641\u0631\u0627\u0626\u06cc\u0688 \u0686\u06a9\u0646", "cuisine": "chicken", "name": "KFC", "name:pa": "\u0a15\u0a47\u0a10\u0a2b\u0a38\u0a40", "name:ur": "\u06a9\u06cc\u0646\u0679\u06a9\u06cc \u0641\u0631\u0627\u0626\u06cc\u0688 \u0686\u06a9\u0646", "phone": "+91-44-3399-4444", "takeaway": "yes"}}, {"type": "node", "id": 6540378885, "lat": 13.0721863, "lon": 80.2026446, "tags": {"amenity": "fast_food", "name:en": "KFC"}}, {"type": "node", "id": 6611449540, "lat": 12.992295, "lon": 80.2304441}, {"type": "node", "id": 6611449541, "lat": 12.9922949, "lon": 80.2304646}, {"type": "node", "id": 6646029813, "lat": 13.0693914, "lon": 80.2570434, "tags": {"amenity": "fast_food", "cuisine": "indian"}}, {"type": "node", "id": 7045972386, "lat": 12.9889926, "lon": 80.256116, "tags": {"amenity": "fast_food", "name:en": "Dominoes Pizza"}}, {"type": "node", "id": 7054233385, "lat": 13.0593071, "lon": 80.2446893, "tags": {"addr:housenumber": "1/3", "addr:street": "Kumarappa Street", "amenity": "fast_food", "cuisine": "pizza;burger", "email": "blackbox317@gmail.com", "name": "Black Box", "phone": "9962725840", "website": "https://www.instagram.com/blackbox001"}}, {"type": "node", "id": 7080292385, "lat": 13.0460181, "lon": 80.2573121, "tags": {"amenity": "bar", "cuisine": "spanish;tapas", "name:en": "Sera The Tapas Bar"}}, {"type": "node", "id": 7085474286, "lat": 13.0284245, "lon": 80.2540448, "tags": {"amenity": "bar", "cuisine": "international;indian", "name:en": "Velveteen The Rabbit"}}, {"type": "node", "id": 7085477386, "lat": 13.027546, "lon": 80.2539949, "tags": {"amenity": "bar", "name:en": "Veleveteen the Rabbit"}}, {"type": "node", "id": 7085478785, "lat": 13.0272954, "lon": 80.2547656, "tags": {"amenity": "bar", "cuisine": "indian;international", "name:en": "The Velveteen Rabbit"}}, {"type": "node", "id": 7087532185, "lat": 13.062703, "lon": 80.2615972, "tags": {"amenity": "bar", "cuisine": "international;regional;tea;coffee_shop", "internet_access": "wlan", "name:en": "The Lady Connemara", "opening_hours": "Mo-Su 18:00-00:00", "website": "http://www.tajhitels.com"}}, {"type": "node", "id": 7130104985, "lat": 12.937752, "lon": 80.1343729, "tags": {"amenity": "cafe", "name:en": "Indian coffee house"}}, {"type": "node", "id": 7136008686, "lat": 13.0495809, "lon": 80.2572224, "tags": {"amenity": "cafe", "brand": "Cafe Coffee Day", "brand:wikidata": "Q5017235", "brand:wikipedia": "en:Caf\u00e9 Coffee Day", "cuisine": "coffee_shop", "name": "Cafe Coffee Day", "name:en": "Cafe coffee day", "takeaway": "yes"}}, {"type": "node", "id": 7159775652, "lat": 12.9068889, "lon": 80.2242154, "tags": {"amenity": "fast_food", "name": "Peppercorn"}}, {"type": "node", "id": 7177268686, "lat": 12.9693611, "lon": 80.1887998, "tags": {"amenity": "cafe", "name": "Snow Cube Cafe"}}, {"type": "node", "id": 7192792887, "lat": 13.064487, "lon": 80.2675924, "tags": {"amenity": "cafe", "cuisine": "tea;coffee_shop", "name:en": "Lamcy Cafe"}}, {"type": "node", "id": 7252446944, "lat": 13.0330302, "lon": 80.2116697, "tags": {"amenity": "bar", "name": "Drunken Monkey"}}, {"type": "node", "id": 7252560148, "lat": 13.0361328, "lon": 80.2125995, "tags": {"amenity": "fast_food", "branch": "Veg", "brand": "Saravana Bhavan", "brand:wikidata": "Q3528082", "brand:wikipedia": "en:Saravana Bhavan", "cuisine": "indian;south_indian", "name": "Saravana Bhavan", "official_name": "Hotel Saravana Bhavan", "takeaway": "yes"}}, {"type": "node", "id": 7255752064, "lat": 13.0531665, "lon": 80.2466703, "tags": {"amenity": "fast_food", "brand": "Domino's", "brand:ks": "\u0688\u0648\u0645\u06cc\u0646\u0648\u0632", "brand:pa": "\u0a21\u0a4b\u0a2e\u0a40\u0a28\u0a4b\u0a1c\u0a3c", "brand:ur": "\u0688\u0648\u0645\u06cc\u0646\u0648\u0632", "brand:wikidata": "Q839466", "brand:wikipedia": "en:Domino's Pizza", "cuisine": "pizza", "drive_through": "no", "name": "Domino's", "name:ks": "\u0688\u0648\u0645\u06cc\u0646\u0648\u0632", "name:pa": "\u0a21\u0a4b\u0a2e\u0a40\u0a28\u0a4b\u0a1c\u0a3c", "name:ur": "\u0688\u0648\u0645\u06cc\u0646\u0648\u0632", "takeaway": "yes"}}, {"type": "node", "id": 7255775716, "lat": 13.0554045, "lon": 80.2496804, "tags": {"amenity": "cafe", "brand": "Cafe Coffee Day", "brand:wikidata": "Q5017235", "brand:wikipedia": "en:Caf\u00e9 Coffee Day", "cuisine": "coffee_shop", "name": "Cafe Coffee Day", "takeaway": "yes"}}, {"type": "node", "id": 7261248830, "lat": 13.0555258, "lon": 80.2458215, "tags": {"amenity": "cafe", "name": "Mylapore Filter Coffee"}}, {"type": "node", "id": 7263153185, "lat": 13.0557243, "lon": 80.2471356, "tags": {"amenity": "fast_food", "name": "Mathura Chat and Lassi"}}, {"type": "node", "id": 7263945405, "lat": 13.0557506, "lon": 80.2471927, "tags": {"amenity": "cafe", "name": "Madras Coffee House"}}, {"type": "node", "id": 7263988223, "lat": 13.0534389, "lon": 80.2473986, "tags": {"alt_name": "Kentucky Fried Chicken", "amenity": "fast_food", "brand": "KFC", "brand:pa": "\u0a15\u0a47\u0a10\u0a2b\u0a38\u0a40", "brand:ur": "\u06a9\u06cc\u0646\u0679\u06a9\u06cc \u0641\u0631\u0627\u0626\u06cc\u0688 \u0686\u06a9\u0646", "brand:wikidata": "Q524757", "brand:wikipedia": "en:KFC", "brand:wikipedia:pa": "\u0a15\u0a47\u0a10\u0a2b\u0a38\u0a40", "brand:wikipedia:ur": "\u06a9\u06cc\u0646\u0679\u06a9\u06cc \u0641\u0631\u0627\u0626\u06cc\u0688 \u0686\u06a9\u0646", "cuisine": "chicken", "name": "KFC", "name:pa": "\u0a15\u0a47\u0a10\u0a2b\u0a38\u0a40", "name:ur": "\u06a9\u06cc\u0646\u0679\u06a9\u06cc \u0641\u0631\u0627\u0626\u06cc\u0688 \u0686\u06a9\u0646", "takeaway": "yes"}}, {"type": "node", "id": 7282497786, "lat": 13.0004813, "lon": 80.2707851, "tags": {"alt_name": "Kentucky Fried Chicken", "alt_name:en": "Kentucky Fried Chicken", "alt_name:hi": "\u0915\u0947\u0902\u091f\u0941\u0915\u0940 \u092b\u094d\u0930\u093e\u0907\u0921 \u091a\u093f\u0915\u0928", "alt_name:pa": "\u0a15\u0a48\u0a02\u0a1f\u0a41\u0a15\u0a40 \u0a2b\u0a4d\u0a30\u0a3e\u0a08\u0a21 \u0a1a\u0a3f\u0a15\u0a28", "alt_name:pnb": "\u06a9\u06cc\u0646\u0679\u06a9\u06cc \u0641\u0631\u0627\u0626\u06cc\u0688 \u0686\u06a9\u0646", "alt_name:ur": "\u06a9\u06cc\u0646\u0679\u06a9\u06cc \u0641\u0631\u0627\u0626\u06cc\u0688 \u0686\u06a9\u0646", "amenity": "fast_food", "brand": "KFC", "brand:en": "KFC", "brand:hi": "\u0915\u0947\u090f\u092b\u0938\u0940", "brand:pa": "\u0a15\u0a47\u0a10\u0a2b\u0a38\u0a40", "brand:pnb": "\u06a9\u06d2 \u0627\u06cc\u0641 \u0633\u06cc", "brand:ur": "\u06a9\u06d2 \u0627\u06cc\u0641 \u0633\u06cc", "brand:wikidata": "Q524757", "cuisine": "chicken", "name": "KFC", "name:en": "KFC", "name:hi": "\u0915\u0947\u090f\u092b\u0938\u0940", "name:pa": "\u0a15\u0a47\u0a10\u0a2b\u0a38\u0a40", "name:pnb": "\u06a9\u06d2 \u0627\u06cc\u0641 \u0633\u06cc", "name:ur": "\u06a9\u06d2 \u0627\u06cc\u0641 \u0633\u06cc", "takeaway": "yes"}}, {"type": "node", "id": 7312143926, "lat": 12.9801026, "lon": 80.2457797}, {"type": "node", "id": 7312143927, "lat": 12.9800959, "lon": 80.2457799}, {"type": "node", "id": 7312143928, "lat": 12.9800966, "lon": 80.2458086}, {"type": "node", "id": 7312143929, "lat": 12.9801259, "lon": 80.245808}, {"type": "node", "id": 7312143930, "lat": 12.9801274, "lon": 80.2458764}, {"type": "node", "id": 7312143931, "lat": 12.9801048, "lon": 80.2458769}, {"type": "node", "id": 7312143932, "lat": 12.9801067, "lon": 80.2459651}, {"type": "node", "id": 7312143933, "lat": 12.9801304, "lon": 80.2459646}, {"type": "node", "id": 7312143934, "lat": 12.9801314, "lon": 80.2460124}, {"type": "node", "id": 7312143935, "lat": 12.9800965, "lon": 80.2460132}, {"type": "node", "id": 7312143936, "lat": 12.9800974, "lon": 80.2460553}, {"type": "node", "id": 7312143937, "lat": 12.9801207, "lon": 80.2460548}, {"type": "node", "id": 7312143938, "lat": 12.9801215, "lon": 80.2460943}, {"type": "node", "id": 7312143939, "lat": 12.9800629, "lon": 80.2460956}, {"type": "node", "id": 7312143940, "lat": 12.9800623, "lon": 80.2460678}, {"type": "node", "id": 7312143941, "lat": 12.980031, "lon": 80.2460685}, {"type": "node", "id": 7312143942, "lat": 12.9800302, "lon": 80.2460275}, {"type": "node", "id": 7312143943, "lat": 12.9799978, "lon": 80.2460283}, {"type": "node", "id": 7312143944, "lat": 12.9799968, "lon": 80.2459789}, {"type": "node", "id": 7312143945, "lat": 12.9799622, "lon": 80.2459797}, {"type": "node", "id": 7312143946, "lat": 12.9799598, "lon": 80.2458695}, {"type": "node", "id": 7312143947, "lat": 12.9799839, "lon": 80.245869}, {"type": "node", "id": 7312143948, "lat": 12.9799832, "lon": 80.2458374}, {"type": "node", "id": 7312143949, "lat": 12.9800055, "lon": 80.2458369}, {"type": "node", "id": 7312143950, "lat": 12.9800041, "lon": 80.2457715}, {"type": "node", "id": 7312143951, "lat": 12.9800401, "lon": 80.2457706}, {"type": "node", "id": 7312143952, "lat": 12.9800394, "lon": 80.24574}, {"type": "node", "id": 7312143953, "lat": 12.9801017, "lon": 80.2457385}, {"type": "node", "id": 7595316084, "lat": 12.91075, "lon": 80.1432451, "tags": {"addr:city": "Selaiyur, Chennai", "addr:postcode": "600073", "addr:street": "Agaramthen Road", "amenity": "fast_food", "cuisine": "pizza;pasta", "delivery": "yes", "diet:vegetarian": "yes", "drive_through": "no", "name": "Oyalo Pizza"}}, {"type": "node", "id": 7652428420, "lat": 13.0316616, "lon": 80.2115156, "tags": {"addr:city": "\u0b9a\u0bc6\u0ba9\u0bcd\u0ba9\u0bc8 - Chennai", "addr:postcode": "600083", "addr:street": "Old No 96 & 97, New No 43 & 44, 11th Ave, Ashok Nagar, Chennai, Tamil Nadu 600083", "alt_name": "Kentucky Fried Chicken", "amenity": "fast_food", "brand": "KFC", "brand:pa": "\u0a15\u0a47\u0a10\u0a2b\u0a38\u0a40", "brand:ur": "\u06a9\u06cc\u0646\u0679\u06a9\u06cc \u0641\u0631\u0627\u0626\u06cc\u0688 \u0686\u06a9\u0646", "brand:wikidata": "Q524757", "brand:wikipedia": "en:KFC", "brand:wikipedia:pa": "\u0a15\u0a47\u0a10\u0a2b\u0a38\u0a40", "brand:wikipedia:ur": "\u06a9\u06cc\u0646\u0679\u06a9\u06cc \u0641\u0631\u0627\u0626\u06cc\u0688 \u0686\u06a9\u0646", "cuisine": "chicken", "delivery": "yes", "drive_through": "yes", "name": "KFC", "name:pa": "\u0a15\u0a47\u0a10\u0a2b\u0a38\u0a40", "name:ur": "\u06a9\u06cc\u0646\u0679\u06a9\u06cc \u0641\u0631\u0627\u0626\u06cc\u0688 \u0686\u06a9\u0646", "opening_hours": "Mo-Su 12:00-02:30", "payment:cash": "yes", "payment:credit_cards": "yes", "payment:debit_cards": "yes", "payment:diners_club": "yes", "phone": "044 3399 4444", "takeaway": "yes", "website": "https://restaurants.kfc.co.in/"}}, {"type": "node", "id": 7652449744, "lat": 12.964293, "lon": 80.1982097, "tags": {"air_conditioning": "yes", "amenity": "fast_food", "brand": "Ibaco", "cuisine": "ice_cream", "delivery": "yes", "drive_through": "no", "name": "Ibaco"}}, {"type": "node", "id": 7652633329, "lat": 13.0340265, "lon": 80.2169184, "tags": {"addr:city": "Chennai", "addr:housenumber": "sarvamangalam colony", "addr:postcode": "600083", "addr:street": "10th Avenue", "amenity": "cafe", "name": "New Ganesh Cafe", "phone": "+914442316555"}}, {"type": "node", "id": 8108621517, "lat": 13.0297966, "lon": 80.2105189, "tags": {"addr:street": "No.39, Pillaiyar Koil St, R.V. Nagar, Jawahar Nagar, West Jafferkhanpet, Chennai, Tamil Nadu 600083", "amenity": "fast_food", "name": "Arabian Foods and Bites", "opening_hours": "Mo-Th, Sa, Su 12:00-22:00; Fr 14:00-22:00"}}, {"type": "node", "id": 8299307341, "lat": 12.8728311, "lon": 80.2434271, "tags": {"amenity": "cafe", "name": "India Coffee House"}}, {"type": "node", "id": 8432253222, "lat": 12.97435, "lon": 80.2441455, "tags": {"amenity": "fast_food", "cuisine": "burmese", "name": "Burma Square"}}, {"type": "node", "id": 8523245673, "lat": 13.0557253, "lon": 80.2470491, "tags": {"amenity": "cafe", "cuisine": "burmese", "name": "Burmese Cafe", "outdoor_seating": "no"}}, {"type": "node", "id": 8562785520, "lat": 12.9727291, "lon": 80.1914155, "tags": {"amenity": "fast_food", "cuisine": "snacks", "name": "Sri Vinayaga Hot Chips"}}, {"type": "node", "id": 8566255834, "lat": 12.9802606, "lon": 80.1988848, "tags": {"amenity": "fast_food", "brand": "Domino's", "brand:ks": "\u0688\u0648\u0645\u06cc\u0646\u0648\u0632", "brand:pa": "\u0a21\u0a4b\u0a2e\u0a40\u0a28\u0a4b\u0a1c\u0a3c", "brand:ur": "\u0688\u0648\u0645\u06cc\u0646\u0648\u0632", "brand:wikidata": "Q839466", "brand:wikipedia": "en:Domino's Pizza", "cuisine": "pizza", "level": "0", "name": "Domino's", "name:ks": "\u0688\u0648\u0645\u06cc\u0646\u0648\u0632", "name:pa": "\u0a21\u0a4b\u0a2e\u0a40\u0a28\u0a4b\u0a1c\u0a3c", "name:ur": "\u0688\u0648\u0645\u06cc\u0646\u0648\u0632", "takeaway": "yes"}}, {"type": "node", "id": 8566255835, "lat": 12.9801791, "lon": 80.199145, "tags": {"amenity": "fast_food", "cuisine": "juice", "level": "0", "name": "Drunken Monkey"}}, {"type": "node", "id": 8595961852, "lat": 12.9749708, "lon": 80.1922417, "tags": {"amenity": "fast_food", "cuisine": "pizza", "name": "Oyalo Pizza"}}, {"type": "node", "id": 8596056417, "lat": 12.9662978, "lon": 80.1888784, "tags": {"addr:city": "Chennai", "addr:housenumber": "215A", "addr:postcode": "600091", "addr:street": "Medavakkam Main Road", "amenity": "fast_food", "brand": "A1 Chips", "brand:website": "https://www.a1chips.in/", "cuisine": "snacks;regional;fried_food;chips", "name": "A1 Chips", "opening_hours": "Mo-Su 09:00-21:00", "phone": "+91 93848 37136"}}, {"type": "node", "id": 8606026727, "lat": 12.9691164, "lon": 80.190081, "tags": {"amenity": "fast_food", "name": "Venkateswara Boli Stall"}}, {"type": "node", "id": 8631827334, "lat": 12.9825441, "lon": 80.2253523, "tags": {"amenity": "cafe", "cuisine": "coffee_shop", "name": "Royal Coffee"}}, {"type": "node", "id": 9249609876, "lat": 12.9463035, "lon": 80.2540207, "tags": {"amenity": "cafe", "name": "Tryst"}}, {"type": "node", "id": 9348174752, "lat": 13.0609645, "lon": 80.2469181, "tags": {"amenity": "cafe", "name": "The Baristo Brew"}}, {"type": "node", "id": 9418718659, "lat": 13.0060598, "lon": 80.1997658, "tags": {"addr:city": "Chennai", "addr:street": "North Parade Road", "amenity": "cafe", "name": "House #22 Cafe"}}, {"type": "node", "id": 9867234127, "lat": 12.9926902, "lon": 80.2308043}, {"type": "node", "id": 9867234128, "lat": 12.9927156, "lon": 80.2308044}, {"type": "node", "id": 9867234129, "lat": 12.9927172, "lon": 80.2308554}, {"type": "node", "id": 9867234130, "lat": 12.9927004, "lon": 80.2308562}, {"type": "node", "id": 9920611715, "lat": 12.9647385, "lon": 80.1880081, "tags": {"amenity": "food_court"}}, {"type": "node", "id": 9964235217, "lat": 13.0603183, "lon": 80.2428756, "tags": {"amenity": "food_court", "name": "Amma unavagam"}}, {"type": "node", "id": 9982769121, "lat": 13.0924508, "lon": 80.2898978, "tags": {"amenity": "cafe", "name": "Queen's Cool Palace"}}, {"type": "node", "id": 9983026859, "lat": 13.0948869, "lon": 80.2861755, "tags": {"amenity": "cafe", "cuisine": "coffee_shop", "name": "Chai Waale"}}, {"type": "node", "id": 9989843712, "lat": 13.0907195, "lon": 80.2843765, "tags": {"amenity": "cafe", "name": "Praba Cool Bar"}}, {"type": "node", "id": 9994157075, "lat": 12.9006653, "lon": 80.0929117, "tags": {"amenity": "fast_food", "brand": "Subway", "brand:wikidata": "Q244457", "cuisine": "sandwich", "name": "Subway", "takeaway": "yes"}}, {"type": "node", "id": 10038809128, "lat": 13.017266, "lon": 80.2743605, "tags": {"amenity": "bar", "name": "Library Blu at The Leela Palace"}}, {"type": "node", "id": 10102276305, "lat": 13.0936885, "lon": 80.2915492}, {"type": "node", "id": 10102276308, "lat": 13.0936768, "lon": 80.2915892}, {"type": "node", "id": 10102276309, "lat": 13.093709, "lon": 80.2915992}, {"type": "node", "id": 10102276310, "lat": 13.0937256, "lon": 80.2915454}, {"type": "node", "id": 10102276311, "lat": 13.0936925, "lon": 80.2915359}, {"type": "node", "id": 10102299126, "lat": 13.0931158, "lon": 80.2910773, "tags": {"amenity": "cafe", "name": "Caribeean Chai"}}, {"type": "node", "id": 10102299129, "lat": 13.0932475, "lon": 80.291037, "tags": {"amenity": "fast_food", "cuisine": "juice", "name": "Cool House"}}, {"type": "node", "id": 10102405624, "lat": 13.1012171, "lon": 80.2942221, "tags": {"amenity": "cafe", "name": "A.K. Tea Stall"}}, {"type": "node", "id": 10106263979, "lat": 13.0939922, "lon": 80.2860209, "tags": {"amenity": "cafe"}}, {"type": "node", "id": 10106263980, "lat": 13.09397, "lon": 80.2861299, "tags": {"amenity": "cafe"}}, {"type": "node", "id": 10106349740, "lat": 13.0934636, "lon": 80.2856716, "tags": {"amenity": "bar", "name": "Minerva Bar"}}, {"type": "node", "id": 10107894691, "lat": 13.093665, "lon": 80.2897756, "tags": {"amenity": "cafe", "name": "Nisha Cafe"}}, {"type": "node", "id": 10107901528, "lat": 13.093601, "lon": 80.2901765, "tags": {"amenity": "fast_food", "cuisine": "juice", "name": "Royal Hot In Cold"}}, {"type": "node", "id": 10107910281, "lat": 13.0933232, "lon": 80.2902547, "tags": {"amenity": "fast_food", "cuisine": "juice", "name": "Merdeka Juice Point"}}, {"type": "node", "id": 10107983260, "lat": 13.0934492, "lon": 80.2911389, "tags": {"amenity": "fast_food", "cuisine": "juice", "name": "Greenapple Juice Shop"}}, {"type": "node", "id": 10107995332, "lat": 13.0943274, "lon": 80.2908948, "tags": {"amenity": "cafe", "name": "New Modern Tea Stall"}}, {"type": "node", "id": 10107995366, "lat": 13.0943855, "lon": 80.2908945, "tags": {"amenity": "cafe", "name": "Athima Tiffin Centre"}}, {"type": "node", "id": 10107995463, "lat": 13.0955445, "lon": 80.2913878, "tags": {"amenity": "cafe", "name": "Food Corner"}}, {"type": "node", "id": 10107995494, "lat": 13.0959948, "lon": 80.2912592, "tags": {"amenity": "fast_food", "name": "Chaat Zone"}}, {"type": "node", "id": 10107995495, "lat": 13.0960049, "lon": 80.2912208, "tags": {"amenity": "fast_food", "name": "Hotel Moon"}}, {"type": "node", "id": 10108462459, "lat": 13.0942076, "lon": 80.2892837, "tags": {"amenity": "cafe", "name": "Sri Maa Kali Tea Stall"}}, {"type": "node", "id": 10115447189, "lat": 13.0944464, "lon": 80.2891745, "tags": {"amenity": "fast_food", "cuisine": "juice", "name": "Chennai Juice World"}}, {"type": "node", "id": 10115467386, "lat": 13.096122, "lon": 80.2893574}, {"type": "node", "id": 10115467387, "lat": 13.096117, "lon": 80.2894367}, {"type": "node", "id": 10115467388, "lat": 13.0961539, "lon": 80.2894391}, {"type": "node", "id": 10115467389, "lat": 13.0961589, "lon": 80.2893599}, {"type": "node", "id": 10115467409, "lat": 13.0963553, "lon": 80.2892692, "tags": {"amenity": "cafe", "name": "ABC Cafe"}}, {"type": "node", "id": 10115467413, "lat": 13.0963162, "lon": 80.2894382, "tags": {"amenity": "fast_food", "cuisine": "juice", "name": "Sree Annai Pazharasam Fresh Juice & Cold Drinks"}}, {"type": "node", "id": 10115467420, "lat": 13.0957813, "lon": 80.289378, "tags": {"amenity": "fast_food", "cuisine": "juice", "name": "Sankar Cool Bar"}}, {"type": "node", "id": 10115467423, "lat": 13.0956243, "lon": 80.2893557, "tags": {"amenity": "cafe", "cuisine": "coffee_shop", "name": "Rani Dam Chai"}}, {"type": "node", "id": 10116132938, "lat": 13.0966171, "lon": 80.2877228, "tags": {"amenity": "fast_food", "name": "New Priya Chat Center"}}, {"type": "node", "id": 10116132940, "lat": 13.0966107, "lon": 80.287775, "tags": {"amenity": "fast_food", "cuisine": "juice", "name": "Olympic Tea & Fresh Juice"}}, {"type": "node", "id": 10116132948, "lat": 13.09651, "lon": 80.2879306, "tags": {"amenity": "cafe", "name": "Alreef Cafe"}}, {"type": "node", "id": 10116259641, "lat": 13.0965172, "lon": 80.2881725, "tags": {"amenity": "fast_food", "cuisine": "juice", "name": "Moonstar Cool Bar"}}, {"type": "node", "id": 10116259642, "lat": 13.0965216, "lon": 80.2881464, "tags": {"amenity": "cafe", "name": "Al-Ameen Tiffen Center"}}, {"type": "node", "id": 10116259650, "lat": 13.0964998, "lon": 80.2882948, "tags": {"amenity": "fast_food", "name": "Farida Fast Food"}}, {"type": "node", "id": 10161855173, "lat": 13.0579436, "lon": 80.278538}, {"type": "node", "id": 10161855174, "lat": 13.0578924, "lon": 80.2785348}, {"type": "node", "id": 10161855175, "lat": 13.0578924, "lon": 80.2784849}, {"type": "node", "id": 10161855176, "lat": 13.0579007, "lon": 80.2784259}, {"type": "node", "id": 10161855177, "lat": 13.0579525, "lon": 80.2784302}, {"type": "node", "id": 10161855178, "lat": 13.0579483, "lon": 80.2784849}, {"type": "node", "id": 10181905474, "lat": 13.0276017, "lon": 80.2529195, "tags": {"amenity": "bar", "name": "Black Orchid"}}, {"type": "node", "id": 10208620483, "lat": 13.0961176, "lon": 80.2912083, "tags": {"amenity": "fast_food", "cuisine": "kebab", "name": "Kebab Centre"}}, {"type": "node", "id": 10208620492, "lat": 13.0960322, "lon": 80.2914647, "tags": {"amenity": "fast_food", "name": "A to Z Hyderabad Biryani"}}, {"type": "node", "id": 10208737666, "lat": 13.096196, "lon": 80.2909115, "tags": {"amenity": "fast_food", "cuisine": "juice", "name": "Olympic Tea & Fresh Juice"}}, {"type": "node", "id": 10208787869, "lat": 13.0968758, "lon": 80.2907429, "tags": {"amenity": "cafe", "name": "CM Corner Cafe"}}, {"type": "node", "id": 10208903025, "lat": 13.0963895, "lon": 80.2897607, "tags": {"amenity": "fast_food", "name": "Arabian Nights Shawarma"}}, {"type": "node", "id": 10208903026, "lat": 13.0963927, "lon": 80.2897283, "tags": {"amenity": "fast_food", "cuisine": "juice", "name": "Lassi Shop"}}, {"type": "node", "id": 10208903046, "lat": 13.0966064, "lon": 80.2901251, "tags": {"amenity": "cafe", "name": "Cutting Chai Yaari"}}, {"type": "node", "id": 10208988594, "lat": 13.096636, "lon": 80.2884752, "tags": {"amenity": "fast_food", "name": "Baap"}}, {"type": "node", "id": 10209543578, "lat": 13.0994059, "lon": 80.2938237, "tags": {"amenity": "cafe", "name": "Sea Lord"}}, {"type": "node", "id": 10209600106, "lat": 13.098215, "lon": 80.2930031, "tags": {"amenity": "cafe", "name": "Golden Tea"}}, {"type": "node", "id": 10261896854, "lat": 13.0754835, "lon": 80.2588986, "tags": {"amenity": "cafe", "description": "Beautiful decor, Cafe and Restaurant", "name": "Psychedelic Hues - Art house and Cafe", "opening_hours": "Mo-Su 11:00-23:00"}}, {"type": "node", "id": 10268908449, "lat": 12.9981194, "lon": 80.2675982, "tags": {"amenity": "cafe", "name": "Geetha Cafe"}}, {"type": "node", "id": 10269012160, "lat": 12.9922698, "lon": 80.2170766, "tags": {"amenity": "cafe", "name": "Chi Cafe"}}, {"type": "node", "id": 10269012161, "lat": 12.9920432, "lon": 80.2169286, "tags": {"amenity": "fast_food", "brand": "Krispy Kreme", "brand:wikidata": "Q1192805", "cuisine": "donut", "name": "Krispy Kreme", "takeaway": "yes"}}, {"type": "node", "id": 10269012181, "lat": 12.9919024, "lon": 80.2165543, "tags": {"amenity": "cafe", "name": "Cha Republic"}}, {"type": "node", "id": 10285692122, "lat": 12.9962247, "lon": 80.2702906, "tags": {"amenity": "cafe", "cuisine": "coffee_shop", "name": "Chai Kings"}}, {"type": "node", "id": 10285692123, "lat": 12.9961883, "lon": 80.2702881, "tags": {"amenity": "cafe", "cuisine": "coffee_shop", "name": "Madras Coffee House"}}, {"type": "node", "id": 10316739353, "lat": 13.0543277, "lon": 80.2501562, "tags": {"amenity": "fast_food", "brand": "McDonald's", "brand:wikidata": "Q38076", "cuisine": "burger", "name": "McDonald's", "takeaway": "yes"}}, {"type": "node", "id": 10316946203, "lat": 13.0577863, "lon": 80.2574861, "tags": {"amenity": "cafe", "cuisine": "coffee_shop", "name": "Chai Kings"}}, {"type": "node", "id": 10320115182, "lat": 13.0617099, "lon": 80.2619449, "tags": {"amenity": "fast_food", "brand": "McDonald's", "brand:wikidata": "Q38076", "cuisine": "burger", "name": "McDonald's", "takeaway": "yes"}}, {"type": "node", "id": 10320115183, "lat": 13.0616426, "lon": 80.2617916, "tags": {"amenity": "fast_food", "brand": "Domino's", "brand:wikidata": "Q839466", "cuisine": "pizza", "name": "Domino's", "takeaway": "yes"}}, {"type": "node", "id": 10558960223, "lat": 12.9917017, "lon": 80.2170139, "tags": {"amenity": "cafe", "brand": "Starbucks", "brand:wikidata": "Q37158", "cuisine": "coffee_shop", "name": "Starbucks", "official_name": "Starbucks Coffee", "takeaway": "yes"}}, {"type": "node", "id": 10558996780, "lat": 12.9912251, "lon": 80.2170117, "tags": {"amenity": "cafe", "brand": "The Coffee Bean & Tea Leaf", "brand:wikidata": "Q1141384", "cuisine": "coffee_shop", "name": "The Coffee Bean & Tea Leaf", "takeaway": "yes"}}, {"type": "node", "id": 10559049579, "lat": 12.991546, "lon": 80.2170141, "tags": {"amenity": "fast_food", "brand": "Burger King", "brand:wikidata": "Q177054", "cuisine": "burger", "name": "Burger King", "takeaway": "yes"}}, {"type": "node", "id": 10559072542, "lat": 12.9911318, "lon": 80.2171192, "tags": {"amenity": "fast_food", "brand": "Wow! Momo", "brand:wikidata": "Q8037446", "cuisine": "momo", "name": "Wow! Momo", "takeaway": "yes"}}, {"type": "node", "id": 10559072544, "lat": 12.9914529, "lon": 80.2170008, "tags": {"amenity": "fast_food", "brand": "Domino's", "brand:wikidata": "Q839466", "cuisine": "pizza", "name": "Domino's", "takeaway": "yes"}}, {"type": "node", "id": 10559072545, "lat": 12.991497, "lon": 80.2169976, "tags": {"alt_name": "Kentucky Fried Chicken", "alt_name:en": "Kentucky Fried Chicken", "alt_name:hi": "\u0915\u0947\u0902\u091f\u0941\u0915\u0940 \u092b\u094d\u0930\u093e\u0907\u0921 \u091a\u093f\u0915\u0928", "alt_name:pa": "\u0a15\u0a48\u0a02\u0a1f\u0a41\u0a15\u0a40 \u0a2b\u0a4d\u0a30\u0a3e\u0a08\u0a21 \u0a1a\u0a3f\u0a15\u0a28", "alt_name:pnb": "\u06a9\u06cc\u0646\u0679\u06a9\u06cc \u0641\u0631\u0627\u0626\u06cc\u0688 \u0686\u06a9\u0646", "alt_name:ur": "\u06a9\u06cc\u0646\u0679\u06a9\u06cc \u0641\u0631\u0627\u0626\u06cc\u0688 \u0686\u06a9\u0646", "amenity": "fast_food", "brand": "KFC", "brand:en": "KFC", "brand:hi": "\u0915\u0947\u090f\u092b\u0938\u0940", "brand:pa": "\u0a15\u0a47\u0a10\u0a2b\u0a38\u0a40", "brand:pnb": "\u06a9\u06d2 \u0627\u06cc\u0641 \u0633\u06cc", "brand:ur": "\u06a9\u06d2 \u0627\u06cc\u0641 \u0633\u06cc", "brand:wikidata": "Q524757", "cuisine": "chicken", "name": "KFC", "name:en": "KFC", "name:hi": "\u0915\u0947\u090f\u092b\u0938\u0940", "name:pa": "\u0a15\u0a47\u0a10\u0a2b\u0a38\u0a40", "name:pnb": "\u06a9\u06d2 \u0627\u06cc\u0641 \u0633\u06cc", "name:ur": "\u06a9\u06d2 \u0627\u06cc\u0641 \u0633\u06cc", "takeaway": "yes"}}, {"type": "node", "id": 10573977302, "lat": 13.1022375, "lon": 80.2763435, "tags": {"amenity": "fast_food", "cuisine": "juice", "name": "Sizzy Fresh Juice"}}, {"type": "node", "id": 10575684704, "lat": 13.0984966, "lon": 80.2924206, "tags": {"amenity": "cafe", "name": "RPS Cafe"}}, {"type": "node", "id": 10584033829, "lat": 13.1009922, "lon": 80.2916438, "tags": {"amenity": "cafe", "name": "K. B. Tea Stall"}}, {"type": "node", "id": 10584033830, "lat": 13.1009979, "lon": 80.2915977, "tags": {"amenity": "fast_food", "cuisine": "juice", "name": "Greenapple Juice Shop"}}, {"type": "node", "id": 10593975168, "lat": 13.0997277, "lon": 80.2877847, "tags": {"amenity": "fast_food", "name": "Zam Zam Hot Chips"}}, {"type": "node", "id": 10595586119, "lat": 13.0995895, "lon": 80.2887629, "tags": {"amenity": "fast_food", "name": "Nitesh Chat House"}}, {"type": "node", "id": 10595586120, "lat": 13.0995811, "lon": 80.2888424, "tags": {"amenity": "fast_food", "cuisine": "juice", "name": "Malar Fresh Juice"}}, {"type": "node", "id": 10595586124, "lat": 13.0996157, "lon": 80.288504, "tags": {"amenity": "cafe", "name": "Bharat Tea Stall"}}, {"type": "node", "id": 10595652724, "lat": 13.0968183, "lon": 80.2884066, "tags": {"amenity": "cafe", "name": "iCafe"}}, {"type": "node", "id": 10611601106, "lat": 13.0736757, "lon": 80.2208569, "tags": {"amenity": "cafe", "name": "4 am Bonda Shop"}}, {"type": "node", "id": 10611606706, "lat": 13.1117167, "lon": 80.2266215, "tags": {"amenity": "cafe", "name": "Akka Shop"}}, {"type": "node", "id": 10611620606, "lat": 13.085191, "lon": 80.2203288, "tags": {"amenity": "cafe", "name": "FNF Smoke Shop"}}, {"type": "node", "id": 10675497897, "lat": 13.0987924, "lon": 80.2905773, "tags": {"amenity": "fast_food", "cuisine": "juice", "name": "Aju Corner Cool Bar"}}, {"type": "node", "id": 10675523420, "lat": 13.0987549, "lon": 80.2900061, "tags": {"amenity": "fast_food", "cuisine": "juice", "name": "Jam Jam Tea and Cool Bar"}}, {"type": "node", "id": 10692322858, "lat": 12.9494982, "lon": 80.2406863, "tags": {"amenity": "cafe", "brand": "Starbucks", "brand:wikidata": "Q37158", "cuisine": "coffee_shop", "name": "Starbucks", "official_name": "Starbucks Coffee", "outdoor_seating": "no", "takeaway": "yes"}}, {"type": "node", "id": 10742375560, "lat": 13.098786, "lon": 80.2793185, "tags": {"amenity": "cafe", "name": "Sabari Tea Stall"}}, {"type": "node", "id": 10742379728, "lat": 13.0993307, "lon": 80.2795573}, {"type": "node", "id": 10742379729, "lat": 13.0993153, "lon": 80.2796479}, {"type": "node", "id": 10742379730, "lat": 13.0992923, "lon": 80.2795496}, {"type": "node", "id": 10742379731, "lat": 13.0992842, "lon": 80.2795945}, {"type": "node", "id": 10742379732, "lat": 13.0992966, "lon": 80.2795967}, {"type": "node", "id": 10742379733, "lat": 13.0992888, "lon": 80.2796435}, {"type": "node", "id": 10742504996, "lat": 13.0897314, "lon": 80.2848828, "tags": {"amenity": "cafe", "name": "Myson"}}, {"type": "node", "id": 10742709869, "lat": 13.0845556, "lon": 80.276122, "tags": {"amenity": "fast_food", "name": "Chennai Rawther Restaurant"}}, {"type": "node", "id": 10742709884, "lat": 13.0848718, "lon": 80.2760315, "tags": {"amenity": "cafe", "name": "Sri Vinayaga Tea Stall"}}, {"type": "node", "id": 10742858730, "lat": 13.0835444, "lon": 80.2762266, "tags": {"amenity": "fast_food", "cuisine": "juice", "name": "Juice Corner"}}, {"type": "node", "id": 10792882397, "lat": 12.9807815, "lon": 80.1626521, "tags": {"amenity": "food_court", "check_date": "2023-04-05", "name": "Aerohub", "payment:mastercard": "yes", "payment:upi": "yes", "payment:visa": "yes", "source": "survey", "wheelchair": "yes"}}, {"type": "node", "id": 10796978448, "lat": 13.0885995, "lon": 80.2813738, "tags": {"amenity": "fast_food", "cuisine": "juice", "name": "Golden Corner"}}, {"type": "node", "id": 10798116916, "lat": 13.0885862, "lon": 80.2823954, "tags": {"amenity": "fast_food", "cuisine": "juice", "name": "Guava Cafe"}}, {"type": "node", "id": 10798123410, "lat": 13.091402, "lon": 80.282483, "tags": {"amenity": "fast_food", "cuisine": "juice", "name": "Ganeshan Cool Bar"}}, {"type": "node", "id": 10798127509, "lat": 13.088514, "lon": 80.2832457, "tags": {"amenity": "cafe", "name": "Sankar Cafe"}}, {"type": "node", "id": 10833567237, "lat": 13.0904483, "lon": 80.2753938, "tags": {"amenity": "cafe", "name": "Krishna Tea Stall"}}, {"type": "node", "id": 10833608126, "lat": 12.9802916, "lon": 80.1997635, "tags": {"amenity": "bar", "name": "Tasmac"}}, {"type": "node", "id": 10833632704, "lat": 13.0886193, "lon": 80.2756775, "tags": {"amenity": "fast_food", "name": "Trisha Fast Food"}}, {"type": "node", "id": 10875499885, "lat": 13.0835335, "lon": 80.2783025, "tags": {"amenity": "cafe", "name": "Aburva Tea Stall"}}, {"type": "node", "id": 10875503608, "lat": 13.0836266, "lon": 80.2781435, "tags": {"amenity": "cafe", "name": "Harichandhana Coffee House"}}, {"type": "node", "id": 10885759488, "lat": 13.1047112, "lon": 80.2856761, "tags": {"amenity": "cafe", "name": "Seiko Cafe"}}, {"type": "node", "id": 10892974734, "lat": 13.1040708, "lon": 80.2845425, "tags": {"amenity": "fast_food", "name": "Manoj Snack Bar"}}, {"type": "node", "id": 10892974735, "lat": 13.1040965, "lon": 80.2845486, "tags": {"amenity": "fast_food", "cuisine": "juice", "name": "M. K. Fresh Juice"}}, {"type": "node", "id": 10895930358, "lat": 13.0941723, "lon": 80.2796696, "tags": {"amenity": "cafe", "name": "Assam Tea House"}}, {"type": "node", "id": 10895930400, "lat": 13.0927811, "lon": 80.2797847, "tags": {"amenity": "cafe", "name": "Parvathi Filter Coffee and Tea"}}, {"type": "node", "id": 10913179703, "lat": 13.092844, "lon": 80.2793159, "tags": {"amenity": "cafe", "name": "Lena Tea Stall"}}, {"type": "node", "id": 10913194738, "lat": 13.0937466, "lon": 80.2794428, "tags": {"amenity": "fast_food", "cuisine": "juice", "name": "Guna Bhai Juice Centre"}}, {"type": "node", "id": 10915898214, "lat": 13.0927046, "lon": 80.279491, "tags": {"amenity": "fast_food", "cuisine": "juice", "name": "Ganesh Cool Bar"}}, {"type": "node", "id": 10931472809, "lat": 13.0950966, "lon": 80.2798853, "tags": {"amenity": "cafe", "name": "Gupta Pan House"}}, {"type": "node", "id": 10933186996, "lat": 13.0944314, "lon": 80.2837737, "tags": {"amenity": "cafe", "name": "Archana Tea Stall"}}, {"type": "node", "id": 10933333189, "lat": 13.0982639, "lon": 80.2801577, "tags": {"amenity": "fast_food", "cuisine": "juice", "name": "Regal Snacks & Fresh Juice"}}, {"type": "node", "id": 10933457916, "lat": 13.0951209, "lon": 80.2804486, "tags": {"amenity": "fast_food", "cuisine": "juice", "name": "Baby Cool Bar"}}, {"type": "node", "id": 10933574885, "lat": 13.0927005, "lon": 80.2826617, "tags": {"amenity": "cafe", "name": "Sri Vinodkumar Tea & Coffee Center"}}, {"type": "node", "id": 10933682417, "lat": 13.0960454, "lon": 80.2798331, "tags": {"amenity": "cafe", "name": "Sri Krishna Tea and Coffee Centre"}}, {"type": "node", "id": 10933682546, "lat": 13.0984756, "lon": 80.2800053, "tags": {"amenity": "fast_food", "name": "Sharma Sweets & Chats"}}, {"type": "node", "id": 10933795477, "lat": 13.0948049, "lon": 80.2796669, "tags": {"amenity": "fast_food", "cuisine": "juice", "name": "Lemon Tree"}}, {"type": "node", "id": 10933795498, "lat": 13.0951191, "lon": 80.2797301, "tags": {"amenity": "fast_food", "cuisine": "juice", "name": "babylon"}}, {"type": "node", "id": 10933806210, "lat": 13.0953471, "lon": 80.2797886, "tags": {"amenity": "fast_food", "name": "Surbhi Snacks"}}, {"type": "node", "id": 10933806214, "lat": 13.0954079, "lon": 80.2797691, "tags": {"amenity": "fast_food", "name": "Delhi Tandoori Chaap"}}, {"type": "node", "id": 10933806229, "lat": 13.0955906, "lon": 80.2797992, "tags": {"amenity": "cafe", "name": "Murugan Sandwich & Juice"}}, {"type": "node", "id": 10933806234, "lat": 13.0956912, "lon": 80.2798114, "tags": {"amenity": "fast_food", "name": "Hot 'N' Spicy"}}, {"type": "node", "id": 10933806258, "lat": 13.0960019, "lon": 80.2796407, "tags": {"amenity": "fast_food", "cuisine": "juice", "name": "Raju Cool Bar"}}, {"type": "node", "id": 10933856321, "lat": 13.0943957, "lon": 80.2793417, "tags": {"amenity": "fast_food", "name": "Poha Wala"}}, {"type": "node", "id": 10943490891, "lat": 13.0966168, "lon": 80.279032, "tags": {"amenity": "fast_food", "name": "Royal Chats"}}, {"type": "node", "id": 10943965130, "lat": 13.0942797, "lon": 80.282896, "tags": {"amenity": "cafe", "name": "Tea Stall"}}, {"type": "node", "id": 10945919479, "lat": 13.0942816, "lon": 80.2819967, "tags": {"amenity": "cafe", "name": "Regal Snack Bar"}}, {"type": "node", "id": 10951520440, "lat": 13.094953, "lon": 80.2816731, "tags": {"amenity": "fast_food", "cuisine": "juice", "name": "B. Sedhramaiya Cool Bar"}}, {"type": "node", "id": 10951527775, "lat": 13.0927546, "lon": 80.2798663, "tags": {"amenity": "fast_food", "name": "Seena Bhai Chat Centre"}}, {"type": "node", "id": 10966825107, "lat": 13.0960297, "lon": 80.2807547, "tags": {"amenity": "fast_food", "name": "Gupta Chat House"}}, {"type": "node", "id": 10967199341, "lat": 13.0982922, "lon": 80.2804309, "tags": {"amenity": "fast_food", "name": "Hot Chips"}}, {"type": "node", "id": 10967203579, "lat": 13.0966321, "lon": 80.2806248, "tags": {"amenity": "cafe", "name": "Sree Krishna Tea Stall"}}, {"type": "node", "id": 10967223050, "lat": 13.0983863, "lon": 80.2810825, "tags": {"amenity": "fast_food", "name": "Nirmala Chat Centre"}}, {"type": "node", "id": 10967301666, "lat": 13.0966857, "lon": 80.2840689, "tags": {"amenity": "cafe", "name": "Al-Aksar Tiffin Centre"}}, {"type": "node", "id": 10967392158, "lat": 13.0912398, "lon": 80.2815158, "tags": {"amenity": "fast_food", "name": "Raj Snack Bar"}}, {"type": "node", "id": 10967640677, "lat": 13.0888445, "lon": 80.2812974, "tags": {"amenity": "fast_food", "cuisine": "juice", "name": "Mani & Son Juice & Chats"}}, {"type": "node", "id": 10967640678, "lat": 13.0888215, "lon": 80.2812927, "tags": {"amenity": "cafe", "name": "Sree Sai Baba Tea Stall"}}, {"type": "node", "id": 10967640683, "lat": 13.0887735, "lon": 80.281508, "tags": {"amenity": "cafe", "name": "Lamcy Cafe"}}, {"type": "node", "id": 10967640688, "lat": 13.0922909, "lon": 80.2825072, "tags": {"amenity": "cafe", "name": "Everest Coffee"}}, {"type": "node", "id": 10968667857, "lat": 13.0903923, "lon": 80.2799208, "tags": {"amenity": "fast_food", "name": "Bombay Snack Bar"}}, {"type": "node", "id": 10972886561, "lat": 13.0924747, "lon": 80.2807416, "tags": {"amenity": "cafe", "name": "Winners Snacks"}}, {"type": "node", "id": 10972886583, "lat": 13.09259, "lon": 80.2801777, "tags": {"amenity": "fast_food", "cuisine": "juice", "name": "Ayyappa Juice Paradise"}}, {"type": "node", "id": 10973661146, "lat": 13.0925927, "lon": 80.2800866, "tags": {"amenity": "fast_food", "cuisine": "juice", "name": "Sumangali Cool Bar"}}, {"type": "node", "id": 10973661147, "lat": 13.0925998, "lon": 80.2800622, "tags": {"amenity": "fast_food", "name": "Sumangali Chat Center"}}, {"type": "node", "id": 10973665007, "lat": 13.0903885, "lon": 80.2791336, "tags": {"amenity": "fast_food", "name": "Kamal Chat House"}}, {"type": "node", "id": 11159473174, "lat": 13.0808889, "lon": 80.2705304, "tags": {"addr:housenumber": "1126", "addr:street": "EVR Periyar Salai", "amenity": "cafe", "description": "Chettinadu kitchen", "name": "Abi's", "phone": "+91 98404 70490"}}, {"type": "node", "id": 11229686037, "lat": 12.8872076, "lon": 80.1842061, "tags": {"amenity": "fast_food", "name:en": "Vadai Shop"}}, {"type": "node", "id": 11294845271, "lat": 12.9202456, "lon": 80.1864663, "tags": {"amenity": "cafe", "name:en": "KBS coffee house"}}, {"type": "node", "id": 11295106603, "lat": 13.0069855, "lon": 80.2541298, "tags": {"addr:city": "Chennai", "addr:district": "Tamil Nadu", "addr:housenumber": "4th Floor, 53/26", "addr:postcode": "600020", "addr:street": "Gandhi Nagar 1st Main Road", "amenity": "cafe", "cuisine": "coffee_shop;pizza;italian", "name": "Cocoa and Cr\u00e8me Rooftop Cafe", "opening_hours": "Mo-Su 16:00-23:00", "outdoor_seating": "yes"}}, {"type": "node", "id": 11299210270, "lat": 13.054292, "lon": 80.2610215, "tags": {"amenity": "cafe", "name:fr": "Brownie Heaven"}}, {"type": "node", "id": 11309436644, "lat": 13.0810839, "lon": 80.270267, "tags": {"amenity": "fast_food", "level": "0", "name": "Bombay Snacks Bar"}}, {"type": "node", "id": 11309436649, "lat": 13.0822249, "lon": 80.2779874, "tags": {"amenity": "cafe", "cuisine": "coffee_shop", "level": "0", "name": "Irfan Snack Bar", "street_vendor": "yes", "wheelchair": "limited"}}, {"type": "node", "id": 11309759418, "lat": 13.0835966, "lon": 80.2703801, "tags": {"alt_name": "Kentucky Fried Chicken", "alt_name:en": "Kentucky Fried Chicken", "alt_name:hi": "\u0915\u0947\u0902\u091f\u0941\u0915\u0940 \u092b\u094d\u0930\u093e\u0907\u0921 \u091a\u093f\u0915\u0928", "alt_name:pa": "\u0a15\u0a48\u0a02\u0a1f\u0a41\u0a15\u0a40 \u0a2b\u0a4d\u0a30\u0a3e\u0a08\u0a21 \u0a1a\u0a3f\u0a15\u0a28", "alt_name:pnb": "\u06a9\u06cc\u0646\u0679\u06a9\u06cc \u0641\u0631\u0627\u0626\u06cc\u0688 \u0686\u06a9\u0646", "alt_name:ur": "\u06a9\u06cc\u0646\u0679\u06a9\u06cc \u0641\u0631\u0627\u0626\u06cc\u0688 \u0686\u06a9\u0646", "amenity": "fast_food", "brand": "KFC", "brand:en": "KFC", "brand:hi": "\u0915\u0947\u090f\u092b\u0938\u0940", "brand:pa": "\u0a15\u0a47\u0a10\u0a2b\u0a38\u0a40", "brand:pnb": "\u06a9\u06d2 \u0627\u06cc\u0641 \u0633\u06cc", "brand:ur": "\u06a9\u06d2 \u0627\u06cc\u0641 \u0633\u06cc", "brand:wikidata": "Q524757", "cuisine": "chicken", "level": "0", "name": "KFC", "name:en": "KFC", "name:hi": "\u0915\u0947\u090f\u092b\u0938\u0940", "name:pa": "\u0a15\u0a47\u0a10\u0a2b\u0a38\u0a40", "name:pnb": "\u06a9\u06d2 \u0627\u06cc\u0641 \u0633\u06cc", "name:ur": "\u06a9\u06d2 \u0627\u06cc\u0641 \u0633\u06cc", "takeaway": "yes"}}, {"type": "node", "id": 11386758480, "lat": 13.0823112, "lon": 80.2749621, "tags": {"alt_name": "Kentucky Fried Chicken", "alt_name:en": "Kentucky Fried Chicken", "alt_name:hi": "\u0915\u0947\u0902\u091f\u0941\u0915\u0940 \u092b\u094d\u0930\u093e\u0907\u0921 \u091a\u093f\u0915\u0928", "alt_name:pa": "\u0a15\u0a48\u0a02\u0a1f\u0a41\u0a15\u0a40 \u0a2b\u0a4d\u0a30\u0a3e\u0a08\u0a21 \u0a1a\u0a3f\u0a15\u0a28", "alt_name:pnb": "\u06a9\u06cc\u0646\u0679\u06a9\u06cc \u0641\u0631\u0627\u0626\u06cc\u0688 \u0686\u06a9\u0646", "alt_name:ur": "\u06a9\u06cc\u0646\u0679\u06a9\u06cc \u0641\u0631\u0627\u0626\u06cc\u0688 \u0686\u06a9\u0646", "amenity": "fast_food", "brand": "KFC", "brand:en": "KFC", "brand:hi": "\u0915\u0947\u090f\u092b\u0938\u0940", "brand:pa": "\u0a15\u0a47\u0a10\u0a2b\u0a38\u0a40", "brand:pnb": "\u06a9\u06d2 \u0627\u06cc\u0641 \u0633\u06cc", "brand:ur": "\u06a9\u06d2 \u0627\u06cc\u0641 \u0633\u06cc", "brand:wikidata": "Q524757", "cuisine": "chicken", "diet:non-vegetarian": "yes", "drive_through": "no", "level": "0", "name": "KFC", "name:en": "KFC", "name:hi": "\u0915\u0947\u090f\u092b\u0938\u0940", "name:pa": "\u0a15\u0a47\u0a10\u0a2b\u0a38\u0a40", "name:pnb": "\u06a9\u06d2 \u0627\u06cc\u0641 \u0633\u06cc", "name:ur": "\u06a9\u06d2 \u0627\u06cc\u0641 \u0633\u06cc", "opening_hours": "Mo-Su 09:00-21:00", "operator": "prviate", "takeaway": "yes"}}, {"type": "node", "id": 11394336622, "lat": 13.0825546, "lon": 80.2754275}, {"type": "node", "id": 11394336623, "lat": 13.0826013, "lon": 80.2757965}, {"type": "node", "id": 11394336624, "lat": 13.0824704, "lon": 80.2758154}, {"type": "node", "id": 11394336625, "lat": 13.0824263, "lon": 80.2754506}, {"type": "node", "id": 11395977089, "lat": 13.0445167, "lon": 80.225611, "tags": {"amenity": "fast_food", "name": "Vinu's Igloo ice cream shop"}}, {"type": "node", "id": 11395977090, "lat": 13.0467727, "lon": 80.2261782, "tags": {"amenity": "cafe", "cuisine": "coffee_shop", "name": "Te Hut", "outdoor_seating": "yes"}}, {"type": "node", "id": 11397678682, "lat": 13.0827826, "lon": 80.275151, "tags": {"access": "permissive", "air_conditioning": "no", "amenity": "fast_food", "cuisine": "indian", "diet:non-vegetarian": "yes", "diet:vegetarian": "yes", "drive_through": "no", "fast_food": "cafeteria", "name": "IRCTC", "opening_hours": "24/7", "operator": "irctc"}}, {"type": "node", "id": 11397678684, "lat": 13.0824552, "lon": 80.2756797, "tags": {"access": "yes", "description": "Dormitory Elevator", "highway": "elevator", "level": "0", "wheelchair": "yes"}}, {"type": "node", "id": 11397678687, "lat": 13.0825838, "lon": 80.2756499}, {"type": "node", "id": 11428732869, "lat": 12.8959859, "lon": 80.1731825, "tags": {"amenity": "cafe", "name:en": "Green Land Beverages"}}, {"type": "node", "id": 11496216014, "lat": 13.1030864, "lon": 80.2800834, "tags": {"amenity": "fast_food", "cuisine": "juice", "name": "Sri Amritha Coolbar"}}, {"type": "node", "id": 11496585030, "lat": 13.1032564, "lon": 80.2805336, "tags": {"amenity": "cafe", "name": "Nambiyar Tea Stall"}}, {"type": "node", "id": 11505502987, "lat": 13.1022369, "lon": 80.2797057, "tags": {"amenity": "fast_food", "cuisine": "juice", "name": "S.V.S. Fresh Juice & Chat Center"}}, {"type": "node", "id": 11505503016, "lat": 13.102751, "lon": 80.2798889, "tags": {"amenity": "fast_food", "name": "Maria Fast Food"}}, {"type": "node", "id": 11505503035, "lat": 13.1029879, "lon": 80.2798961, "tags": {"amenity": "fast_food", "cuisine": "juice", "name": "Howdy Chennai"}}, {"type": "node", "id": 11505503036, "lat": 13.1030327, "lon": 80.2798975, "tags": {"amenity": "fast_food", "cuisine": "donut", "name": "Kanishka Kulfi"}}, {"type": "node", "id": 11510724068, "lat": 13.1011731, "lon": 80.2867141, "tags": {"amenity": "cafe", "name": "Devi Tea Stall"}}, {"type": "node", "id": 11513123149, "lat": 13.1002052, "lon": 80.2846695, "tags": {"amenity": "cafe", "name": "Cafe Madrassi"}}, {"type": "node", "id": 11513260566, "lat": 13.1009472, "lon": 80.2799238, "tags": {"amenity": "fast_food", "name": "Sai Ram Hot Chips"}}, {"type": "node", "id": 11513795731, "lat": 13.1030432, "lon": 80.2842335, "tags": {"amenity": "cafe", "name": "Ravida Tea and Coffee Tiffin Centre"}}, {"type": "node", "id": 11513795742, "lat": 13.1027692, "lon": 80.2841696, "tags": {"amenity": "fast_food", "cuisine": "juice", "name": "Delicious Fresh Food & Chats"}}, {"type": "node", "id": 11513795762, "lat": 13.1013345, "lon": 80.2838452, "tags": {"amenity": "fast_food", "cuisine": "juice", "name": "Dinakaran Juice Centre"}}, {"type": "node", "id": 11553237918, "lat": 12.9743802, "lon": 80.1920173, "tags": {"addr:city": "Chennai", "addr:housenumber": "41", "addr:postcode": "600091", "addr:street": "Balaji Nagar 1st Street", "air_conditioning": "yes", "amenity": "cafe", "delivery": "yes", "internet_access": "no", "name": "TeaTrance & Snack Boat", "opening_hours": "Mo-Su 09:00-21:00", "outdoor_seating": "yes", "phone": "04447906014"}}, {"type": "node", "id": 11568502770, "lat": 12.9167102, "lon": 80.1945941, "tags": {"amenity": "bar"}}, {"type": "node", "id": 11609764070, "lat": 13.0429774, "lon": 80.2739518, "tags": {"amenity": "fast_food", "name": "Restauration rapide", "name:en": "KFC (floor 3)"}}, {"type": "node", "id": 11609773369, "lat": 13.0430688, "lon": 80.2745907, "tags": {"amenity": "fast_food"}}, {"type": "node", "id": 11610491969, "lat": 13.0409304, "lon": 80.2363854, "tags": {"amenity": "fast_food", "name:en": "Mc Donald's fast food"}}, {"type": "node", "id": 11617872869, "lat": 13.0541598, "lon": 80.2573955, "tags": {"amenity": "cafe", "name:en": "Writer's cafe (coffee , french pastries, restaurant)"}}, {"type": "node", "id": 11626579770, "lat": 13.0621433, "lon": 80.2146468, "tags": {"amenity": "cafe", "name:en": "Dragon shake 70r"}}, {"type": "node", "id": 11645604246, "lat": 13.0379549, "lon": 80.2364177}, {"type": "node", "id": 11645604247, "lat": 13.0380228, "lon": 80.2365625}, {"type": "node", "id": 11645604248, "lat": 13.0379131, "lon": 80.2366027}, {"type": "node", "id": 11645604249, "lat": 13.0378504, "lon": 80.2364686}, {"type": "node", "id": 11645604250, "lat": 13.0375342, "lon": 80.2366537}, {"type": "node", "id": 11645604251, "lat": 13.0376335, "lon": 80.2367958}, {"type": "node", "id": 11645604252, "lat": 13.0375603, "lon": 80.2368629}, {"type": "node", "id": 11645604253, "lat": 13.0374584, "lon": 80.23671}, {"type": "node", "id": 11645604254, "lat": 13.0377819, "lon": 80.2361501}, {"type": "node", "id": 11645604255, "lat": 13.0378753, "lon": 80.2363077}, {"type": "node", "id": 11645604256, "lat": 13.0377739, "lon": 80.2363653}, {"type": "node", "id": 11645604257, "lat": 13.0376858, "lon": 80.2362173}, {"type": "node", "id": 11645604258, "lat": 13.0376697, "lon": 80.235913}, {"type": "node", "id": 11645604259, "lat": 13.0377725, "lon": 80.2361022}, {"type": "node", "id": 11645604260, "lat": 13.037643, "lon": 80.2361652}, {"type": "node", "id": 11645604261, "lat": 13.0375896, "lon": 80.2360693}, {"type": "node", "id": 11645604262, "lat": 13.0374628, "lon": 80.2360665}, {"type": "node", "id": 11645604263, "lat": 13.0375135, "lon": 80.2359459}, {"type": "node", "id": 11645604264, "lat": 13.0376404, "lon": 80.2358788}, {"type": "node", "id": 11645604265, "lat": 13.0373386, "lon": 80.2361413}, {"type": "node", "id": 11645604266, "lat": 13.0372415, "lon": 80.2361368}, {"type": "node", "id": 11645604267, "lat": 13.0372489, "lon": 80.2364056}, {"type": "node", "id": 11645604268, "lat": 13.0373578, "lon": 80.2363648}, {"type": "way", "id": 95772165, "nodes": [1110063792, 1110063793, 1110063794, 1125911071, 1110063795, 1129195836, 1110063796, 1110063792], "tags": {"amenity": "food_court", "building": "yes", "name": "Cafeteria Block", "office": "company"}}, {"type": "way", "id": 217753805, "nodes": [2270535390, 2270535397, 2270535399, 2270535391, 2270535382, 2270535381, 2270535390], "tags": {"amenity": "fast_food", "brand": "Saravana Bhavan", "brand:wikidata": "Q3528082", "brand:wikipedia": "en:Saravana Bhavan", "cuisine": "indian;south_indian", "name": "Saravana Bhavan", "official_name": "Hotel Saravana Bhavan", "takeaway": "yes"}}, {"type": "way", "id": 354505935, "nodes": [3602158741, 3602158740, 3602158738, 3602158739, 3602158741], "tags": {"amenity": "cafe", "cuisine": "Tea / Coffee / Hot/cold non alc. beverages", "internet_access": "no", "opening_hours": "06:30-10:00", "smoking": "yes"}}, {"type": "way", "id": 354505937, "nodes": [3602158744, 3602158743, 3602158745, 3602158746, 3602158744], "tags": {"amenity": "fast_food", "cuisine": "indian", "internet_access": "no", "internet_access:fee": "no", "name": "Deepa Chat", "opening_hours": "08:30-12:30,15:30-20:00", "payment:coins": "yes", "payment:notes": "yes", "smoking": "no"}}, {"type": "way", "id": 354513695, "nodes": [3602212828, 3602212827, 3602212826, 3602212825, 3602212828], "tags": {"amenity": "cafe", "name": "Sugar cane juice & tea"}}, {"type": "way", "id": 354573613, "nodes": [3602545119, 3602545118, 3602545100, 3602545103, 3602545119], "tags": {"addr:street": "Rajan Street", "amenity": "cafe", "building": "yes"}}, {"type": "way", "id": 354578081, "nodes": [3602566130, 3602566127, 3602566121, 3602566122, 3602566130], "tags": {"amenity": "cafe", "brand": "Cafe Coffee Day", "brand:wikidata": "Q5017235", "brand:wikipedia": "en:Caf\u00e9 Coffee Day", "building": "yes", "cuisine": "coffee_shop", "name": "Cafe Coffee Day", "takeaway": "yes"}}, {"type": "way", "id": 354746190, "nodes": [3604397258, 3604397253, 3604397188, 3604397192, 3604397258], "tags": {"amenity": "fast_food", "brand": "Subway", "brand:pa": "\u0a38\u0a2c\u0a35\u0a47\u0a05", "brand:ur": "\u0633\u0628 \u0648\u06d2", "brand:wikidata": "Q244457", "brand:wikipedia": "en:Subway (restaurant)", "building": "yes", "cuisine": "sandwich", "name": "Subway", "name:pa": "\u0a38\u0a2c\u0a35\u0a47\u0a05", "name:ur": "\u0633\u0628 \u0648\u06d2", "takeaway": "yes"}}, {"type": "way", "id": 354750908, "nodes": [3604420237, 3604420225, 3604420203, 3604420216, 3604420237], "tags": {"alt_name": "Kentucky Fried Chicken", "amenity": "fast_food", "brand": "KFC", "brand:pa": "\u0a15\u0a47\u0a10\u0a2b\u0a38\u0a40", "brand:ur": "\u06a9\u06cc\u0646\u0679\u06a9\u06cc \u0641\u0631\u0627\u0626\u06cc\u0688 \u0686\u06a9\u0646", "brand:wikidata": "Q524757", "brand:wikipedia": "en:KFC", "brand:wikipedia:pa": "\u0a15\u0a47\u0a10\u0a2b\u0a38\u0a40", "brand:wikipedia:ur": "\u06a9\u06cc\u0646\u0679\u06a9\u06cc \u0641\u0631\u0627\u0626\u06cc\u0688 \u0686\u06a9\u0646", "building": "yes", "cuisine": "chicken", "name": "KFC", "name:pa": "\u0a15\u0a47\u0a10\u0a2b\u0a38\u0a40", "name:ur": "\u06a9\u06cc\u0646\u0679\u06a9\u06cc \u0641\u0631\u0627\u0626\u06cc\u0688 \u0686\u06a9\u0646", "takeaway": "yes"}}, {"type": "way", "id": 354813862, "nodes": [3604861361, 3604861359, 3604861344, 3604861347, 3604861361], "tags": {"addr:street": "New No 43 & 44, Old No 96 & 97, 11th Ave, Ashok Nagar, Chennai, Tamil Nadu 600083", "amenity": "fast_food", "brand": "McDonald's", "brand:pa": "\u0a2e\u0a48\u0a15\u0a21\u0a4b\u0a28\u0a32\u0a21\u2019\u0a1c\u0a3c", "brand:ur": "\u0645\u06a9\u0688\u0648\u0646\u0644\u0688\u0632", "brand:wikidata": "Q38076", "brand:wikipedia": "en:McDonald's", "brand:wikipedia:pa": "\u0a2e\u0a48\u0a15\u0a21\u0a4b\u0a28\u0a32\u0a21\u2019\u0a1c\u0a3c", "brand:wikipedia:ur": "\u0645\u06a9\u0688\u0648\u0646\u0644\u0688\u0632", "building": "yes", "cuisine": "burger", "name": "McDonald's", "name:pa": "\u0a2e\u0a48\u0a15\u0a21\u0a4b\u0a28\u0a32\u0a21\u2019\u0a1c\u0a3c", "name:ur": "\u0645\u06a9\u0688\u0648\u0646\u0644\u0688\u0632", "opening_hours": "Mo-Su 09:00-21:00", "phone": "089283 04177", "takeaway": "yes", "website": "https://mcdelivery.co.in/"}}, {"type": "way", "id": 354856327, "nodes": [3605086972, 3605086971, 3605086958, 3605086960, 3605086972], "tags": {"amenity": "food_court", "building": "yes", "name": "OMR Food Street"}}, {"type": "way", "id": 354997041, "nodes": [3606435295, 3606435294, 3606433190, 3606433191, 3606435295], "tags": {"amenity": "fast_food", "brand": "Saravana Bhavan", "brand:wikidata": "Q3528082", "brand:wikipedia": "en:Saravana Bhavan", "building": "yes", "cuisine": "indian;south_indian", "name": "Saravana Bhavan", "official_name": "Hotel Saravana Bhavan", "takeaway": "yes"}}, {"type": "way", "id": 355090989, "nodes": [3606976308, 3606976304, 3606976179, 3606976182, 3606976308], "tags": {"amenity": "cafe", "building": "yes"}}, {"type": "way", "id": 355986923, "nodes": [3614821152, 3614821148, 3614821135, 3614821136, 3614821152], "tags": {"amenity": "fast_food", "brand": "Domino's", "brand:ks": "\u0688\u0648\u0645\u06cc\u0646\u0648\u0632", "brand:pa": "\u0a21\u0a4b\u0a2e\u0a40\u0a28\u0a4b\u0a1c\u0a3c", "brand:ur": "\u0688\u0648\u0645\u06cc\u0646\u0648\u0632", "brand:wikidata": "Q839466", "brand:wikipedia": "en:Domino's Pizza", "building": "yes", "cuisine": "pizza", "name": "Domino's", "name:ks": "\u0688\u0648\u0645\u06cc\u0646\u0648\u0632", "name:pa": "\u0a21\u0a4b\u0a2e\u0a40\u0a28\u0a4b\u0a1c\u0a3c", "name:ur": "\u0688\u0648\u0645\u06cc\u0646\u0648\u0632", "takeaway": "yes"}}, {"type": "way", "id": 364283665, "nodes": [3683320219, 3683320214, 3683320204, 3683320211, 3683320219], "tags": {"amenity": "cafe", "building": "yes", "name": "Akila Cafe"}}, {"type": "way", "id": 422923796, "nodes": [4226456532, 4226456530, 4226456531, 4226456533, 4226456532], "tags": {"amenity": "cafe", "building": "yes", "name": "Tea shop", "opening_hours": "08:30-20:00", "outdoor_seating": "no", "shop": "tea", "smoking": "no", "takeaway": "no"}}, {"type": "way", "id": 430507965, "nodes": [4297746818, 4297746819, 4297746820, 9867234130, 9867234129, 9867234128, 9867234127, 5628206599, 4297746821, 4297746822, 6611449540, 6611449541, 4297746818], "tags": {"amenity": "cafe", "building": "yes", "cuisine": "regional", "internet_access": "no", "level": "0", "name": "Campus Cafe", "opening_hours": "Mo-Sa 07:30-20:00; Su 07:30-15:00"}}, {"type": "way", "id": 459808175, "nodes": [4555470487, 4555470486, 4555470485, 4555470484, 4555470487], "tags": {"amenity": "cafe", "building": "yes"}}, {"type": "way", "id": 477836948, "nodes": [4711364259, 4711364260, 4711364261, 4711364262, 4711364259], "tags": {"addr:city": "Chennai", "addr:housenumber": "15637", "addr:postcode": "600017", "addr:street": "Govindu Street", "amenity": "cafe", "building": "yes", "cuisine": "pizza", "name": "ABC", "phone": "+91886724153", "smoking": "no", "website": "https://www.abc.com/"}}, {"type": "way", "id": 480351135, "nodes": [4733574173, 4733574174, 4733574175, 4733574176, 4733574173], "tags": {"amenity": "cafe", "cuisine": "regional", "internet_access": "no", "name": "Food court 2"}}, {"type": "way", "id": 480351136, "nodes": [4733574177, 4733574178, 4733574179, 4733574180, 4733574177], "tags": {"amenity": "cafe", "cuisine": "regional;indian", "internet_access": "no", "name": "Food court 1", "outdoor_seating": "no"}}, {"type": "way", "id": 540442473, "nodes": [5228470389, 5228470390, 5228470391, 5228470392, 5228470393, 5228470394, 5228470389], "tags": {"addr:city": "Ekkattuthangal, Chennai", "addr:postcode": "600032", "amenity": "fast_food", "brand": "Saravana Bhavan", "brand:wikidata": "Q3528082", "brand:wikipedia": "en:Saravana Bhavan", "building": "yes", "cuisine": "indian;south_indian", "delivery": "no", "name": "Saravana Bhavan", "official_name": "Hotel Saravana Bhavan", "outdoor_seating": "no", "takeaway": "yes"}}, {"type": "way", "id": 589916788, "nodes": [5633031066, 5633031070, 5633031071, 5633031067, 5633031068, 5633031069, 5633031066], "tags": {"amenity": "cafe", "brand": "Cafe Coffee Day", "brand:wikidata": "Q5017235", "building": "yes", "cuisine": "coffee_shop", "level": "0", "name": "Cafe Coffee Day", "takeaway": "yes"}}, {"type": "way", "id": 657856729, "nodes": [6161110012, 6161110025, 6161110024, 6161110023, 6161110013, 6161110012], "tags": {"amenity": "food_court", "building": "yes", "name": "Eco Park Food Court"}}, {"type": "way", "id": 660099422, "nodes": [6180354768, 6180354769, 6180354770, 6180354771, 6180354772, 6180354773, 6180354774, 6180354775, 6180354776, 6180354777, 6180354778, 6180354779, 6180354780, 6180354781, 6180354768], "tags": {"amenity": "fast_food", "brand": "Saravana Bhavan", "brand:wikidata": "Q3528082", "brand:wikipedia": "en:Saravana Bhavan", "building": "yes", "cuisine": "indian;south_indian", "name": "Saravana Bhavan", "official_name": "Hotel Saravana Bhavan", "takeaway": "yes"}}, {"type": "way", "id": 783017710, "nodes": [7312143953, 7312143952, 7312143951, 7312143950, 7312143949, 7312143948, 7312143947, 7312143946, 7312143945, 7312143944, 7312143943, 7312143942, 7312143941, 7312143940, 7312143939, 7312143938, 7312143937, 7312143936, 7312143935, 7312143934, 7312143933, 7312143932, 7312143931, 7312143930, 7312143929, 7312143928, 7312143927, 7312143926, 7312143953], "tags": {"amenity": "cafe", "building": "yes"}}, {"type": "way", "id": 1103969687, "nodes": [10102276305, 10102276308, 10102276309, 10102276310, 10102276311, 10102276305], "tags": {"amenity": "cafe", "building": "yes", "building:levels": "1", "name": "Wake Cup Chai"}}, {"type": "way", "id": 1105396061, "nodes": [10115467386, 10115467387, 10115467388, 10115467389, 10115467386], "tags": {"amenity": "cafe", "building": "yes", "building:levels": "1", "cuisine": "coffee_shop", "name": "Udangudi karupatti kapi"}}, {"type": "way", "id": 1110723484, "nodes": [10161855173, 10161855174, 10161855175, 10161855176, 10161855177, 10161855178, 10161855173], "tags": {"amenity": "cafe", "building": "yes", "layer": "1"}}, {"type": "way", "id": 1155114360, "nodes": [10742379728, 10742379730, 10742379731, 10742379732, 10742379733, 10742379729, 10742379728], "tags": {"amenity": "cafe", "building": "yes"}}, {"type": "way", "id": 1228667098, "nodes": [11394336622, 11397678687, 11394336623, 11394336624, 11397678684, 11394336625, 11394336622], "tags": {"amenity": "cafe", "building": "yes", "description": "Lounger", "name": "Waiting Area2"}}, {"type": "way", "id": 1252873480, "nodes": [11645604246, 11645604247, 11645604248, 11645604249, 11645604246], "tags": {"amenity": "cafe", "building": "yes", "cuisine": "bubble_tea"}}, {"type": "way", "id": 1252873481, "nodes": [11645604250, 11645604251, 11645604252, 11645604253, 11645604250], "tags": {"amenity": "cafe", "brand": "Cafe Coffee Day", "brand:wikidata": "Q5017235", "building": "yes", "cuisine": "coffee_shop", "name": "Cafe Coffee Day", "takeaway": "yes"}}, {"type": "way", "id": 1252873482, "nodes": [11645604254, 11645604255, 11645604256, 11645604257, 11645604254], "tags": {"amenity": "fast_food", "building": "yes", "cuisine": "fish_and_chips"}}, {"type": "way", "id": 1252873483, "nodes": [11645604258, 11645604259, 11645604260, 11645604261, 11645604262, 11645604263, 11645604264, 11645604258], "tags": {"amenity": "fast_food", "building": "yes", "cuisine": "kebab"}}, {"type": "way", "id": 1252873484, "nodes": [11645604265, 11645604266, 11645604267, 11645604268, 11645604265], "tags": {"amenity": "cafe", "brand": "Cafe Coffee Day", "brand:wikidata": "Q5017235", "building": "yes", "cuisine": "coffee_shop", "name": "Cafe Coffee Day", "takeaway": "yes"}}]}