{"version": 0.6, "generator": "Overpass API 0.7.61.5 4133829e", "osm3s": {"timestamp_osm_base": "2024-02-25T09:34:44Z", "copyright": "The data included in this document is from www.openstreetmap.org. The data is made available under ODbL."}, "elements": [{"type": "node", "id": 1640247740, "lat": 26.8541581, "lon": 80.9948786, "tags": {"addr:postcode": "226010", "amenity": "cafe", "cuisine": "coffee_shop", "name": "Cafe Coffee Day", "wifi": "no"}}, {"type": "node", "id": 2412957169, "lat": 26.8825152, "lon": 80.9997676}, {"type": "node", "id": 2412957170, "lat": 26.8825652, "lon": 80.9993415}, {"type": "node", "id": 2412957171, "lat": 26.8827752, "lon": 80.9998573}, {"type": "node", "id": 2412957172, "lat": 26.8828452, "lon": 80.999364}, {"type": "node", "id": 2412957173, "lat": 26.8829102, "lon": 80.9997003}, {"type": "node", "id": 2412957174, "lat": 26.8829102, "lon": 80.9998348}, {"type": "node", "id": 2412957175, "lat": 26.8829702, "lon": 80.9998685}, {"type": "node", "id": 2412957177, "lat": 26.8830002, "lon": 80.9997339}, {"type": "node", "id": 2619549288, "lat": 26.8653341, "lon": 81.0244622, "tags": {"amenity": "fast_food", "name": "kathauta chauraha", "name:en": "Kathauta Roundabout", "name:hi-Latn": "Kathauta Chauraha"}}, {"type": "node", "id": 3664092940, "lat": 26.8444615, "lon": 80.945768, "tags": {"addr:city": "lucknow", "addr:housenumber": "234", "addr:postcode": "226010", "amenity": "fast_food", "cuisine": "pizza", "name": "Telepizza"}}, {"type": "node", "id": 3941230269, "lat": 26.8470252, "lon": 80.9461409, "tags": {"addr:street": "Hazratganj", "amenity": "cafe", "cuisine": "coffee_shop", "name": "Cafe Coffee Day", "opening_hours": "Mo-Su 09:00-01:00"}}, {"type": "node", "id": 3957458567, "lat": 26.8727176, "lon": 80.982716, "tags": {"amenity": "fast_food", "brand": "KFC", "brand:pa": "\u0a15\u0a47\u0a10\u0a2b\u0a38\u0a40", "brand:ur": "\u06a9\u06cc\u0646\u0679\u06a9\u06cc \u0641\u0631\u0627\u0626\u06cc\u0688 \u0686\u06a9\u0646", "brand:wikidata": "Q524757", "brand:wikipedia": "en:KFC", "brand:wikipedia:pa": "\u0a15\u0a47\u0a10\u0a2b\u0a38\u0a40", "brand:wikipedia:ur": "\u06a9\u06cc\u0646\u0679\u06a9\u06cc \u0641\u0631\u0627\u0626\u06cc\u0688 \u0686\u06a9\u0646", "cuisine": "chicken", "name": "KFC", "name:pa": "\u0a15\u0a47\u0a10\u0a2b\u0a38\u0a40", "name:ur": "\u06a9\u06cc\u0646\u0679\u06a9\u06cc \u0641\u0631\u0627\u0626\u06cc\u0688 \u0686\u06a9\u0646", "takeaway": "yes"}}, {"type": "node", "id": 3957458568, "lat": 26.8727096, "lon": 80.9829018, "tags": {"amenity": "fast_food", "brand": "Domino's", "brand:ks": "\u0688\u0648\u0645\u06cc\u0646\u0648\u0632", "brand:pa": "\u0a21\u0a4b\u0a2e\u0a40\u0a28\u0a4b\u0a1c\u0a3c", "brand:ur": "\u0688\u0648\u0645\u06cc\u0646\u0648\u0632", "brand:wikidata": "Q839466", "brand:wikipedia": "en:Domino's Pizza", "cuisine": "pizza", "name": "Domino's", "name:ks": "\u0688\u0648\u0645\u06cc\u0646\u0648\u0632", "name:pa": "\u0a21\u0a4b\u0a2e\u0a40\u0a28\u0a4b\u0a1c\u0a3c", "name:ur": "\u0688\u0648\u0645\u06cc\u0646\u0648\u0632", "takeaway": "yes"}}, {"type": "node", "id": 4076350289, "lat": 26.85522, "lon": 80.945581, "tags": {"addr:city": "Lucknow", "addr:postcode": "226001", "addr:street": "Shahnajaf Road", "amenity": "fast_food", "brand": "McDonald's", "brand:pa": "\u0a2e\u0a48\u0a15\u0a21\u0a4b\u0a28\u0a32\u0a21\u2019\u0a1c\u0a3c", "brand:ur": "\u0645\u06a9\u0688\u0648\u0646\u0644\u0688\u0632", "brand:wikidata": "Q38076", "brand:wikipedia": "en:McDonald's", "brand:wikipedia:pa": "\u0a2e\u0a48\u0a15\u0a21\u0a4b\u0a28\u0a32\u0a21\u2019\u0a1c\u0a3c", "brand:wikipedia:ur": "\u0645\u06a9\u0688\u0648\u0646\u0644\u0688\u0632", "cuisine": "burger", "internet_access": "wlan", "name": "McDonald's", "name:pa": "\u0a2e\u0a48\u0a15\u0a21\u0a4b\u0a28\u0a32\u0a21\u2019\u0a1c\u0a3c", "name:ur": "\u0645\u06a9\u0688\u0648\u0646\u0644\u0688\u0632", "takeaway": "yes"}}, {"type": "node", "id": 4169354656, "lat": 26.8554202, "lon": 80.9456181, "tags": {"addr:city": "Lucknow", "addr:postcode": "226001", "addr:street": "Shahnajaf Road", "amenity": "fast_food", "brand": "KFC", "brand:pa": "\u0a15\u0a47\u0a10\u0a2b\u0a38\u0a40", "brand:ur": "\u06a9\u06cc\u0646\u0679\u06a9\u06cc \u0641\u0631\u0627\u0626\u06cc\u0688 \u0686\u06a9\u0646", "brand:wikidata": "Q524757", "brand:wikipedia": "en:KFC", "brand:wikipedia:pa": "\u0a15\u0a47\u0a10\u0a2b\u0a38\u0a40", "brand:wikipedia:ur": "\u06a9\u06cc\u0646\u0679\u06a9\u06cc \u0641\u0631\u0627\u0626\u06cc\u0688 \u0686\u06a9\u0646", "cuisine": "chicken", "name": "KFC", "name:pa": "\u0a15\u0a47\u0a10\u0a2b\u0a38\u0a40", "name:ur": "\u06a9\u06cc\u0646\u0679\u06a9\u06cc \u0641\u0631\u0627\u0626\u06cc\u0688 \u0686\u06a9\u0646", "takeaway": "yes"}}, {"type": "node", "id": 4283773589, "lat": 26.8508309, "lon": 80.9648847, "tags": {"amenity": "fast_food", "cuisine": "ice_cream", "name": "Parag"}}, {"type": "node", "id": 4577940091, "lat": 26.8893964, "lon": 81.0584078, "tags": {"amenity": "fast_food", "name:en": "Vadik Misthan"}}, {"type": "node", "id": 5485625142, "lat": 26.8510175, "lon": 80.9776298, "tags": {"amenity": "cafe", "name": "Sheroe's Hangout Cafe"}}, {"type": "node", "id": 6005264685, "lat": 26.8474755, "lon": 80.9465305, "tags": {"addr:street": "Ashok Marg", "amenity": "cafe", "name:en": "Indian Coffee House", "phone": "+914872335275", "website": "http://indiancoffeehouse.com"}}, {"type": "node", "id": 6012504085, "lat": 26.8516664, "lon": 80.9415761, "tags": {"amenity": "cafe", "cuisine": "coffee_shop;pasta;breakfast", "name:en": "Caf\u00e9 Cherry Tree"}}, {"type": "node", "id": 6621845254, "lat": 26.8739653, "lon": 81.0022785, "tags": {"amenity": "fast_food", "name": "Mansi Sweet"}}, {"type": "node", "id": 6621993316, "lat": 26.8734381, "lon": 81.00247, "tags": {"addr:city": "Lucknow", "addr:housenumber": "Sushma Hospital", "addr:street": "Faizabad Road", "amenity": "cafe", "name": "Fresh Fruit Juice and Shakes"}}, {"type": "node", "id": 6624530409, "lat": 26.8580232, "lon": 80.9760878, "tags": {"amenity": "fast_food", "brand": "McDonald's", "brand:pa": "\u0a2e\u0a48\u0a15\u0a21\u0a4b\u0a28\u0a32\u0a21\u2019\u0a1c\u0a3c", "brand:ur": "\u0645\u06a9\u0688\u0648\u0646\u0644\u0688\u0632", "brand:wikidata": "Q38076", "brand:wikipedia": "en:McDonald's", "brand:wikipedia:pa": "\u0a2e\u0a48\u0a15\u0a21\u0a4b\u0a28\u0a32\u0a21\u2019\u0a1c\u0a3c", "brand:wikipedia:ur": "\u0645\u06a9\u0688\u0648\u0646\u0644\u0688\u0632", "cuisine": "burger", "level": "0", "name": "McDonald's", "name:pa": "\u0a2e\u0a48\u0a15\u0a21\u0a4b\u0a28\u0a32\u0a21\u2019\u0a1c\u0a3c", "name:ur": "\u0645\u06a9\u0688\u0648\u0646\u0644\u0688\u0632", "takeaway": "yes"}}, {"type": "node", "id": 6630593984, "lat": 26.8777243, "lon": 81.0007227, "tags": {"addr:housenumber": "8/204", "addr:place": "Indiranagar", "addr:postcode": "226016", "amenity": "cafe", "drink:tea": "yes", "name": "Chai Ki Chuski", "opening_hours": "Mo-Su 06:00-10:30, 16:00-22:30", "outdoor_seating": "yes", "seats": "15"}}, {"type": "node", "id": 6631591733, "lat": 26.8576597, "lon": 80.9760894, "tags": {"amenity": "cafe", "brand": "Cafe Coffee Day", "cuisine": "coffee_shop", "level": "0", "name": "Cafe Coffee Day", "operator": "Coffee Day Global Limited", "takeaway": "yes"}}, {"type": "node", "id": 6634977760, "lat": 26.8654238, "lon": 80.9106859, "tags": {"amenity": "fast_food", "name": "Shree Lassi Corner and Company", "opening_hours": "Mo-Su 11:00-23:00", "outdoor_seating": "yes", "seats": "20"}}, {"type": "node", "id": 6635065566, "lat": 26.848115, "lon": 80.9400898, "tags": {"amenity": "cafe", "brand": "Cafe Coffee Day", "cuisine": "coffee_shop", "name": "Cafe Coffee Day", "takeaway": "yes"}}, {"type": "node", "id": 6643018694, "lat": 26.8661065, "lon": 81.0079955, "tags": {"addr:city": "Lucknow", "addr:housenumber": "27 & 31", "addr:postcode": "226010", "addr:street": "Rohtas Presidential Arcade, Vijaipur Colony, Vibhuti Khand, Gomti Nagar", "air_conditioning": "yes", "amenity": "bar", "brewery": "yes", "description": "Munick is bistro and bar located in gomti nagar lucknow uttar pradesh ", "email": "munickbistroandbar@gmail.com", "name": "Munick bistro & bar", "opening_hours": "Mo-Su 11:00-2:30", "outdoor_seating": "yes", "payment:american_express": "yes", "payment:cash": "yes", "payment:credit_cards": "yes", "payment:debit_cards": "yes", "payment:maestro": "yes", "payment:mastercard": "yes", "payment:visa": "yes"}}, {"type": "node", "id": 7048895993, "lat": 26.8631915, "lon": 81.0241393, "tags": {"addr:city": "Lucknow", "addr:postcode": "226010", "addr:street": "Vinamra Khand, Gomti Nagar", "amenity": "cafe", "mobile": "7081260018", "name": "HIDEOUT CAFE", "opening_hours": "Mo-Fr 11:00-02:00"}}, {"type": "node", "id": 8107411915, "lat": 26.8886616, "lon": 81.0563478, "tags": {"addr:city": "LUCKNOW", "addr:housenumber": "Shop No.22 Ground Floor, New Sai Market, Opp BBD University", "addr:postcode": "226016", "addr:street": "Faizabad Road", "amenity": "cafe", "cuisine": "tea_shop;burger;pizza", "name": "Gully Cafe", "opening_hours": "24/7", "outdoor_seating": "yes", "phone": "+918146952057", "website": "https://www.facebook.com/gullycafelucknow"}}, {"type": "node", "id": 8899867393, "lat": 26.8776925, "lon": 81.0008025, "tags": {"amenity": "fast_food", "name": "Dosa Point"}}, {"type": "node", "id": 8911017253, "lat": 26.8971359, "lon": 80.9432823, "tags": {"amenity": "fast_food", "name": "Chips Center"}}, {"type": "node", "id": 8911017254, "lat": 26.8971042, "lon": 80.9432437, "tags": {"amenity": "fast_food", "name": "Wow Momos"}}, {"type": "node", "id": 8911017255, "lat": 26.8966115, "lon": 80.942814, "tags": {"amenity": "fast_food", "name": "Palm Delight Takeaway Food Truck"}}, {"type": "node", "id": 8911017256, "lat": 26.8968, "lon": 80.9436282, "tags": {"amenity": "cafe", "name": "Sign-In Cafe"}}, {"type": "node", "id": 8911017266, "lat": 26.8957293, "lon": 80.9426592, "tags": {"amenity": "fast_food", "name": "Burger Beans"}}, {"type": "node", "id": 8911017267, "lat": 26.895745, "lon": 80.9423213, "tags": {"amenity": "food_court", "name": "Golden Leaf"}}, {"type": "node", "id": 8911017270, "lat": 26.8950744, "lon": 80.9417677, "tags": {"amenity": "fast_food", "name": "Sree Nath Chicken place"}}, {"type": "node", "id": 8911017272, "lat": 26.8944346, "lon": 80.9421359, "tags": {"amenity": "food_court", "name": "Summit Food Point"}}, {"type": "node", "id": 8911017274, "lat": 26.8945408, "lon": 80.9428026, "tags": {"amenity": "food_court", "name": "South Indian Tamil Nadu Dosa"}}, {"type": "node", "id": 8911017275, "lat": 26.8944524, "lon": 80.9431568, "tags": {"amenity": "food_court", "name": "Mahalaxmi Sweets and chat"}}, {"type": "node", "id": 8911017279, "lat": 26.8947984, "lon": 80.9437098, "tags": {"amenity": "fast_food", "name": "Pizza and Meals"}}, {"type": "node", "id": 8911017281, "lat": 26.8954242, "lon": 80.9437816, "tags": {"amenity": "food_court", "name": "Manosalwa Rasoi"}}, {"type": "node", "id": 8911017292, "lat": 26.897847, "lon": 80.9440658, "tags": {"amenity": "food_court", "name": "Gupta Caterers"}}, {"type": "node", "id": 8911017301, "lat": 26.9002918, "lon": 80.9459344, "tags": {"amenity": "food_court", "name": "Cafe Broadway 9"}}, {"type": "node", "id": 8911017311, "lat": 26.9020865, "lon": 80.9429446, "tags": {"amenity": "fast_food", "name": "Manish Samosa Point"}}, {"type": "node", "id": 8911017313, "lat": 26.9012303, "lon": 80.942678, "tags": {"amenity": "fast_food", "name": "Packed Food shop"}}, {"type": "node", "id": 8911058617, "lat": 26.9018833, "lon": 80.947802, "tags": {"amenity": "fast_food", "name": "Mithai Shop"}}, {"type": "node", "id": 8911063718, "lat": 26.9023819, "lon": 80.9431649, "tags": {"amenity": "fast_food", "cuisine": "juice", "name": "Gyan Fresh Fruit Juice"}}, {"type": "node", "id": 9035161918, "lat": 26.8483271, "lon": 80.9437858, "tags": {"addr:street": "Hazratganj", "amenity": "cafe", "name:en": "Royal Cafe"}}, {"type": "node", "id": 9244968722, "lat": 26.9099508, "lon": 80.9449133, "tags": {"addr:city": "Lucknow", "addr:housenumber": "Narayan Plaza, LGF 19,20,21", "addr:postcode": "226021", "addr:street": "\u0907\u0902\u091c\u0940\u0928\u093f\u092f\u0930\u093f\u0902\u0917 \u0915\u0949\u0932\u0947\u091c \u091a\u094c\u0930\u093e\u0939\u093e", "amenity": "cafe", "cuisine": "rolls", "name": "Roll Out", "opening_hours": "Mo-Su 10:00-22:00", "outdoor_seating": "no", "phone": "+918433328344"}}, {"type": "node", "id": 10034519656, "lat": 26.9572929, "lon": 80.9989682}, {"type": "node", "id": 10034519657, "lat": 26.9576506, "lon": 80.9991721}, {"type": "node", "id": 10034519658, "lat": 26.9575703, "lon": 80.9993244}, {"type": "node", "id": 10034519659, "lat": 26.9572145, "lon": 80.9991377}, {"type": "node", "id": 10034519660, "lat": 26.9573598, "lon": 80.9992441}, {"type": "node", "id": 10034519661, "lat": 26.9573083, "lon": 80.9993451}, {"type": "node", "id": 10034519662, "lat": 26.957244, "lon": 80.9993109}, {"type": "node", "id": 10034519663, "lat": 26.9572954, "lon": 80.9992098}, {"type": "node", "id": 10604032308, "lat": 26.8765073, "lon": 80.9825615, "tags": {"amenity": "cafe", "name": "All About Deserts"}}, {"type": "node", "id": 10604032310, "lat": 26.8771434, "lon": 80.9778037, "tags": {"amenity": "fast_food", "cuisine": "pizza", "name": "Romeo's Pizza"}}, {"type": "node", "id": 10605470645, "lat": 26.8763416, "lon": 80.9837656, "tags": {"amenity": "fast_food", "cuisine": "pizza", "name": "Pizza Tavola"}}, {"type": "node", "id": 10605470652, "lat": 26.8803073, "lon": 80.9954471, "tags": {"amenity": "fast_food", "name": "Kalevum Sweets"}}, {"type": "node", "id": 10605470658, "lat": 26.8821874, "lon": 80.9962466, "tags": {"amenity": "cafe", "name": "Cafe WTF"}}, {"type": "node", "id": 10605651828, "lat": 26.8711509, "lon": 80.9756575, "tags": {"amenity": "cafe", "name": "Cafe Repertwahr"}}, {"type": "node", "id": 10605651830, "lat": 26.8715733, "lon": 80.9735083, "tags": {"amenity": "cafe", "brand": "Cafe Coffee Day", "brand:wikidata": "Q5017235", "cuisine": "coffee_shop", "name": "Cafe Coffee Day", "takeaway": "yes"}}, {"type": "node", "id": 10605651841, "lat": 26.8774685, "lon": 80.9763498, "tags": {"amenity": "cafe", "name": "Foxx Cafe"}}, {"type": "node", "id": 11230374367, "lat": 26.8418087, "lon": 80.9296937, "tags": {"amenity": "fast_food", "level": "-1", "name": "Rattilal's", "opening_hours": "PH,Mo-Su 05:30-17:00"}}, {"type": "node", "id": 11404923561, "lat": 26.8805041, "lon": 80.994089, "tags": {"amenity": "fast_food", "name": "New Dana Pani"}}, {"type": "way", "id": 232975265, "nodes": [2412957177, 2412957175, 2412957174, 2412957173, 2412957177], "tags": {"amenity": "fast_food"}}, {"type": "way", "id": 232975266, "nodes": [2412957172, 2412957171, 2412957169, 2412957170, 2412957172], "tags": {"amenity": "fast_food"}}, {"type": "way", "id": 1095686047, "nodes": [10034519656, 10034519657, 10034519658, 10034519659, 10034519656], "tags": {"amenity": "cafe", "building": "yes"}}, {"type": "way", "id": 1095686048, "nodes": [10034519660, 10034519661, 10034519662, 10034519663, 10034519660], "tags": {"amenity": "fast_food", "building": "yes", "cuisine": "juice"}}]}