{"version": 0.6, "generator": "Overpass API 0.7.61.5 4133829e", "osm3s": {"timestamp_osm_base": "2024-02-25T08:58:55Z", "copyright": "The data included in this document is from www.openstreetmap.org. The data is made available under ODbL."}, "elements": [{"type": "node", "id": 206276727, "lat": 19.0754737, "lon": 72.9838432, "tags": {"source": "PGS"}}, {"type": "node", "id": 213030669, "lat": 19.2494501, "lon": 72.8596206, "tags": {"internet_access": "no", "name": "Dahisar", "name:hi": "\u0926\u0939\u0940\u0938\u0930", "network": "IR", "operator": "WR", "public_transport": "station", "railway": "station", "ref": "DIC", "train": "yes", "wikidata": "Q5208848", "wikipedia": "en:Dahisar railway station"}}, {"type": "node", "id": 213030714, "lat": 19.0815223, "lon": 72.8417565, "tags": {"internet_access": "no", "name": "Santa Cruz", "name:hi": "\u0938\u093e\u0902\u0924\u093e\u0915\u094d\u0930\u0941\u091d", "name:mr": "\u0938\u093e\u0902\u0924\u093e\u0915\u094d\u0930\u0942\u091d", "network": "IR", "operator": "WR", "public_transport": "station", "railway": "station", "ref": "STC", "train": "yes", "wikidata": "Q7420001", "wikipedia": "en:Santacruz railway station"}}, {"type": "node", "id": 245671397, "lat": 19.1102879, "lon": 72.8734989, "tags": {"source": "AND"}}, {"type": "node", "id": 246582717, "lat": 19.186483, "lon": 72.9757664, "tags": {"alt_name:ar": "\u062b\u064a\u0646", "internet_access": "wlan", "name": "Thane", "name:ar": "\u062a\u0627\u0646\u064a", "name:fa": "\u062a\u0627\u0646\u0647", "name:hi": "\u0920\u093e\u0923\u0947", "name:ml": "\u0d24\u0d3e\u0d28\u0d46", "name:mr": "\u0920\u093e\u0923\u0947", "name:pnb": "\u062a\u06c1\u0627\u0646\u06c1", "name:ps": "\u062a\u0627\u0646\u06cc", "name:ur": "\u062a\u06be\u0627\u0646\u06d2", "network": "IR", "operator": "CR", "public_transport": "station", "railway": "station", "ref": "TNA", "train": "yes", "wikidata": "Q7710247", "wikipedia": "en:Thane railway station"}}, {"type": "node", "id": 296357673, "lat": 19.0958706, "lon": 72.827149, "tags": {"barrier": "gate"}}, {"type": "node", "id": 296357688, "lat": 19.095982, "lon": 72.8279757}, {"type": "node", "id": 296357695, "lat": 19.0963098, "lon": 72.8278511}, {"type": "node", "id": 296357706, "lat": 19.0962642, "lon": 72.8271191}, {"type": "node", "id": 317164438, "lat": 18.9403081, "lon": 72.835016}, {"type": "node", "id": 317164439, "lat": 18.9421486, "lon": 72.8348034}, {"type": "node", "id": 317164440, "lat": 18.9425125, "lon": 72.8348574}, {"type": "node", "id": 317164441, "lat": 18.9425328, "lon": 72.8351166}, {"type": "node", "id": 338318837, "lat": 19.0664645, "lon": 73.0099776}, {"type": "node", "id": 347138797, "lat": 19.0689385, "lon": 72.8401184, "tags": {"internet_access": "no", "name": "Khar Road", "name:en": "Khar Road", "name:mr": "\u0916\u093e\u0930 \u0930\u094b\u0921", "network": "IR", "operator": "WR", "public_transport": "station", "railway": "station", "ref": "KHAR", "start_date": "1924-07-01", "train": "yes", "wikidata": "Q372596", "wikipedia": "en:Khar Road railway station"}}, {"type": "node", "id": 467145475, "lat": 18.9468108, "lon": 72.795394}, {"type": "node", "id": 467145476, "lat": 18.9469546, "lon": 72.7955637}, {"type": "node", "id": 467145477, "lat": 18.9467273, "lon": 72.7957697}, {"type": "node", "id": 467145478, "lat": 18.9465974, "lon": 72.7956066}, {"type": "node", "id": 529858572, "lat": 18.9864241, "lon": 72.8142468}, {"type": "node", "id": 529858573, "lat": 18.9865256, "lon": 72.8143112}, {"type": "node", "id": 529858574, "lat": 18.9869212, "lon": 72.8143863}, {"type": "node", "id": 529858575, "lat": 18.9871749, "lon": 72.8143005}, {"type": "node", "id": 529858576, "lat": 18.9871495, "lon": 72.8139598}, {"type": "node", "id": 564878691, "lat": 19.2364095, "lon": 72.8187174, "tags": {"amenity": "ferry_terminal", "ferry": "yes", "name": "Gorai", "public_transport": "station"}}, {"type": "node", "id": 564906271, "lat": 19.1991352, "lon": 72.7928289, "tags": {"amenity": "ferry_terminal", "ferry": "yes", "name": "Marve Jetty", "public_transport": "station"}}, {"type": "node", "id": 593916996, "lat": 19.2336791, "lon": 72.8233865, "tags": {"amenity": "ferry_terminal", "ferry": "yes", "name": "Borivali", "public_transport": "station"}}, {"type": "node", "id": 619119023, "lat": 19.1952243, "lon": 72.9963331, "tags": {"internet_access": "no", "name": "Kalva", "name:hi": "\u0915\u0932\u0935\u093e", "name:mr": "\u0915\u0933\u0935\u093e", "network": "IR", "operator": "CR", "railway": "station", "ref": "KLVA", "wikidata": "Q6354779", "wikipedia": "en:Kalwa railway station"}}, {"type": "node", "id": 619280071, "lat": 19.0168546, "lon": 72.8591933, "tags": {"internet_access": "wlan", "name": "Vadala Road", "name:hi": "\u0935\u0921\u093e\u0932\u093e \u0930\u094b\u0921", "network": "IR", "old_name": "Gowari", "operator": "CR", "public_transport": "station", "railway": "station", "ref": "VDLR", "wikidata": "Q7958939", "wikipedia": "en:Vadala Road railway station"}}, {"type": "node", "id": 619992025, "lat": 19.1296868, "lon": 72.9283701, "tags": {"internet_access": "no", "name": "Kanjurmarg", "name:hi": "\u0915\u093e\u0902\u091c\u0941\u0930\u092e\u093e\u0930\u094d\u0917", "name:ml": "\u0d15\u0d3e\u0d1e\u0d4d\u0d1c\u0d42\u0d7c\u0d2e\u0d3e\u0d7c\u0d17\u0d4d", "network": "IR", "operator": "CR", "public_transport": "station", "railway": "station", "ref": "KJRD", "wikidata": "Q6363526", "wikipedia": "en:Kanjurmarg railway station"}}, {"type": "node", "id": 620011899, "lat": 19.0967095, "lon": 72.8942725}, {"type": "node", "id": 620013256, "lat": 19.0795422, "lon": 72.8971169, "tags": {"addr:city": "mumbai", "addr:postcode": "400086", "addr:street": "Station Road", "internet_access": "no", "name": "Vidya Vihar", "network": "IR", "operator": "CR", "public_transport": "station", "railway": "station", "ref": "VVH", "wikidata": "Q7928232", "wikipedia": "en:Vidyavihar railway station"}}, {"type": "node", "id": 621911847, "lat": 18.99568, "lon": 72.8302756, "tags": {"ele": "5", "internet_access": "no", "name": "Lower Parel", "name:hi": "\u0932\u094b\u0905\u0930 \u092a\u0930\u0947\u0932", "name:ml": "\u0d32\u0d4b\u0d35\u0d7c \u0d2a\u0d30\u0d7e", "name:mr": "\u0932\u094b\u0905\u0930 \u092a\u0930\u0933", "network": "IR", "operator": "WR", "public_transport": "station", "railway": "station", "ref": "PL", "start_date": "1867", "train": "yes", "wikidata": "Q6693696", "wikipedia": "en:Lower Parel railway station"}}, {"type": "node", "id": 623431009, "lat": 18.9111715, "lon": 72.826847, "tags": {"amenity": "ferry_terminal", "ferry": "yes", "public_transport": "station"}}, {"type": "node", "id": 627733109, "lat": 19.2253824, "lon": 72.8080979, "tags": {"amenity": "ferry_terminal", "ferry": "yes", "name": "Essel World", "name:ru": "\u0430\u043a\u0432\u0430\u043f\u0430\u0440\u043a", "public_transport": "station"}}, {"type": "node", "id": 627734256, "lat": 19.1995256, "lon": 72.7983882, "tags": {"amenity": "ferry_terminal", "ferry": "yes", "name": "Marve Jetty", "public_transport": "station"}}, {"type": "node", "id": 628635780, "lat": 18.9260638, "lon": 72.8318208}, {"type": "node", "id": 628635784, "lat": 18.9259318, "lon": 72.8320824}, {"type": "node", "id": 628635797, "lat": 18.9258106, "lon": 72.8325561}, {"type": "node", "id": 628635799, "lat": 18.9258176, "lon": 72.8330443}, {"type": "node", "id": 630670124, "lat": 19.1869148, "lon": 72.9773591}, {"type": "node", "id": 630743879, "lat": 19.1887564, "lon": 73.0414169, "tags": {"internet_access": "no", "name": "Diva Junction", "name:hi": "\u0926\u093f\u0935\u093e \u091c\u0902\u0915\u094d\u0936\u0928", "network": "IR", "operator": "CR", "public_transport": "station", "railway": "station", "ref": "DIVA", "train": "yes", "wikidata": "Q2826520", "wikipedia": "en:Diva Junction railway station"}}, {"type": "node", "id": 631563645, "lat": 18.9689117, "lon": 72.8211142}, {"type": "node", "id": 631563647, "lat": 18.9687029, "lon": 72.8226492}, {"type": "node", "id": 631563649, "lat": 18.9699492, "lon": 72.8214662}, {"type": "node", "id": 631563662, "lat": 18.9694857, "lon": 72.8231067}, {"type": "node", "id": 631579580, "lat": 18.9633549, "lon": 72.8158261, "tags": {"internet_access": "no", "name": "Grant Road", "name:hi": "\u0917\u094d\u0930\u0945\u0928\u094d\u091f \u0930\u094b\u0921", "name:ml": "\u0d17\u0d4d\u0d30\u0d3e\u0d28\u0d4d\u0d31\u0d4d \u0d31\u0d4b\u0d21\u0d4d", "network": "IR", "operator": "WR", "public_transport": "station", "railway": "station", "ref": "GTR", "train": "yes", "wikidata": "Q5226483", "wikipedia": "en:Grant Road railway station"}}, {"type": "node", "id": 632337506, "lat": 19.0612128, "lon": 72.8975909, "tags": {"monorail": "yes", "name": "Chembur", "name:mr": "\u091a\u0947\u0902\u092c\u0942\u0930", "public_transport": "station", "railway": "station", "station": "monorail", "toilets:wheelchair": "yes", "wheelchair": "limited", "wikidata": "Q17050476", "wikipedia": "en:Chembur monorail station"}}, {"type": "node", "id": 632340589, "lat": 19.028972, "lon": 72.8775722, "tags": {"monorail": "yes", "name": "Bhakti Park", "name:mr": "\u092d\u0915\u094d\u0924\u0940 \u092a\u093e\u0930\u094d\u0915", "public_transport": "station", "railway": "station", "station": "monorail", "wikidata": "Q17065178", "wikipedia": "en:Bhakti Park monorail station"}}, {"type": "node", "id": 632342238, "lat": 19.0388641, "lon": 72.8739426, "tags": {"name": "Wadala Depot", "name:mr": "\u0935\u0921\u093e\u0933\u093e \u0921\u0947\u092a\u094b", "public_transport": "station", "railway": "station", "station": "monorail", "wikidata": "Q17100205", "wikipedia": "en:Wadala Depot monorail station"}}, {"type": "node", "id": 649015002, "lat": 19.1443609, "lon": 72.8024797, "tags": {"amenity": "ferry_terminal", "ferry": "yes", "public_transport": "station"}}, {"type": "node", "id": 700736519, "lat": 18.9567512, "lon": 72.8495204}, {"type": "node", "id": 700736522, "lat": 18.955904, "lon": 72.8493278}, {"type": "node", "id": 700736539, "lat": 18.9559519, "lon": 72.8490979}, {"type": "node", "id": 700736540, "lat": 18.9569402, "lon": 72.8495292, "tags": {"amenity": "bus_station", "bus": "yes", "name": "Bhaucha Dhakka / Ferry Wharf", "network": "BEST", "public_transport": "station"}}, {"type": "node", "id": 700736553, "lat": 18.9567991, "lon": 72.8492906}, {"type": "node", "id": 700886180, "lat": 18.9987796, "lon": 72.8544218, "tags": {"internet_access": "no", "name": "Sewri", "name:hi": "\u0936\u093f\u0935\u0921\u0940", "network": "IR", "operator": "CR", "public_transport": "station", "railway": "station", "ref": "SVE", "wikidata": "Q7458298", "wikipedia": "en:Sewri railway station"}}, {"type": "node", "id": 700886403, "lat": 18.9871866, "lon": 72.8438965, "tags": {"name": "Cotton Green", "name:hi": "\u0915\u0949\u091f\u0928 \u0917\u094d\u0930\u0940\u0928", "network": "IR", "operator": "CR", "public_transport": "station", "railway": "station", "ref": "CTGN", "wikidata": "Q5175691", "wikipedia": "en:Cotton Green railway station"}}, {"type": "node", "id": 814440777, "lat": 19.2323957, "lon": 72.8296357, "tags": {"amenity": "bus_station", "name": "Gorai Bus Depot"}}, {"type": "node", "id": 870449150, "lat": 18.9229191, "lon": 72.8345228, "tags": {"amenity": "ferry_terminal", "ferry": "yes", "name": "Gateway of India - Mandwa Rewas Ferry Terminal", "public_transport": "station"}}, {"type": "node", "id": 969935158, "lat": 19.2299554, "lon": 72.8576319, "tags": {"amenity": "bus_station", "name": "Borivali  RS (East)"}}, {"type": "node", "id": 984976822, "lat": 19.1637053, "lon": 72.8487734}, {"type": "node", "id": 984976823, "lat": 19.1633354, "lon": 72.8488404}, {"type": "node", "id": 984976824, "lat": 19.1632518, "lon": 72.8489397}, {"type": "node", "id": 984976826, "lat": 19.1632869, "lon": 72.8491988}, {"type": "node", "id": 984976827, "lat": 19.164022, "lon": 72.8491704}, {"type": "node", "id": 984976840, "lat": 19.1652863, "lon": 72.8501774}, {"type": "node", "id": 984976841, "lat": 19.1656593, "lon": 72.850772}, {"type": "node", "id": 985138250, "lat": 19.1756723, "lon": 72.8652926}, {"type": "node", "id": 1167626071, "lat": 19.1656385, "lon": 72.850144}, {"type": "node", "id": 1185566277, "lat": 19.1264193, "lon": 72.8728984}, {"type": "node", "id": 1185566278, "lat": 19.1260873, "lon": 72.8734772}, {"type": "node", "id": 1185566280, "lat": 19.1259702, "lon": 72.8724781}, {"type": "node", "id": 1185566281, "lat": 19.1255601, "lon": 72.8731051}, {"type": "node", "id": 1234802605, "lat": 18.9405871, "lon": 72.835721}, {"type": "node", "id": 1234802647, "lat": 18.940479, "lon": 72.8367005}, {"type": "node", "id": 1234802668, "lat": 18.9404032, "lon": 72.8359498}, {"type": "node", "id": 1234802678, "lat": 18.9403797, "lon": 72.8357434}, {"type": "node", "id": 1348867392, "lat": 19.1179082, "lon": 72.8657206, "tags": {"amenity": "bus_station", "bus": "yes", "name": "Marol Depot", "public_transport": "station"}}, {"type": "node", "id": 1359116333, "lat": 19.0428472, "lon": 72.9258722}, {"type": "node", "id": 1359116334, "lat": 19.0427772, "lon": 72.9269504}, {"type": "node", "id": 1359116336, "lat": 19.0424179, "lon": 72.9263782}, {"type": "node", "id": 1359116345, "lat": 19.0424526, "lon": 72.9258435}, {"type": "node", "id": 1366008911, "lat": 19.0645019, "lon": 72.8803229, "tags": {"amenity": "bus_station", "bus": "yes", "name": "Kurla East", "operator": "BEST", "public_transport": "station"}}, {"type": "node", "id": 1366794662, "lat": 19.033651, "lon": 72.9503637, "tags": {"amenity": "bus_station", "name": "Trombay"}}, {"type": "node", "id": 1369351423, "lat": 19.1899425, "lon": 73.0230752, "tags": {"internet_access": "no", "name": "Mumbra", "name:hi": "\u092e\u0941\u0902\u092c\u094d\u0930\u093e", "name:mr": "\u092e\u0941\u0902\u092c\u094d\u0930\u093e", "network": "IR", "operator": "CR", "public_transport": "station", "railway": "station", "ref": "MBQ", "wikidata": "Q6935372", "wikipedia": "en:Mumbra railway station"}}, {"type": "node", "id": 1369352793, "lat": 19.187695, "lon": 73.0583421, "tags": {"internet_access": "no", "name": "Dativali", "name:hi": "\u0926\u093e\u0924\u093f\u0935\u0932\u0940", "network": "IR", "operator": "CR", "public_transport": "station", "railway": "station", "ref": "DTVL", "train": "yes", "wikidata": "Q5227678"}}, {"type": "node", "id": 1392005679, "lat": 19.0629493, "lon": 72.8415372, "tags": {"amenity": "bus_station", "bus": "yes", "name": "Bandra Terminus", "public_transport": "station"}}, {"type": "node", "id": 1392005863, "lat": 19.0815072, "lon": 72.8421843}, {"type": "node", "id": 1392014189, "lat": 19.053932, "lon": 72.8401352}, {"type": "node", "id": 1392014190, "lat": 19.0541629, "lon": 72.8393336}, {"type": "node", "id": 1417929825, "lat": 19.0541727, "lon": 72.9157968, "tags": {"amenity": "bus_station", "bus": "yes", "name": "Govandi Bus Depot", "public_transport": "station"}}, {"type": "node", "id": 1451804415, "lat": 19.088415, "lon": 72.9178292}, {"type": "node", "id": 1451804417, "lat": 19.0872095, "lon": 72.9180014}, {"type": "node", "id": 1451804424, "lat": 19.087591, "lon": 72.9184535}, {"type": "node", "id": 1451804427, "lat": 19.0878911, "lon": 72.9175977}, {"type": "node", "id": 1451804433, "lat": 19.0874435, "lon": 72.9177969}, {"type": "node", "id": 1451804435, "lat": 19.0871689, "lon": 72.9180498}, {"type": "node", "id": 1451804436, "lat": 19.0881963, "lon": 72.9176354}, {"type": "node", "id": 1640287834, "lat": 19.0857961, "lon": 72.9078519}, {"type": "node", "id": 1640287837, "lat": 19.0859438, "lon": 72.9077585}, {"type": "node", "id": 1640287839, "lat": 19.0860621, "lon": 72.9079594}, {"type": "node", "id": 1640287841, "lat": 19.086159, "lon": 72.9084506}, {"type": "node", "id": 1640287843, "lat": 19.0861761, "lon": 72.9081528}, {"type": "node", "id": 1640287845, "lat": 19.0862966, "lon": 72.9083572}, {"type": "node", "id": 1640287856, "lat": 19.0875183, "lon": 72.9079132}, {"type": "node", "id": 1640287858, "lat": 19.0875228, "lon": 72.9081092}, {"type": "node", "id": 1640461450, "lat": 19.1436311, "lon": 72.8034266, "tags": {"amenity": "ferry_terminal", "ferry": "yes", "name": "Versova Jetty", "public_transport": "station"}}, {"type": "node", "id": 1640942358, "lat": 19.0147784, "lon": 72.8523974, "tags": {"amenity": "bus_station", "name": "Wadala Depot"}}, {"type": "node", "id": 1642954361, "lat": 19.0413367, "lon": 72.87817}, {"type": "node", "id": 1642954365, "lat": 19.0414646, "lon": 72.8792866}, {"type": "node", "id": 1642954369, "lat": 19.0422775, "lon": 72.8780496}, {"type": "node", "id": 1643263977, "lat": 19.0277168, "lon": 72.8914397, "tags": {"monorail": "yes", "name": "Mysore Colony", "name:mr": "\u092e\u0948\u0938\u0941\u0930 \u0915\u0949\u0932\u0928\u0940", "public_transport": "station", "railway": "station", "station": "monorail", "wikidata": "Q17076201", "wikipedia": "en:Mysore Colony monorail station"}}, {"type": "node", "id": 1643351700, "lat": 19.1756977, "lon": 72.9464875, "tags": {"amenity": "bus_station", "name": "Mulund Depot"}}, {"type": "node", "id": 1643351703, "lat": 19.1722904, "lon": 72.9564695, "tags": {"internet_access": "wlan", "name": "Mulund", "name:hi": "\u092e\u0941\u0932\u0941\u0902\u0921", "name:ml": "\u0d2e\u0d41\u0d33\u0d41\u0d23\u0d4d\u0d1f\u0d4d", "network": "IR", "operator": "CR", "public_transport": "station", "railway": "station", "ref": "MLND", "wikidata": "Q6935218", "wikipedia": "en:Mulund railway station"}}, {"type": "node", "id": 1643401333, "lat": 19.2453131, "lon": 72.9981077, "tags": {"amenity": "ferry_terminal", "ferry": "yes", "public_transport": "station"}}, {"type": "node", "id": 1643401357, "lat": 19.2463101, "lon": 73.0036532, "tags": {"amenity": "ferry_terminal", "ferry": "yes", "public_transport": "station"}}, {"type": "node", "id": 1643413995, "lat": 19.2288985, "lon": 72.9659509}, {"type": "node", "id": 1644081912, "lat": 19.1105876, "lon": 72.9287106}, {"type": "node", "id": 1644086506, "lat": 19.0875403, "lon": 72.9081633, "tags": {"amenity": "bus_station", "name": "Ghatkopar"}}, {"type": "node", "id": 1646037468, "lat": 19.2201844, "lon": 72.8296672}, {"type": "node", "id": 1646037469, "lat": 19.2202314, "lon": 72.8288839}, {"type": "node", "id": 1646037470, "lat": 19.2206675, "lon": 72.8296898}, {"type": "node", "id": 1646037471, "lat": 19.2206846, "lon": 72.8288975}, {"type": "node", "id": 1646070346, "lat": 19.0623259, "lon": 72.997868}, {"type": "node", "id": 1646070347, "lat": 19.0628012, "lon": 72.9986425}, {"type": "node", "id": 1646070348, "lat": 19.0628531, "lon": 72.9975318}, {"type": "node", "id": 1646070350, "lat": 19.0628078, "lon": 72.9974843}, {"type": "node", "id": 1646070351, "lat": 19.0629979, "lon": 72.9974291}, {"type": "node", "id": 1646070353, "lat": 19.062683, "lon": 72.9987444}, {"type": "node", "id": 1646070355, "lat": 19.0633187, "lon": 73.0000601}, {"type": "node", "id": 1646070358, "lat": 19.063575, "lon": 72.9983739}, {"type": "node", "id": 1646070361, "lat": 19.0638695, "lon": 72.9990526}, {"type": "node", "id": 1646070365, "lat": 19.0638975, "lon": 72.999876}, {"type": "node", "id": 1646070367, "lat": 19.0639431, "lon": 73.0000948}, {"type": "node", "id": 1646070373, "lat": 19.0641534, "lon": 73.0000355}, {"type": "node", "id": 1646085879, "lat": 19.0654814, "lon": 73.008754}, {"type": "node", "id": 1646085899, "lat": 19.0659103, "lon": 73.0105914}, {"type": "node", "id": 1646085908, "lat": 19.0660699, "lon": 73.0085828}, {"type": "node", "id": 1646085913, "lat": 19.06649, "lon": 73.0104699}, {"type": "node", "id": 1646644305, "lat": 18.997571, "lon": 72.8522557}, {"type": "node", "id": 1646644306, "lat": 18.9975569, "lon": 72.8527221}, {"type": "node", "id": 1646644308, "lat": 18.9980865, "lon": 72.8528007}, {"type": "node", "id": 1646644309, "lat": 18.9981334, "lon": 72.852219}, {"type": "node", "id": 1646746572, "lat": 19.1161896, "lon": 72.8288911}, {"type": "node", "id": 1646746579, "lat": 19.1161768, "lon": 72.8294524}, {"type": "node", "id": 1646746583, "lat": 19.1165712, "lon": 72.8296905}, {"type": "node", "id": 1646746584, "lat": 19.1166527, "lon": 72.8288964}, {"type": "node", "id": 1646746587, "lat": 19.1166845, "lon": 72.8296726}, {"type": "node", "id": 1646859014, "lat": 19.1828221, "lon": 72.8199124}, {"type": "node", "id": 1646859016, "lat": 19.1831955, "lon": 72.8200002}, {"type": "node", "id": 1646859017, "lat": 19.1833511, "lon": 72.8191821}, {"type": "node", "id": 1647048870, "lat": 19.1866263, "lon": 72.9758688}, {"type": "node", "id": 1647048872, "lat": 19.1867132, "lon": 72.9762256}, {"type": "node", "id": 1647048873, "lat": 19.1867735, "lon": 72.9761036}, {"type": "node", "id": 1647048874, "lat": 19.1867752, "lon": 72.9762256}, {"type": "node", "id": 1647048876, "lat": 19.1867894, "lon": 72.9760059}, {"type": "node", "id": 1647048877, "lat": 19.186793, "lon": 72.975097}, {"type": "node", "id": 1647048882, "lat": 19.1868355, "lon": 72.9752416}, {"type": "node", "id": 1647048883, "lat": 19.1868391, "lon": 72.9753674}, {"type": "node", "id": 1647048893, "lat": 19.1868669, "lon": 72.9750734}, {"type": "node", "id": 1647048896, "lat": 19.18691, "lon": 72.9752134}, {"type": "node", "id": 1647048900, "lat": 19.1869969, "lon": 72.9753073}, {"type": "node", "id": 1647048901, "lat": 19.1870094, "lon": 72.9755439}, {"type": "node", "id": 1647048902, "lat": 19.1870395, "lon": 72.9755026}, {"type": "node", "id": 1647048904, "lat": 19.1871211, "lon": 72.9754857}, {"type": "node", "id": 1647048906, "lat": 19.1872275, "lon": 72.9754951}, {"type": "node", "id": 1647048908, "lat": 19.1872506, "lon": 72.9754557}, {"type": "node", "id": 1647048910, "lat": 19.1875374, "lon": 72.9775747}, {"type": "node", "id": 1647048911, "lat": 19.1875789, "lon": 72.977117}, {"type": "node", "id": 1647086072, "lat": 19.1866451, "lon": 72.9759461}, {"type": "node", "id": 1647086130, "lat": 19.1868287, "lon": 72.975392}, {"type": "node", "id": 1648168298, "lat": 19.1184465, "lon": 72.8801492}, {"type": "node", "id": 1648168303, "lat": 19.1175453, "lon": 72.8800013}, {"type": "node", "id": 1648168305, "lat": 19.1176515, "lon": 72.8794495}, {"type": "node", "id": 1648168306, "lat": 19.1185438, "lon": 72.8796457}, {"type": "node", "id": 1648175825, "lat": 19.2068605, "lon": 72.8697453, "tags": {"amenity": "bus_station", "name": "Samata Nagar"}}, {"type": "node", "id": 1648195662, "lat": 19.0975373, "lon": 72.8652877, "tags": {"amenity": "bus_station", "bus": "yes", "name": "Sahar Cargo Complex", "public_transport": "station"}}, {"type": "node", "id": 1650186261, "lat": 19.2016957, "lon": 72.8537297, "tags": {"amenity": "bus_station", "name": "Kandivali (E)"}}, {"type": "node", "id": 1650694464, "lat": 19.0316822, "lon": 72.8577375, "tags": {"internet_access": "no", "name": "King's Circle", "name:hi": "\u0915\u093f\u0902\u0917\u094d\u091c \u0938\u0930\u094d\u0915\u0932", "name:mr": "\u0915\u093f\u0902\u0917\u094d\u091c \u0938\u0930\u094d\u0915\u0932", "network": "IR", "operator": "CR", "public_transport": "station", "railway": "station", "ref": "KCE", "wikidata": "Q6410874", "wikipedia": "en:King's Circle railway station"}}, {"type": "node", "id": 1651801044, "lat": 19.1389362, "lon": 72.8647596, "tags": {"amenity": "bus_station", "bus": "yes", "name": "Majas Depot", "public_transport": "station"}}, {"type": "node", "id": 1855429909, "lat": 19.1955083, "lon": 72.9707797}, {"type": "node", "id": 1984172856, "lat": 18.9077106, "lon": 72.8082734, "tags": {"addr:postcode": "400005", "addr:street": "Doctor Homi Bhaba Road", "amenity": "bus_station", "bus": "yes", "name:en": "Navy Nagar Bus Depot", "public_transport": "station", "website": "https://www.bestundertaking.com/"}}, {"type": "node", "id": 2074153516, "lat": 19.1310871, "lon": 72.8199601, "tags": {"addr:housename": "7 Bungalows Bus Depot", "addr:postcode": "400061", "amenity": "bus_station", "building": "yes", "bus": "yes", "name": "7 Bungalows Bus Depot", "public_transport": "station"}}, {"type": "node", "id": 2086912563, "lat": 19.1306149, "lon": 72.8204498}, {"type": "node", "id": 2086912564, "lat": 19.1307077, "lon": 72.8194611}, {"type": "node", "id": 2086912565, "lat": 19.1311595, "lon": 72.8194024}, {"type": "node", "id": 2086912566, "lat": 19.1312884, "lon": 72.8204366}, {"type": "node", "id": 2086912570, "lat": 19.1313275, "lon": 72.8193928}, {"type": "node", "id": 2086912573, "lat": 19.1314319, "lon": 72.8197195}, {"type": "node", "id": 2086912574, "lat": 19.1314455, "lon": 72.8194985}, {"type": "node", "id": 2127352649, "lat": 18.9723961, "lon": 72.9308682, "tags": {"amenity": "ferry_terminal", "ferry": "yes", "name": "Elephanta Caves Jetty", "public_transport": "station"}}, {"type": "node", "id": 2130331525, "lat": 19.1394133, "lon": 72.8085761}, {"type": "node", "id": 2130331619, "lat": 19.1389721, "lon": 72.8087306}, {"type": "node", "id": 2130342932, "lat": 19.1314039, "lon": 72.8194422}, {"type": "node", "id": 2130342985, "lat": 19.1314503, "lon": 72.8196139}, {"type": "node", "id": 2131111970, "lat": 19.116561, "lon": 72.8288953}, {"type": "node", "id": 2134892754, "lat": 19.0516883, "lon": 72.8685355}, {"type": "node", "id": 2134892762, "lat": 19.0516823, "lon": 72.8688797}, {"type": "node", "id": 2163490646, "lat": 18.9389479, "lon": 72.8357581}, {"type": "node", "id": 2163490649, "lat": 18.938994, "lon": 72.8356426}, {"type": "node", "id": 2166865878, "lat": 18.9341053, "lon": 72.8324982, "tags": {"name": "Hutatma Chowk/Siddharth College", "public_transport": "station", "ref": "01091"}}, {"type": "node", "id": 2166865879, "lat": 18.9342003, "lon": 72.8325717, "tags": {"name": "Hutatma Chowk/Siddharth College", "public_transport": "station", "ref": "01090"}}, {"type": "node", "id": 2175054093, "lat": 18.9405984, "lon": 72.8366858}, {"type": "node", "id": 2175054154, "lat": 18.942298, "lon": 72.8347866}, {"type": "node", "id": 2175054164, "lat": 18.9425657, "lon": 72.8355178}, {"type": "node", "id": 2175054181, "lat": 18.9425393, "lon": 72.8352041}, {"type": "node", "id": 2175054183, "lat": 18.9425475, "lon": 72.8353091}, {"type": "node", "id": 2175054185, "lat": 18.9425558, "lon": 72.83541}, {"type": "node", "id": 2175658359, "lat": 18.9404258, "lon": 72.835003}, {"type": "node", "id": 2175658360, "lat": 18.9404975, "lon": 72.8357305}, {"type": "node", "id": 2176830128, "lat": 18.942537, "lon": 72.8351734}, {"type": "node", "id": 2176850608, "lat": 18.9504437, "lon": 72.8382345}, {"type": "node", "id": 2176850610, "lat": 18.9504462, "lon": 72.8380419}, {"type": "node", "id": 2176850637, "lat": 18.9510971, "lon": 72.838338}, {"type": "node", "id": 2176850641, "lat": 18.9518501, "lon": 72.8380232}, {"type": "node", "id": 2176850644, "lat": 18.952414, "lon": 72.8383043}, {"type": "node", "id": 2176850666, "lat": 18.9537055, "lon": 72.8382712}, {"type": "node", "id": 2176850668, "lat": 18.9538201, "lon": 72.8379747}, {"type": "node", "id": 2176850670, "lat": 18.9538241, "lon": 72.8382618}, {"type": "node", "id": 2177429579, "lat": 18.9256763, "lon": 72.832384}, {"type": "node", "id": 2177429580, "lat": 18.9256855, "lon": 72.8324989}, {"type": "node", "id": 2177429582, "lat": 18.9257003, "lon": 72.8322323}, {"type": "node", "id": 2177429584, "lat": 18.9257132, "lon": 72.8327363}, {"type": "node", "id": 2177429587, "lat": 18.9257776, "lon": 72.8320805}, {"type": "node", "id": 2177429592, "lat": 18.9259414, "lon": 72.8318742}, {"type": "node", "id": 2177554643, "lat": 18.9376489, "lon": 72.8343146, "tags": {"name": "Khadi Bhandar", "public_transport": "station", "ref": "01114"}}, {"type": "node", "id": 2178030645, "lat": 18.968905, "lon": 72.8227803}, {"type": "node", "id": 2178030646, "lat": 18.9690065, "lon": 72.8210045}, {"type": "node", "id": 2178030653, "lat": 18.9693737, "lon": 72.823037}, {"type": "node", "id": 2178163576, "lat": 18.9609243, "lon": 72.8393719, "tags": {"internet_access": "no", "name": "Sandhurst Road", "name:hi": "\u0938\u0901\u0921\u0939\u0930\u094d\u0938\u094d\u091f \u0930\u094b\u0921", "name:ml": "\u0d38\u0d3e\u0d7b\u0d21\u0d4d\u0d39\u0d7c\u0d38\u0d4d\u0d31\u0d4d\u0d31\u0d4d \u0d31\u0d4b\u0d21\u0d4d", "network": "IR", "operator": "CR", "public_transport": "station", "railway": "station", "ref": "SNRD", "wikidata": "Q5226365", "wikipedia": "en:Sandhurst Road"}}, {"type": "node", "id": 2244961757, "lat": 19.092745, "lon": 72.9011807}, {"type": "node", "id": 2250251324, "lat": 19.1872355, "lon": 72.9754814}, {"type": "node", "id": 2294433428, "lat": 18.9994063, "lon": 72.9056876, "tags": {"amenity": "bus_station"}}, {"type": "node", "id": 2294457669, "lat": 18.9640708, "lon": 72.8212546}, {"type": "node", "id": 2294457670, "lat": 18.9641, "lon": 72.8209077}, {"type": "node", "id": 2294457671, "lat": 18.964164, "lon": 72.8207755}, {"type": "node", "id": 2294457672, "lat": 18.964479, "lon": 72.8204506}, {"type": "node", "id": 2294457673, "lat": 18.9645683, "lon": 72.8204511}, {"type": "node", "id": 2294457674, "lat": 18.9646268, "lon": 72.8204941}, {"type": "node", "id": 2294457676, "lat": 18.9649746, "lon": 72.8215183}, {"type": "node", "id": 2319149020, "lat": 19.0655957, "lon": 72.9293862}, {"type": "node", "id": 2319149022, "lat": 19.0661432, "lon": 72.9296437}, {"type": "node", "id": 2319149024, "lat": 19.0664779, "lon": 72.9289249}, {"type": "node", "id": 2319215780, "lat": 19.0452589, "lon": 72.8935268, "tags": {"amenity": "bus_station", "name": "Chembur Colony Bus Depot", "operator": "BEST"}}, {"type": "node", "id": 2392363986, "lat": 19.1077415, "lon": 72.8264768}, {"type": "node", "id": 2392363987, "lat": 19.1077319, "lon": 72.8267008}, {"type": "node", "id": 2435514152, "lat": 19.0538265, "lon": 72.8393874}, {"type": "node", "id": 2439359850, "lat": 19.0796507, "lon": 72.896519}, {"type": "node", "id": 2439359851, "lat": 19.0797855, "lon": 72.8967239}, {"type": "node", "id": 2439359855, "lat": 19.0803191, "lon": 72.8959155}, {"type": "node", "id": 2439495324, "lat": 19.0169158, "lon": 72.8200827, "tags": {"amenity": "bus_station", "bus": "yes", "name": "Worli Village", "name:mr": "\u0935\u0930\u0933\u0940 \u0917\u093e\u0935", "public_transport": "station"}}, {"type": "node", "id": 2440235099, "lat": 19.1829373, "lon": 72.9544384}, {"type": "node", "id": 2440235100, "lat": 19.1830451, "lon": 72.9539889}, {"type": "node", "id": 2440235103, "lat": 19.1831027, "lon": 72.9536848}, {"type": "node", "id": 2440235104, "lat": 19.1831946, "lon": 72.9536545}, {"type": "node", "id": 2440235105, "lat": 19.1831885, "lon": 72.9545194}, {"type": "node", "id": 2440235107, "lat": 19.1833414, "lon": 72.9536809}, {"type": "node", "id": 2440235111, "lat": 19.1834261, "lon": 72.9537966}, {"type": "node", "id": 2440266920, "lat": 19.1879291, "lon": 72.9797476, "tags": {"addr:street": "Chendani Bunder Road", "amenity": "bus_station", "bus": "yes", "highway": "bus_stop", "name:en": "Cidco Bus Depot (Thane)", "public_transport": "station"}}, {"type": "node", "id": 2440630039, "lat": 19.0747127, "lon": 72.9966161}, {"type": "node", "id": 2440630043, "lat": 19.0747612, "lon": 72.9976764}, {"type": "node", "id": 2440630057, "lat": 19.0757159, "lon": 72.9977605}, {"type": "node", "id": 2440630061, "lat": 19.0757985, "lon": 72.9967119}, {"type": "node", "id": 2442705655, "lat": 19.0426727, "lon": 72.879116}, {"type": "node", "id": 2443092123, "lat": 18.9674767, "lon": 72.8445477, "tags": {"internet_access": "no", "name": "Dockyard Road", "name:hi": "\u0921\u0949\u0915\u092f\u093e\u0930\u094d\u0921 \u0930\u094b\u0921", "network": "IR", "operator": "CR", "public_transport": "station", "railway": "station", "ref": "DKRD", "wikidata": "Q5121871", "wikipedia": "en:Dockyard Road railway station"}}, {"type": "node", "id": 2443096202, "lat": 18.9775506, "lon": 72.8441011, "tags": {"internet_access": "no", "name": "Reay Road", "name:hi": "\u0930\u0947 \u0930\u094b\u0921", "network": "IR", "operator": "CR", "public_transport": "station", "railway": "station", "ref": "RRD", "wikidata": "Q5121780", "wikipedia": "en:Reay Road railway station"}}, {"type": "node", "id": 2444001671, "lat": 18.9945514, "lon": 72.8328707, "tags": {"internet_access": "no", "name": "Currey Road", "name:ml": "\u0d15\u0d31\u0d3f \u0d31\u0d4b\u0d21\u0d4d", "name:mr": "\u0915\u0930\u0940 \u0930\u094b\u0921", "network": "IR", "operator": "WR", "public_transport": "station", "railway": "station", "ref": "CRD", "wikidata": "Q5121321", "wikipedia": "en:Currey Road railway station"}}, {"type": "node", "id": 2446139765, "lat": 19.0149899, "lon": 72.8457617}, {"type": "node", "id": 2446139770, "lat": 19.0150858, "lon": 72.845618}, {"type": "node", "id": 2446139782, "lat": 19.016177, "lon": 72.8466479}, {"type": "node", "id": 2446139789, "lat": 19.0162729, "lon": 72.8465042}, {"type": "node", "id": 2449757414, "lat": 19.0474972, "lon": 72.8269878}, {"type": "node", "id": 2449757418, "lat": 19.0478369, "lon": 72.826277}, {"type": "node", "id": 2449757420, "lat": 19.0481586, "lon": 72.8271291}, {"type": "node", "id": 2449757421, "lat": 19.0483935, "lon": 72.8264524}, {"type": "node", "id": 2454571178, "lat": 19.0626319, "lon": 72.9011399, "tags": {"internet_access": "wlan", "name": "Chembur", "network": "IR", "operator": "CR", "public_transport": "station", "railway": "station", "ref": "CMBR", "wikidata": "Q5090350", "wikipedia": "en:Chembur railway station"}}, {"type": "node", "id": 2567639531, "lat": 19.0427827, "lon": 72.9268663, "tags": {"access": "yes", "barrier": "gate", "name": "Anushakti Nagar Bus Depot Entry Gate"}}, {"type": "node", "id": 2567639532, "lat": 19.0423826, "lon": 72.9269218}, {"type": "node", "id": 2567639533, "lat": 19.0428383, "lon": 72.9260071, "tags": {"access": "yes", "barrier": "gate", "name": "Anushakti Nagar Bus Depot Exit Gate"}}, {"type": "node", "id": 2568668651, "lat": 19.0427794, "lon": 72.9269177}, {"type": "node", "id": 2568668652, "lat": 19.0427866, "lon": 72.9268062}, {"type": "node", "id": 2568668653, "lat": 19.0428322, "lon": 72.9261046}, {"type": "node", "id": 2568668654, "lat": 19.0428423, "lon": 72.9259482}, {"type": "node", "id": 2623469264, "lat": 19.081148, "lon": 72.8425097}, {"type": "node", "id": 2629682524, "lat": 18.9331079, "lon": 72.8285954, "tags": {"amenity": "bus_station", "bus": "yes", "name": "Churchgate", "public_transport": "station"}}, {"type": "node", "id": 2629720841, "lat": 19.0485178, "lon": 72.9323356, "tags": {"internet_access": "no", "name": "Mankhurd", "network": "IR", "operator": "CR", "railway": "station", "ref": "MNKD", "wikidata": "Q6750519", "wikipedia": "en:Mankhurd railway station"}}, {"type": "node", "id": 2629791007, "lat": 19.1543618, "lon": 72.9464735, "tags": {"internet_access": "no", "name": "Nahur", "name:hi": "\u0928\u093e\u0939\u0941\u0930", "name:ml": "\u0d28\u0d3e\u0d39\u0d42\u0d7c", "network": "IR", "operator": "CR", "public_transport": "station", "railway": "station", "ref": "NHU", "wikidata": "Q6959458", "wikipedia": "en:Nahur railway station"}}, {"type": "node", "id": 2630074999, "lat": 19.0646508, "lon": 72.8416964, "tags": {"internet_access": "no", "name": "Bandra Terminus", "name:hi": "\u092c\u093e\u0902\u0926\u094d\u0930\u093e \u091f\u0930\u094d\u092e\u093f\u0928\u0938", "name:ml": "\u0d2c\u0d3e\u0d28\u0d4d\u0d26\u0d4d\u0d30 \u0d1f\u0d46\u0d7c\u0d2e\u0d3f\u0d28\u0d38\u0d4d", "network": "IR", "operator": "WR", "public_transport": "station", "railway": "station", "ref": "BDTS", "train": "yes", "wikidata": "Q4520709", "wikipedia": "en:Bandra Terminus railway station"}}, {"type": "node", "id": 2630075000, "lat": 19.0549792, "lon": 72.8402203, "tags": {"addr:city": "Bandra, Mumbai", "internet_access": "wlan", "name": "Bandra", "name:hi": "\u092c\u093e\u0902\u0926\u094d\u0930\u093e", "name:ml": "\u0d2c\u0d3e\u0d28\u0d4d\u0d26\u0d4d\u0d30", "name:mr": "\u0935\u093e\u0902\u0926\u094d\u0930\u0947", "network": "IR", "operator": "WR", "public_transport": "station", "railway": "station", "ref": "BA", "ref:suburban": "B", "start_date": "1869", "train": "yes", "wheelchair": "no", "wikidata": "Q4854695", "wikipedia": "en:Bandra railway station"}}, {"type": "node", "id": 2630075001, "lat": 18.9766219, "lon": 72.8327936, "tags": {"internet_access": "no", "name": "Byculla", "name:hi": "\u092d\u093e\u092f\u0916\u0932\u093e", "name:ml": "\u0d2c\u0d48\u0d15\u0d41\u0d32\u0d4d\u0d32", "network": "IR", "operator": "CR", "public_transport": "station", "railway": "station", "ref": "BY", "wikidata": "Q5003980", "wikipedia": "en:Byculla railway station"}}, {"type": "node", "id": 2630075002, "lat": 18.9518437, "lon": 72.8182401, "tags": {"IR:zone": "WR:CCG", "ele": "9", "internet_access": "no", "name": "Charni Road", "name:hi": "\u091a\u0930\u094d\u0928\u0940 \u0930\u094b\u0921", "name:ml": "\u0d1a\u0d7c\u0d23\u0d3f \u0d31\u0d4b\u0d21\u0d4d", "name:mr": "\u091a\u0930\u094d\u0928\u0940 \u0930\u094b\u0921", "network": "IR", "operator": "WR", "public_transport": "station", "railway": "station", "ref": "CYR", "start_date": "1867", "train": "yes", "wikidata": "Q5121186", "wikipedia": "en:Charni Road railway station"}}, {"type": "node", "id": 2630075003, "lat": 19.0177342, "lon": 72.8437523, "tags": {"internet_access": "wlan", "name": "Dadar", "name:hi": "\u0926\u093e\u0926\u0930", "name:ml": "\u0d26\u0d3e\u0d26\u0d7c", "name:mr": "\u0926\u093e\u0926\u0930", "network": "IR", "operator": "CR", "public_transport": "station", "railway": "station", "ref": "DR", "start_date": "1868", "wikidata": "Q5207922", "wikipedia": "en:Dadar railway station"}}, {"type": "node", "id": 2630075004, "lat": 19.019282, "lon": 72.8428757, "tags": {"internet_access": "no", "name": "Dadar", "name:hi": "\u0926\u093e\u0926\u0930", "name:ml": "\u0d26\u0d3e\u0d26\u0d7c", "network": "IR", "operator": "WR", "public_transport": "station", "railway": "station", "ref": "DDR", "start_date": "1868", "train": "yes", "wikidata": "Q5207922", "wikipedia": "en:Dadar railway station"}}, {"type": "node", "id": 2630075005, "lat": 19.0406634, "lon": 72.8466038, "tags": {"IR:zone": "WR:CCG", "internet_access": "no", "name": "Mahim Junction", "name:hi": "\u092e\u093e\u0939\u093f\u092e \u091c\u0902\u0915\u094d\u0936\u0928", "name:ml": "\u0d2e\u0d3e\u0d39\u0d3f\u0d02 \u0d1c\u0d02\u0d17\u0d4d\u0d37\u0d7b", "name:mr": "\u092e\u093e\u0939\u093f\u092e \u0930\u0947\u0932\u094d\u0935\u0947 \u0938\u094d\u0925\u093e\u0928\u0915", "network": "IR", "operator": "WR", "public_transport": "station", "railway": "station", "ref": "MM", "wikidata": "Q6734003", "wikipedia": "en:Mahim Junction railway station"}}, {"type": "node", "id": 2630075006, "lat": 18.945764, "lon": 72.8237193, "tags": {"IR:zone": "WR:CCG", "ele": "7", "internet_access": "no", "name": "Marine Lines", "name:hi": "\u092e\u0930\u0940\u0928 \u0932\u093e\u0907\u0928\u094d\u0938", "name:ml": "\u0d2e\u0d31\u0d48\u0d7b \u0d32\u0d48\u0d7b\u0d38\u0d4d", "name:mr": "\u092e\u0930\u0940\u0928 \u0932\u093e\u0907\u0928\u094d\u0938", "network": "IR", "operator": "WR", "public_transport": "station", "railway": "station", "ref": "MEL", "start_date": "1867", "train": "yes", "wikidata": "Q6764160", "wikipedia": "en:Marine Lines railway station"}}, {"type": "node", "id": 2630075008, "lat": 18.9695855, "lon": 72.8193152, "tags": {"IR:zone": "WR:CCG", "ele": "6.62", "historic:name": "Bombay Central Terminal", "historic:ref": "BCT", "internet_access": "yes", "name": "Mumbai Central", "name:hi": "\u092e\u0941\u092e\u094d\u092c\u0908 \u0938\u0947\u0928\u094d\u091f\u094d\u0930\u0932", "name:ml": "\u0d2e\u0d41\u0d02\u0d2c\u0d48 \u0d38\u0d46\u0d7b\u0d1f\u0d4d\u0d30\u0d7d", "name:mr": "\u092e\u0941\u0902\u092c\u0908 \u0938\u0947\u0902\u091f\u094d\u0930\u0932", "network": "IR", "old_name": "Bellasis Road", "old_ref": "BCT", "operator": "WR", "public_transport": "station", "railway": "station", "ref": "MMCT", "start_date": "1930-12-18", "station": "terminal", "train": "yes", "wikidata": "Q3539796", "wikipedia": "en:Mumbai Central railway station"}}, {"type": "node", "id": 2630075010, "lat": 19.0999098, "lon": 72.8440038, "tags": {"ele": "10", "internet_access": "no", "name": "Vile Parle", "name:hi": "\u0935\u093f\u0932\u0947 \u092a\u093e\u0930\u094d\u0932\u0947", "name:mr": "\u0935\u093f\u0932\u0947 \u092a\u093e\u0930\u094d\u0932\u0947", "network": "IR", "operator": "WR", "public_transport": "station", "railway": "station", "ref": "VLP", "train": "yes", "wikidata": "Q7930143", "wikipedia": "en:Vile Parle railway station"}}, {"type": "node", "id": 2637273689, "lat": 18.9708739, "lon": 72.8213042}, {"type": "node", "id": 2637273692, "lat": 18.9700566, "lon": 72.8210254}, {"type": "node", "id": 2637273695, "lat": 18.9708974, "lon": 72.8212271}, {"type": "node", "id": 2637273699, "lat": 18.9700802, "lon": 72.8209481}, {"type": "node", "id": 2647295137, "lat": 19.0352839, "lon": 72.8955553, "tags": {"monorail": "yes", "name": "Bharat Petroleum", "name:mr": "\u092d\u093e\u0930\u0924 \u092a\u0947\u091f\u094d\u0930\u094b\u0932\u093f\u092f\u092e", "public_transport": "station", "railway": "station", "station": "monorail", "wikidata": "Q15733864", "wikipedia": "en:Bharat Petroleum monorail station"}}, {"type": "node", "id": 2647295140, "lat": 19.0526419, "lon": 72.8942789, "tags": {"monorail": "yes", "name": "VNP & RC Marg Junction", "name:mr": "\u0935\u094d\u0939\u093f \u090f\u0928 \u092a\u0940 \u0906\u0923\u093f \u0906\u0930 \u0938\u0940 \u092e\u093e\u0930\u094d\u0917 \u091c\u0902\u0915\u094d\u0936\u0928", "public_transport": "station", "railway": "station", "station": "monorail", "wikidata": "Q18357722", "wikipedia": "en:VNP and RC Marg Junction monorail station"}}, {"type": "node", "id": 2663219988, "lat": 19.0517703, "lon": 72.8690974, "tags": {"internet_access": "no", "name": "Chunabhatti", "name:hi": "\u091a\u0941\u0928\u093e\u092d\u091f\u094d\u091f\u0940", "network": "IR", "operator": "CR", "public_transport": "station", "railway": "station", "ref": "CHF", "train": "yes", "wikidata": "Q5116212"}}, {"type": "node", "id": 2663263713, "lat": 19.0465213, "lon": 72.8632834, "tags": {"internet_access": "no", "name": "Sion", "name:hi": "\u0938\u093e\u092f\u0928", "name:ml": "\u0d38\u0d3f\u0d2f\u0d4b\u0d7a", "network": "IR", "operator": "CR", "public_transport": "station", "railway": "station", "ref": "SIN", "wikidata": "Q7525368", "wikipedia": "en:Sion railway station"}}, {"type": "node", "id": 2663447640, "lat": 19.0652797, "lon": 72.8793805, "tags": {"internet_access": "wlan", "name": "Kurla", "name:hi": "\u0915\u0941\u0930\u094d\u0932\u093e", "name:ml": "\u0d15\u0d41\u0d7c\u0d33", "network": "IR", "office": "coworking", "operator": "CR", "public_transport": "station", "ref": "CLA", "wikidata": "Q6446148", "wikipedia": "en:Kurla railway station"}}, {"type": "node", "id": 2663548265, "lat": 18.9097763, "lon": 72.8173003}, {"type": "node", "id": 2663548266, "lat": 18.9097567, "lon": 72.8166958}, {"type": "node", "id": 2663548283, "lat": 18.9100498, "lon": 72.8169562}, {"type": "node", "id": 2909184654, "lat": 19.1280379, "lon": 72.8307976}, {"type": "node", "id": 2909184657, "lat": 19.1282623, "lon": 72.830854}, {"type": "node", "id": 2909184658, "lat": 19.1283218, "lon": 72.8295327}, {"type": "node", "id": 2909184661, "lat": 19.1285462, "lon": 72.8295892}, {"type": "node", "id": 2909186505, "lat": 19.1299887, "lon": 72.8220004}, {"type": "node", "id": 2909186519, "lat": 19.130232, "lon": 72.8220596}, {"type": "node", "id": 2909186522, "lat": 19.1302721, "lon": 72.8206954}, {"type": "node", "id": 2909186532, "lat": 19.1305154, "lon": 72.8207546}, {"type": "node", "id": 2921502996, "lat": 19.105091, "lon": 73.0033253}, {"type": "node", "id": 2921502997, "lat": 19.1053574, "lon": 73.0043085}, {"type": "node", "id": 2921502998, "lat": 19.1048607, "lon": 73.0044593}, {"type": "node", "id": 2921502999, "lat": 19.1045943, "lon": 73.003476}, {"type": "node", "id": 2986295912, "lat": 19.0438776, "lon": 72.893456, "tags": {"monorail": "yes", "name": "Fertilizer Township", "name:mr": "\u092b\u0930\u094d\u091f\u0940\u0932\u093e\u0908\u091d\u0930 \u091f\u093e\u090a\u0928\u0936\u093f\u092a", "public_transport": "station", "railway": "station", "station": "monorail", "wikidata": "Q15733865"}}, {"type": "node", "id": 3175794781, "lat": 19.0875194, "lon": 72.9079638}, {"type": "node", "id": 3175794782, "lat": 19.0875205, "lon": 72.9080109}, {"type": "node", "id": 3175794783, "lat": 19.0875216, "lon": 72.9080577}, {"type": "node", "id": 3175794802, "lat": 19.092078, "lon": 72.9025679}, {"type": "node", "id": 3175794803, "lat": 19.0921109, "lon": 72.902589}, {"type": "node", "id": 3175794805, "lat": 19.0921745, "lon": 72.9026296}, {"type": "node", "id": 3175794806, "lat": 19.0922086, "lon": 72.9026515}, {"type": "node", "id": 3175794807, "lat": 19.0922378, "lon": 72.9020393}, {"type": "node", "id": 3175794808, "lat": 19.0923337, "lon": 72.9018715}, {"type": "node", "id": 3175794809, "lat": 19.092342, "lon": 72.9021059}, {"type": "node", "id": 3175794810, "lat": 19.0924037, "lon": 72.9019162}, {"type": "node", "id": 3175794811, "lat": 19.0924733, "lon": 72.902188}, {"type": "node", "id": 3175794812, "lat": 19.0925876, "lon": 72.9022611}, {"type": "node", "id": 3175794813, "lat": 19.0925981, "lon": 72.9013909}, {"type": "node", "id": 3175794814, "lat": 19.0926176, "lon": 72.9020625}, {"type": "node", "id": 3175794815, "lat": 19.0926787, "lon": 72.9021016}, {"type": "node", "id": 3175794816, "lat": 19.0926755, "lon": 72.9014404}, {"type": "node", "id": 3175794817, "lat": 19.0927254, "lon": 72.9011681}, {"type": "node", "id": 3175794818, "lat": 19.0928369, "lon": 72.9012395}, {"type": "node", "id": 3175794819, "lat": 19.0928698, "lon": 72.9012605}, {"type": "node", "id": 3175794820, "lat": 19.0928889, "lon": 72.9015878}, {"type": "node", "id": 3175794823, "lat": 19.0929334, "lon": 72.9013012}, {"type": "node", "id": 3175794824, "lat": 19.0929507, "lon": 72.9016273}, {"type": "node", "id": 3175794826, "lat": 19.0929675, "lon": 72.901323}, {"type": "node", "id": 3175794827, "lat": 19.0930825, "lon": 72.9013966}, {"type": "node", "id": 3175794828, "lat": 19.1078108, "lon": 72.8800668}, {"type": "node", "id": 3175794829, "lat": 19.1078742, "lon": 72.880093}, {"type": "node", "id": 3175794831, "lat": 19.1079675, "lon": 72.8801315}, {"type": "node", "id": 3175794832, "lat": 19.1080323, "lon": 72.8801583}, {"type": "node", "id": 3175794833, "lat": 19.1082728, "lon": 72.8788152}, {"type": "node", "id": 3175794834, "lat": 19.1083362, "lon": 72.8788414}, {"type": "node", "id": 3175794836, "lat": 19.1084294, "lon": 72.8788799}, {"type": "node", "id": 3175794837, "lat": 19.1084943, "lon": 72.8789068}, {"type": "node", "id": 3175794838, "lat": 19.1097864, "lon": 72.874756}, {"type": "node", "id": 3175794839, "lat": 19.1098497, "lon": 72.8747826}, {"type": "node", "id": 3175794840, "lat": 19.1098744, "lon": 72.874793}, {"type": "node", "id": 3175794841, "lat": 19.1099427, "lon": 72.8748218}, {"type": "node", "id": 3175794842, "lat": 19.1100074, "lon": 72.874849}, {"type": "node", "id": 3175794843, "lat": 19.1102625, "lon": 72.8734882}, {"type": "node", "id": 3175794844, "lat": 19.1103259, "lon": 72.8735149}, {"type": "node", "id": 3175794846, "lat": 19.1104189, "lon": 72.873554}, {"type": "node", "id": 3175794847, "lat": 19.1104835, "lon": 72.8735812}, {"type": "node", "id": 3175794848, "lat": 19.1300662, "lon": 72.8220193}, {"type": "node", "id": 3175794849, "lat": 19.1301634, "lon": 72.8220429}, {"type": "node", "id": 3175794850, "lat": 19.1303496, "lon": 72.8207142}, {"type": "node", "id": 3175794851, "lat": 19.1304468, "lon": 72.820738}, {"type": "node", "id": 3205733664, "lat": 19.0553688, "lon": 72.9150702, "tags": {"internet_access": "no", "name": "Govandi", "network": "IR", "operator": "CR", "public_transport": "station", "railway": "station", "ref": "GV", "wikidata": "Q5588575", "wikipedia": "en:Govandi railway station"}}, {"type": "node", "id": 3215236265, "lat": 19.0597158, "lon": 72.9013122}, {"type": "node", "id": 3235946459, "lat": 19.1725227, "lon": 72.9563025}, {"type": "node", "id": 3243945320, "lat": 19.2418094, "lon": 72.8466176}, {"type": "node", "id": 3243945321, "lat": 19.2416303, "lon": 72.8466099}, {"type": "node", "id": 3243945322, "lat": 19.2417925, "lon": 72.8465156}, {"type": "node", "id": 3243945323, "lat": 19.2418509, "lon": 72.8466283}, {"type": "node", "id": 3248305759, "lat": 19.1438684, "lon": 72.9384327, "tags": {"internet_access": "no", "name": "Bhandup", "name:hi": "\u092d\u093e\u0902\u0921\u0941\u092a", "name:ml": "\u0d2d\u0d3e\u0d23\u0d4d\u0d21\u0d41\u0d2a\u0d4d\u0d2a\u0d4d", "network": "IR", "operator": "CR", "public_transport": "station", "railway": "station", "ref": "BND", "toilets:wheelchair": "no", "wheelchair": "limited", "wikidata": "Q4900992", "wikipedia": "en:Bhandup railway station"}}, {"type": "node", "id": 3263024865, "lat": 19.2094741, "lon": 72.9517789}, {"type": "node", "id": 3263024866, "lat": 19.2089118, "lon": 72.9525299}, {"type": "node", "id": 3263024867, "lat": 19.2093323, "lon": 72.9525996}, {"type": "node", "id": 3263024868, "lat": 19.2096919, "lon": 72.9519398}, {"type": "node", "id": 3272793153, "lat": 19.1692414, "lon": 72.9677505}, {"type": "node", "id": 3272793154, "lat": 19.1695886, "lon": 72.9679785}, {"type": "node", "id": 3272793155, "lat": 19.1693073, "lon": 72.9685042}, {"type": "node", "id": 3272793156, "lat": 19.1689552, "lon": 72.9682789}, {"type": "node", "id": 3347009325, "lat": 19.229068, "lon": 72.8573628, "tags": {"internet_access": "no", "name": "Borivali", "name:hi": "\u092c\u094b\u0930\u093f\u0935\u0932\u0940", "network": "IR", "operator": "WR", "public_transport": "station", "railway": "station", "ref": "BVI", "train": "yes", "wikidata": "Q4945508", "wikipedia": "en:Borivali railway station"}}, {"type": "node", "id": 3347023609, "lat": 19.204159, "lon": 72.8516821, "tags": {"internet_access": "no", "name": "Kandivali", "name:hi": "\u0915\u093e\u0902\u0926\u093f\u0935\u0932\u0940", "network": "IR", "operator": "WR", "public_transport": "station", "railway": "station", "ref": "KILE", "train": "yes", "wikidata": "Q6361555", "wikipedia": "en:Kandivali railway station"}}, {"type": "node", "id": 3347034598, "lat": 19.1867193, "lon": 72.8485884, "tags": {"internet_access": "no", "name": "Malad", "name:hi": "\u092e\u093e\u0932\u093e\u0921", "network": "IR", "operator": "WR", "public_transport": "station", "railway": "station", "ref": "MDD", "train": "yes", "wikidata": "Q6740940", "wikipedia": "en:Malad railway station"}}, {"type": "node", "id": 3347034961, "lat": 19.1648029, "lon": 72.8500454, "tags": {"internet_access": "no", "name": "Goregaon Railway Station", "network": "IR", "operator": "WR", "public_transport": "station", "railway": "station", "ref": "GMN", "train": "yes", "wikidata": "Q5586150", "wikipedia": "en:Goregaon railway station"}}, {"type": "node", "id": 3389150485, "lat": 19.1154388, "lon": 72.8569291}, {"type": "node", "id": 3389150490, "lat": 19.115636, "lon": 72.8570558}, {"type": "node", "id": 3389150492, "lat": 19.1160897, "lon": 72.8557941}, {"type": "node", "id": 3389153295, "lat": 19.1162868, "lon": 72.8559208}, {"type": "node", "id": 3389153309, "lat": 19.1207004, "lon": 72.8481877}, {"type": "node", "id": 3389153361, "lat": 19.1266652, "lon": 72.8382569}, {"type": "node", "id": 3389153366, "lat": 19.1268904, "lon": 72.8383095}, {"type": "node", "id": 3389153368, "lat": 19.1269299, "lon": 72.8369873}, {"type": "node", "id": 3389153373, "lat": 19.1271551, "lon": 72.8370399}, {"type": "node", "id": 3389210702, "lat": 19.1030757, "lon": 72.8884351}, {"type": "node", "id": 3389210707, "lat": 19.1033052, "lon": 72.8885946}, {"type": "node", "id": 3389210708, "lat": 19.1037667, "lon": 72.8873215}, {"type": "node", "id": 3389210711, "lat": 19.1039963, "lon": 72.8874811}, {"type": "node", "id": 3389210779, "lat": 19.1117275, "lon": 72.8682204}, {"type": "node", "id": 3389210782, "lat": 19.1119911, "lon": 72.8683019}, {"type": "node", "id": 3389210783, "lat": 19.1120808, "lon": 72.8669417}, {"type": "node", "id": 3389210788, "lat": 19.1123443, "lon": 72.8670232}, {"type": "node", "id": 3389250239, "lat": 19.0959494, "lon": 72.8953488}, {"type": "node", "id": 3389250242, "lat": 19.0961792, "lon": 72.8955153}, {"type": "node", "id": 3389250243, "lat": 19.0966656, "lon": 72.8942412}, {"type": "node", "id": 3389250247, "lat": 19.0968955, "lon": 72.8944077}, {"type": "node", "id": 3462327239, "lat": 19.0074717, "lon": 72.8358965, "tags": {"IR:zone": "WR:CCG", "historic:ref": "EPR", "internet_access": "no", "name": "Prabhadevi", "name:hi": "\u092a\u094d\u0930\u092d\u093e\u0926\u0947\u0935\u0940", "name:ml": "\u0d2a\u0d4d\u0d30\u0d2d\u0d3e\u0d26\u0d47\u0d35\u0d3f", "name:mr": "\u092a\u094d\u0930\u092d\u093e\u0926\u0947\u0935\u0940", "name:mr:--2018-07-19": "\u090f\u0932\u092b\u093f\u0928\u094d\u0938\u091f\u0928 \u0930\u094b\u0921", "network": "IR", "official_name": "Prabhadevi", "old_name": "Elphinstone Road", "operator": "WR", "public_transport": "station", "railway": "station", "ref": "PBHD", "start_date": "1867", "train": "yes", "wikidata": "Q5367292", "wikipedia": "en:Parel-Prabhadevi railway station"}}, {"type": "node", "id": 3467509194, "lat": 19.0563453, "lon": 72.8454897}, {"type": "node", "id": 3501418211, "lat": 18.9871984, "lon": 72.8326716, "tags": {"internet_access": "no", "name": "Chinchpokli", "name:hi": "\u091a\u093f\u0902\u091a\u092a\u094b\u0915\u0932\u0940", "name:ml": "\u0d1a\u0d3f\u0d1e\u0d4d\u0d1a\u0d4d\u0d2a\u0d4a\u0d15\u0d4d\u0d32\u0d3f", "network": "IR", "operator": "CR", "public_transport": "station", "railway": "station", "ref": "CHG", "wikidata": "Q5100314", "wikipedia": "en:Chinchpokli railway station"}}, {"type": "node", "id": 3501418212, "lat": 19.0094817, "lon": 72.8376614, "tags": {"IR:zone": "CR:CSMT", "alt_name": "Parel Terminus", "ele": "5.9", "internet_access": "no", "name": "Parel", "name:hi": "\u092a\u0930\u0947\u0932", "name:ml": "\u0d2a\u0d30\u0d7e", "name:mr": "\u092a\u0930\u0933", "network": "IR", "operator": "WR", "public_transport": "station", "railway": "station", "ref": "PR", "start_date": "1877", "train": "yes", "wikidata": "Q5367292", "wikipedia": "en:Parel-Prabhadevi railway station"}}, {"type": "node", "id": 3530903066, "lat": 19.0657855, "lon": 72.8904702, "tags": {"IR:zone": "CR", "internet_access": "no", "is_in": "Mumbai", "name": "Tilaknagar", "name:hi": "\u0924\u093f\u0932\u0915 \u0928\u0917\u0930", "name:mr": "\u091f\u093f\u0933\u0915 \u0928\u0917\u0930", "network": "IR", "operator": "CR", "public_transport": "station", "railway": "station", "ref": "TKNG", "wikidata": "Q7802036", "wikipedia": "en:Tilak Nagar railway station"}}, {"type": "node", "id": 3554386358, "lat": 18.9393203, "lon": 72.8350656}, {"type": "node", "id": 3587701743, "lat": 19.1661876, "lon": 72.8501151}, {"type": "node", "id": 3587701744, "lat": 19.1661944, "lon": 72.8503082}, {"type": "node", "id": 3600058051, "lat": 19.1697576, "lon": 72.8506435}, {"type": "node", "id": 3600058052, "lat": 19.1698002, "lon": 72.8507004}, {"type": "node", "id": 3600058053, "lat": 19.1698183, "lon": 72.8506852}, {"type": "node", "id": 3600058054, "lat": 19.1698606, "lon": 72.8506114}, {"type": "node", "id": 3600058055, "lat": 19.169865, "lon": 72.8506043}, {"type": "node", "id": 3600058056, "lat": 19.1699372, "lon": 72.8508836}, {"type": "node", "id": 3600058057, "lat": 19.1699554, "lon": 72.8508684}, {"type": "node", "id": 3600058058, "lat": 19.1699876, "lon": 72.8509509}, {"type": "node", "id": 3600058059, "lat": 19.1700526, "lon": 72.8508465}, {"type": "node", "id": 3601815998, "lat": 19.0206546, "lon": 73.0199192}, {"type": "node", "id": 3601815999, "lat": 19.0211637, "lon": 73.0204281}, {"type": "node", "id": 3674854447, "lat": 19.040097, "lon": 73.0137792}, {"type": "node", "id": 3674854448, "lat": 19.0400674, "lon": 73.0145909}, {"type": "node", "id": 3708865594, "lat": 19.0959948, "lon": 72.8953811}, {"type": "node", "id": 3708877805, "lat": 19.10327, "lon": 72.8885701}, {"type": "node", "id": 3708877809, "lat": 19.1039573, "lon": 72.887454}, {"type": "node", "id": 3708878217, "lat": 19.1084598, "lon": 72.8788925}, {"type": "node", "id": 3708879286, "lat": 19.1078335, "lon": 72.8800761}, {"type": "node", "id": 3708879290, "lat": 19.1079973, "lon": 72.8801439}, {"type": "node", "id": 3708879298, "lat": 19.1083002, "lon": 72.8788265}, {"type": "node", "id": 3708879334, "lat": 19.1098088, "lon": 72.8747654}, {"type": "node", "id": 3708879335, "lat": 19.1099674, "lon": 72.8748321}, {"type": "node", "id": 3708879338, "lat": 19.1104526, "lon": 72.8735682}, {"type": "node", "id": 3732540593, "lat": 19.0174849, "lon": 72.8593168, "tags": {"monorail": "yes", "name": "Wadala Bridge", "public_transport": "platform", "railway": "station", "station": "monorail"}}, {"type": "node", "id": 3803783820, "lat": 19.1155179, "lon": 72.8569777}, {"type": "node", "id": 3803783823, "lat": 19.1155535, "lon": 72.8570001}, {"type": "node", "id": 3803783966, "lat": 19.1161771, "lon": 72.855846}, {"type": "node", "id": 3803783969, "lat": 19.1162157, "lon": 72.8558735}, {"type": "node", "id": 3806743187, "lat": 19.0238248, "lon": 72.8638112, "tags": {"monorail": "yes", "name": "Acharya Atre Nagar", "public_transport": "platform", "railway": "station", "station": "monorail"}}, {"type": "node", "id": 3806743188, "lat": 19.0015921, "lon": 72.8442272, "tags": {"monorail": "yes", "name": "Ambedkar Nagar", "public_transport": "platform", "railway": "station", "station": "monorail", "wikidata": "Q23926706"}}, {"type": "node", "id": 3806743189, "lat": 19.0302863, "lon": 72.8669592, "tags": {"monorail": "yes", "name": "Antop Hill", "public_transport": "platform", "railway": "station", "station": "monorail"}}, {"type": "node", "id": 3806743192, "lat": 19.0162531, "lon": 72.8522274, "tags": {"monorail": "yes", "name": "Dadar East", "public_transport": "platform", "railway": "station", "station": "monorail"}}, {"type": "node", "id": 3806743193, "lat": 19.0367125, "lon": 72.8707852, "tags": {"monorail": "yes", "name": "Guru Tegh Bahadur Nagar", "name:mr": "\u0917\u0941\u0930\u0941 \u0924\u0947\u0917\u093c \u092c\u0939\u093e\u0926\u0941\u0930 \u0928\u0917\u0930", "public_transport": "platform", "railway": "station", "short_name": "GTB Nagar", "station": "monorail"}}, {"type": "node", "id": 3806743194, "lat": 18.9830921, "lon": 72.8285867, "tags": {"alt_name": "Jacob Circle", "monorail": "yes", "name": "Sant Gadge Maharaj Chok", "public_transport": "platform", "railway": "station", "station": "monorail"}}, {"type": "node", "id": 3806743195, "lat": 18.9945142, "lon": 72.8433086, "tags": {"monorail": "yes", "name": "Mint Colony", "public_transport": "platform", "railway": "station", "station": "monorail"}}, {"type": "node", "id": 3806743196, "lat": 19.0095393, "lon": 72.8478709, "tags": {"monorail": "yes", "name": "Naigaon", "public_transport": "platform", "railway": "station", "station": "monorail"}}, {"type": "node", "id": 3878413325, "lat": 19.1189273, "lon": 72.8460231}, {"type": "node", "id": 3878413326, "lat": 19.118953, "lon": 72.8456127}, {"type": "node", "id": 3878413329, "lat": 19.1192175, "lon": 72.8456629}, {"type": "node", "id": 3878413331, "lat": 19.119406, "lon": 72.8461394}, {"type": "node", "id": 3878413332, "lat": 19.1194209, "lon": 72.8455739}, {"type": "node", "id": 3878413333, "lat": 19.1194494, "lon": 72.8454964}, {"type": "node", "id": 3878413337, "lat": 19.1195768, "lon": 72.8455423}, {"type": "node", "id": 3878491940, "lat": 19.1542438, "lon": 72.8357728, "tags": {"amenity": "bus_station", "name": "Goregaon Bus Depot"}}, {"type": "node", "id": 3878491941, "lat": 19.1531335, "lon": 72.8358981, "tags": {"amenity": "bus_station", "name": "Oshiwara Bus Depot"}}, {"type": "node", "id": 3878506003, "lat": 19.0537682, "lon": 72.9158748}, {"type": "node", "id": 3878506010, "lat": 19.0542615, "lon": 72.9152286}, {"type": "node", "id": 3878506011, "lat": 19.0543724, "lon": 72.9163001}, {"type": "node", "id": 3878506017, "lat": 19.0545506, "lon": 72.9156954}, {"type": "node", "id": 3878506018, "lat": 19.054644, "lon": 72.9155621}, {"type": "node", "id": 3878506019, "lat": 19.0546984, "lon": 72.9158357}, {"type": "node", "id": 3878597746, "lat": 19.0745661, "lon": 72.876058, "tags": {"amenity": "bus_station", "name": "Kurla Depot"}}, {"type": "node", "id": 3931917833, "lat": 19.1872973, "lon": 72.9455298, "tags": {"amenity": "bus_station", "name": "Vaishali Nagar"}}, {"type": "node", "id": 3951527111, "lat": 19.0905676, "lon": 72.8382833, "tags": {"amenity": "bus_station", "bus": "yes", "name": "Santacruz Bus Depot", "public_transport": "station"}}, {"type": "node", "id": 3981413852, "lat": 19.0659338, "lon": 72.9286429}, {"type": "node", "id": 4059855420, "lat": 19.0676745, "lon": 72.8786167}, {"type": "node", "id": 4059855421, "lat": 19.0670375, "lon": 72.8789059}, {"type": "node", "id": 4059855422, "lat": 19.0670912, "lon": 72.8791834}, {"type": "node", "id": 4059855423, "lat": 19.0678354, "lon": 72.8787939}, {"type": "node", "id": 4063458444, "lat": 18.9393952, "lon": 72.8358401}, {"type": "node", "id": 4137798801, "lat": 19.0141105, "lon": 73.0421882}, {"type": "node", "id": 4137798803, "lat": 19.0145172, "lon": 73.0425891}, {"type": "node", "id": 4202895618, "lat": 19.1344439, "lon": 72.7834043, "tags": {"amenity": "ferry_terminal", "ferry": "yes", "public_transport": "station"}}, {"type": "node", "id": 4258411797, "lat": 19.1114795, "lon": 72.928021, "tags": {"internet_access": "no", "name": "Vikhroli", "name:hi": "\u0935\u093f\u0915\u094d\u0930\u094b\u0932\u0940", "name:ml": "\u0d35\u0d3f\u0d15\u0d4d\u0d30\u0d4b\u0d33\u0d3f", "network": "IR", "operator": "CR", "public_transport": "station", "railway": "station", "ref": "VK", "wikidata": "Q7929425", "wikipedia": "en:Vikhroli railway station"}}, {"type": "node", "id": 4260136290, "lat": 18.9354797, "lon": 72.8271741, "tags": {"IR:zone": "WR:CCG", "internet_access": "no", "name": "Churchgate", "name:hi": "\u091a\u0930\u094d\u091a\u0917\u0947\u091f", "name:ml": "\u0d1a\u0d7c\u0d1a\u0d4d\u0d1a\u0d4d\u0d17\u0d47\u0d31\u0d4d\u0d31\u0d4d", "name:zh": "\u6559\u5802\u95e8\u603b\u7ad9", "network": "IR", "old_ref": "C", "operator": "WR", "public_transport": "station", "railway": "station", "ref": "CCG", "start_date": "1867-04-12", "train": "yes", "wikidata": "Q5118143", "wikipedia": "en:Churchgate railway station"}}, {"type": "node", "id": 4264430460, "lat": 19.0669825, "lon": 72.8790396}, {"type": "node", "id": 4264430462, "lat": 19.0670387, "lon": 72.8789972}, {"type": "node", "id": 4264430469, "lat": 19.0674275, "lon": 72.8789866}, {"type": "node", "id": 4264430477, "lat": 19.0678905, "lon": 72.8786812}, {"type": "node", "id": 4264457295, "lat": 19.0274356, "lon": 72.8501467, "tags": {"addr:postcode": "400019", "internet_access": "no", "name": "Matunga", "name:hi": "\u092e\u093e\u091f\u0941\u0902\u0917\u093e", "name:ml": "\u0d2e\u0d3e\u0d1f\u0d4d\u0d1f\u0d41\u0d02\u0d17", "network": "IR", "operator": "CR", "public_transport": "station", "railway": "station", "ref": "MTN", "wikidata": "Q6791975", "wikipedia": "en:Matunga railway station"}}, {"type": "node", "id": 4264462833, "lat": 19.0278149, "lon": 72.8466813, "tags": {"IR:zone": "WR:CCG", "ele": "4", "internet_access": "no", "name": "Matunga Road", "name:hi": "\u092e\u093e\u091f\u0941\u0902\u0917\u093e \u0930\u094b\u0921", "name:ml": "\u0d2e\u0d3e\u0d1f\u0d4d\u0d1f\u0d41\u0d02\u0d17 \u0d31\u0d4b\u0d21\u0d4d", "network": "IR", "operator": "WR", "public_transport": "station", "railway": "station", "ref": "MRU", "start_date": "1867", "train": "yes", "wikidata": "Q6791976", "wikipedia": "en:Matunga Road railway station"}}, {"type": "node", "id": 4264478427, "lat": 18.9825203, "lon": 72.8242196, "tags": {"IR:zone": "WR:CCG", "alt_name": "Mahalakshmi Railway Station", "internet_access": "no", "name": "Mahalaxmi", "name:hi": "\u092e\u0939\u093e\u0932\u0915\u094d\u0937\u094d\u092e\u0940", "name:ml": "\u0d2e\u0d39\u0d3e\u0d32\u0d15\u0d4d\u0d37\u0d4d\u0d2e\u0d3f", "name:mr": "\u092e\u0939\u093e\u0932\u0915\u094d\u0937\u094d\u092e\u0940", "network": "IR", "operator": "WR", "public_transport": "station", "railway": "station", "ref": "MX", "start_date": "1867", "train": "yes", "wikidata": "Q6732924", "wikipedia": "en:Mahalaxmi railway station"}}, {"type": "node", "id": 4264539430, "lat": 19.0856928, "lon": 72.9083668, "tags": {"internet_access": "wlan", "name": "Ghatkopar", "name:hi": "\u0918\u093e\u091f\u0915\u094b\u092a\u0930", "name:ml": "\u0d18\u0d3e\u0d1f\u0d4d\u0d15\u0d4b\u0d2a\u0d4d\u0d2a\u0d7c", "network": "IR", "operator": "CR", "public_transport": "station", "railway": "station", "ref": "GC", "wikidata": "Q5555923", "wikipedia": "en:Ghatkopar railway station"}}, {"type": "node", "id": 4264841906, "lat": 19.0380048, "lon": 72.8643455, "tags": {"internet_access": "no", "name": "Guru Tegh Bahadur Nagar", "name:hi": "\u0917\u0941\u0930\u0941 \u0924\u0947\u091c \u092c\u0939\u093e\u0926\u0941\u0930 \u0928\u0917\u0930", "network": "IR", "old_name": "Agarwada", "operator": "CR", "public_transport": "station", "railway": "station", "ref": "GTBN", "short_name": "GTB Nagar", "wikidata": "Q5620449", "wikipedia": "en:Guru Tegh Bahadur Nagar railway station"}}, {"type": "node", "id": 4306257485, "lat": 19.1189318, "lon": 72.8483248}, {"type": "node", "id": 4306257486, "lat": 19.1189369, "lon": 72.8480472}, {"type": "node", "id": 4306257487, "lat": 19.119184, "lon": 72.848019}, {"type": "node", "id": 4306257488, "lat": 19.119203, "lon": 72.8483784}, {"type": "node", "id": 4328028081, "lat": 19.0540281, "lon": 72.8400421}, {"type": "node", "id": 4328028082, "lat": 19.0540559, "lon": 72.8399147}, {"type": "node", "id": 4328161652, "lat": 19.0556456, "lon": 72.8447226}, {"type": "node", "id": 4328161656, "lat": 19.0557242, "lon": 72.8454588}, {"type": "node", "id": 4328161663, "lat": 19.0561184, "lon": 72.8446595}, {"type": "node", "id": 4328161666, "lat": 19.056325, "lon": 72.8451115}, {"type": "node", "id": 4328161816, "lat": 19.0612483, "lon": 72.8506261}, {"type": "node", "id": 4328161818, "lat": 19.0614739, "lon": 72.8510204}, {"type": "node", "id": 4335224851, "lat": 19.1869224, "lon": 72.9770613}, {"type": "node", "id": 4335224857, "lat": 19.18702, "lon": 72.9777458}, {"type": "node", "id": 4382193894, "lat": 19.2317548, "lon": 72.8602575, "tags": {"addr:postcode": "400066", "addr:street": "Mahatma Gandhi Marg", "amenity": "bus_station", "name:en": "Sukurwadi Bus Fepot"}}, {"type": "node", "id": 4583581092, "lat": 18.8997863, "lon": 72.813697, "tags": {"addr:street": "Nanabhai Moos Road", "alt_name:en": "R.C. Church", "amenity": "bus_station", "bus": "yes", "name:en": "R.C. Church", "operator": "BEST", "public_transport": "station", "website": "https://bestundertaking.com/"}}, {"type": "node", "id": 4583590689, "lat": 18.9138325, "lon": 72.8085422, "tags": {"addr:postcode": "400005", "amenity": "bus_station", "name:en": "Geeta Nagar", "operator": "BEST", "website": "https://bestundertaking.com/"}}, {"type": "node", "id": 4583595290, "lat": 18.9094832, "lon": 72.8170399}, {"type": "node", "id": 4583595691, "lat": 19.1829829, "lon": 72.8191052}, {"type": "node", "id": 4583600393, "lat": 19.0510956, "lon": 72.8581907, "tags": {"addr:postcode": "400017", "amenity": "bus_station", "name:en": "Dharavi Bus Depot", "operator": "BEST"}}, {"type": "node", "id": 4611114419, "lat": 19.1652653, "lon": 72.8501543}, {"type": "node", "id": 4625570570, "lat": 19.1569048, "lon": 72.9986747}, {"type": "node", "id": 4647685694, "lat": 19.1914245, "lon": 72.9883018, "tags": {"addr:postcode": "400605", "addr:street": "Thane Belapur Road", "amenity": "bus_station", "bus": "yes", "name:en": "Kalwa Depot", "operator": "TMT", "public_transport": "station"}}, {"type": "node", "id": 4648505096, "lat": 19.0078649, "lon": 73.0163469, "tags": {"amenity": "bus_station", "bus": "yes", "name": "Nerul Sector 46/48 NMMT Bus Depot", "name:en": "Nerul Sector 46/48 NMMT Bus Depot", "operator": "NMMT", "public_transport": "station"}}, {"type": "node", "id": 4686237243, "lat": 19.11576, "lon": 72.856369}, {"type": "node", "id": 4791543716, "lat": 19.1345966, "lon": 72.8478608}, {"type": "node", "id": 4791543717, "lat": 19.1346372, "lon": 72.8479251}, {"type": "node", "id": 4791543718, "lat": 19.1344066, "lon": 72.848475}, {"type": "node", "id": 4791543719, "lat": 19.1335855, "lon": 72.8483409}, {"type": "node", "id": 4791543720, "lat": 19.1336413, "lon": 72.8476998}, {"type": "node", "id": 4819976530, "lat": 19.0639625, "lon": 72.9993747}, {"type": "node", "id": 4819976531, "lat": 19.064031, "lon": 72.9996116}, {"type": "node", "id": 4819976532, "lat": 19.0631775, "lon": 72.9978371}, {"type": "node", "id": 4819976533, "lat": 19.0633573, "lon": 72.9979796}, {"type": "node", "id": 4819976534, "lat": 19.0642566, "lon": 72.9995357}, {"type": "node", "id": 4819976535, "lat": 19.0641856, "lon": 72.9992996}, {"type": "node", "id": 4819976536, "lat": 19.0635518, "lon": 72.997862}, {"type": "node", "id": 4819976537, "lat": 19.0634372, "lon": 72.997652}, {"type": "node", "id": 4883158968, "lat": 19.1260984, "lon": 72.8725981}, {"type": "node", "id": 4883158971, "lat": 19.1260322, "lon": 72.8734383}, {"type": "node", "id": 4883158976, "lat": 19.1255896, "lon": 72.8731259}, {"type": "node", "id": 5000435121, "lat": 19.1111025, "lon": 72.8544656, "tags": {"amenity": "bus_station", "bus": "yes", "name:en": "Neeta bus station", "public_transport": "station"}}, {"type": "node", "id": 5010962560, "lat": 19.0804204, "lon": 72.8961425}, {"type": "node", "id": 5010962561, "lat": 19.0802478, "lon": 72.89634}, {"type": "node", "id": 5010962562, "lat": 19.0801537, "lon": 72.8964121}, {"type": "node", "id": 5010962564, "lat": 19.0800338, "lon": 72.8965309}, {"type": "node", "id": 5010962565, "lat": 19.0799644, "lon": 72.8965909}, {"type": "node", "id": 5010962566, "lat": 19.0798961, "lon": 72.8966399}, {"type": "node", "id": 5168562565, "lat": 19.2009048, "lon": 72.971929}, {"type": "node", "id": 5168562566, "lat": 19.2018431, "lon": 72.9731935}, {"type": "node", "id": 5168562571, "lat": 19.2015, "lon": 72.9735708}, {"type": "node", "id": 5168562572, "lat": 19.2006489, "lon": 72.9725691}, {"type": "node", "id": 5168562573, "lat": 19.2007787, "lon": 72.9723884}, {"type": "node", "id": 5174623523, "lat": 18.9536132, "lon": 72.8370396, "tags": {"amenity": "bus_station", "bus": "yes", "public_transport": "station"}}, {"type": "node", "id": 5174656421, "lat": 18.9536931, "lon": 72.8370631, "tags": {"amenity": "bus_station", "bus": "yes", "public_transport": "station"}}, {"type": "node", "id": 5219622342, "lat": 19.206241, "lon": 72.8347739, "tags": {"name": "Dahanukarwadi", "name:mr": "\u0921\u0939\u093e\u0923\u0942\u0915\u0930\u0935\u093e\u0921\u0940", "public_transport": "station", "railway": "station", "station": "subway", "subway": "yes", "wikidata": "Q116266997"}}, {"type": "node", "id": 5219622343, "lat": 19.2140118, "lon": 72.8372886, "tags": {"name": "Kandivali West", "name:mr": "\u0915\u093e\u0902\u0926\u093f\u0935\u0932\u0940 \u092a\u0936\u094d\u091a\u093f\u092e", "public_transport": "station", "railway": "station", "station": "subway", "subway": "yes"}}, {"type": "node", "id": 5219622344, "lat": 19.2313925, "lon": 72.8408607, "tags": {"name": "Borivali West", "name:mr": "\u092c\u094b\u0930\u093f\u0935\u0932\u0940 \u092a\u0936\u094d\u091a\u093f\u092e", "public_transport": "station", "railway": "station", "station": "subway", "subway": "yes", "wikidata": "Q116266994"}}, {"type": "node", "id": 5219622345, "lat": 19.2496054, "lon": 72.8455961, "tags": {"alt_name": "Mandapeshwar", "name": "Mandapeshwar", "name:mr": "\u092e\u0902\u0921\u092a\u0947\u0936\u094d\u0935\u0930", "public_transport": "station", "railway": "station", "station": "subway", "subway": "yes"}}, {"type": "node", "id": 5219622346, "lat": 19.2566337, "lon": 72.850504, "tags": {"alt_name": "Kandarpada", "name": "Rushi Sankul", "name:mr": "\u0960\u0937\u093f \u0938\u0902\u0915\u0941\u0932", "public_transport": "station", "railway": "station", "station": "subway", "subway": "yes"}}, {"type": "node", "id": 5219622347, "lat": 19.2572087, "lon": 72.8663486, "tags": {"alt_name": "Upper Dahisar", "name": "Anand Nagar (Dahisar)", "name:mr": "\u0906\u0928\u0902\u0926 \u0928\u0917\u0930 (\u0926\u0939\u093f\u0938\u0930)", "public_transport": "station", "railway": "station", "station": "subway", "subway": "yes"}}, {"type": "node", "id": 5219623032, "lat": 19.2228314, "lon": 72.8409072, "tags": {"alt_name": "Shimpawali", "name": "Shimpoli", "name:mr": "\u0936\u093f\u0902\u092a\u094b\u0932\u0940", "public_transport": "station", "railway": "station", "station": "subway", "subway": "yes"}}, {"type": "node", "id": 5219623047, "lat": 19.2403773, "lon": 72.8434456, "tags": {"name": "Eksar", "name:mr": "\u090f\u0915\u0938\u0930", "public_transport": "station", "railway": "station", "station": "subway", "subway": "yes", "wikidata": "Q116266993"}}, {"type": "node", "id": 5242233618, "lat": 19.096824, "lon": 72.8943557}, {"type": "node", "id": 5242233619, "lat": 19.0961133, "lon": 72.8954673}, {"type": "node", "id": 5303039622, "lat": 19.0151778, "lon": 73.0154206}, {"type": "node", "id": 5303039623, "lat": 19.0151519, "lon": 73.0154387}, {"type": "node", "id": 5303039624, "lat": 19.0151247, "lon": 73.0154443}, {"type": "node", "id": 5303039625, "lat": 19.0150942, "lon": 73.0154426}, {"type": "node", "id": 5303039626, "lat": 19.0150625, "lon": 73.015431}, {"type": "node", "id": 5326816485, "lat": 19.0513873, "lon": 72.8688956}, {"type": "node", "id": 5388598579, "lat": 19.0153614, "lon": 73.0146237}, {"type": "node", "id": 5388598580, "lat": 19.0150609, "lon": 73.0149596}, {"type": "node", "id": 5404924140, "lat": 19.0215148, "lon": 73.0028226, "tags": {"addr:city": "Navi Mumbai", "addr:postcode": "400706", "addr:street": "Palm Beach Marg", "amenity": "ferry_terminal", "ferry": "yes", "name": "Seawoods Jetty", "public_transport": "station"}}, {"type": "node", "id": 5430685715, "lat": 19.0402235, "lon": 73.0137851}, {"type": "node", "id": 5450640606, "lat": 19.0141844, "lon": 73.0421041}, {"type": "node", "id": 5450640607, "lat": 19.0145917, "lon": 73.0425043}, {"type": "node", "id": 5450640608, "lat": 19.0138205, "lon": 73.0425184}, {"type": "node", "id": 5450694466, "lat": 19.0758198, "lon": 72.9839194, "tags": {"source": "PGS"}}, {"type": "node", "id": 5450694467, "lat": 19.0757066, "lon": 72.9844951}, {"type": "node", "id": 5450694468, "lat": 19.0753604, "lon": 72.9844188}, {"type": "node", "id": 5455660662, "lat": 19.0348734, "lon": 73.0427582}, {"type": "node", "id": 5455660663, "lat": 19.0352755, "lon": 73.0427862}, {"type": "node", "id": 5455660664, "lat": 19.0352851, "lon": 73.0432355}, {"type": "node", "id": 5455660665, "lat": 19.0348505, "lon": 73.0432419}, {"type": "node", "id": 5466069077, "lat": 19.0156489, "lon": 73.0149033}, {"type": "node", "id": 5466069078, "lat": 19.0148363, "lon": 73.0152108}, {"type": "node", "id": 5466069079, "lat": 19.0150784, "lon": 73.0154383}, {"type": "node", "id": 5466069080, "lat": 19.0151095, "lon": 73.015445}, {"type": "node", "id": 5466069081, "lat": 19.0151388, "lon": 73.015442}, {"type": "node", "id": 5466069082, "lat": 19.0151652, "lon": 73.0154308}, {"type": "node", "id": 5477703684, "lat": 19.0925008, "lon": 72.9022056}, {"type": "node", "id": 5477703685, "lat": 19.0929982, "lon": 72.9013427}, {"type": "node", "id": 5501219611, "lat": 19.0326863, "lon": 73.0175914}, {"type": "node", "id": 5501219612, "lat": 19.0326545, "lon": 73.0186496}, {"type": "node", "id": 5501219613, "lat": 19.0345445, "lon": 73.0186059}, {"type": "node", "id": 5501219614, "lat": 19.0345886, "lon": 73.0177952}, {"type": "node", "id": 5501280530, "lat": 19.0344229, "lon": 73.0176767}, {"type": "node", "id": 5501280531, "lat": 19.0348686, "lon": 73.0178104}, {"type": "node", "id": 5501280532, "lat": 19.0348291, "lon": 73.0186214}, {"type": "node", "id": 5501280533, "lat": 19.0345399, "lon": 73.0187347}, {"type": "node", "id": 5501280534, "lat": 19.032331, "lon": 73.0176612}, {"type": "node", "id": 5501280537, "lat": 19.0326789, "lon": 73.0176802}, {"type": "node", "id": 5511120963, "lat": 19.0706557, "lon": 72.9869092}, {"type": "node", "id": 5511120964, "lat": 19.0703484, "lon": 72.9868868}, {"type": "node", "id": 5511120965, "lat": 19.0703171, "lon": 72.9873682}, {"type": "node", "id": 5511120966, "lat": 19.0706244, "lon": 72.9873905}, {"type": "node", "id": 5518339331, "lat": 19.0405632, "lon": 73.0194299}, {"type": "node", "id": 5518339332, "lat": 19.039815, "lon": 73.0202289}, {"type": "node", "id": 5518339333, "lat": 19.0396281, "lon": 73.0199675}, {"type": "node", "id": 5518339334, "lat": 19.0395537, "lon": 73.0198186}, {"type": "node", "id": 5518339335, "lat": 19.0394994, "lon": 73.0193626}, {"type": "node", "id": 5518339336, "lat": 19.0394843, "lon": 73.019598}, {"type": "node", "id": 5524542046, "lat": 19.0252833, "lon": 73.0418671}, {"type": "node", "id": 5524542047, "lat": 19.0249192, "lon": 73.0423046}, {"type": "node", "id": 5524542048, "lat": 19.0244648, "lon": 73.0418887}, {"type": "node", "id": 5524542049, "lat": 19.0248085, "lon": 73.0414866}, {"type": "node", "id": 5530797459, "lat": 19.0227242, "lon": 73.0176026}, {"type": "node", "id": 5548014416, "lat": 19.0142278, "lon": 73.0429186}, {"type": "node", "id": 5556203758, "lat": 19.0654003, "lon": 73.0087753}, {"type": "node", "id": 5556203759, "lat": 19.0653962, "lon": 73.0083911}, {"type": "node", "id": 5556203760, "lat": 19.0659883, "lon": 73.0082354}, {"type": "node", "id": 5556203761, "lat": 19.0661331, "lon": 73.0085662}, {"type": "node", "id": 5556203762, "lat": 19.0665749, "lon": 73.0104476}, {"type": "node", "id": 5556203763, "lat": 19.0665393, "lon": 73.0106799}, {"type": "node", "id": 5556203764, "lat": 19.0659664, "lon": 73.0108304}, {"type": "node", "id": 5556203765, "lat": 19.0658315, "lon": 73.0106121}, {"type": "node", "id": 5653876821, "lat": 19.0672573, "lon": 73.0090798}, {"type": "node", "id": 5653876822, "lat": 19.0672356, "lon": 73.0094117}, {"type": "node", "id": 5653876823, "lat": 19.0667395, "lon": 73.0093753}, {"type": "node", "id": 5653876824, "lat": 19.0667618, "lon": 73.0090496}, {"type": "node", "id": 5661159622, "lat": 19.0679976, "lon": 72.8464744, "tags": {"amenity": "bus_station", "bus": "yes", "name:en": "busstand 1", "public_transport": "station"}}, {"type": "node", "id": 5696928866, "lat": 19.1196976, "lon": 72.8464205, "tags": {"date:rebuilt": "2015", "date:renamed": "1934", "historic:name": "Salsette\u2013Trombay", "internet_access": "no", "name": "Andheri", "name:1928-1934": "Salsette\u2013Trombay", "name:hi": "\u0905\u0928\u094d\u0927\u0947\u0930\u0940", "name:mr": "\u0905\u0902\u0927\u0947\u0930\u0940", "network": "IR", "operator": "WR", "public_transport": "station", "railway": "station", "ref": "ADH", "start_date": "1928", "train": "yes", "wikidata": "Q4754334", "wikipedia": "en:Andheri railway station"}}, {"type": "node", "id": 5725817198, "lat": 19.0664482, "lon": 73.0099082}, {"type": "node", "id": 5725817199, "lat": 19.0657147, "lon": 73.0101146}, {"type": "node", "id": 5727445421, "lat": 19.156907, "lon": 72.9981189}, {"type": "node", "id": 5727445423, "lat": 19.156232, "lon": 72.9988241}, {"type": "node", "id": 5727445424, "lat": 19.1562386, "lon": 72.9981026}, {"type": "node", "id": 5729519924, "lat": 19.0212987, "lon": 73.0398343}, {"type": "node", "id": 5729519925, "lat": 19.0208036, "lon": 73.0401398}, {"type": "node", "id": 5729519926, "lat": 19.0206372, "lon": 73.0398261}, {"type": "node", "id": 5729558107, "lat": 19.0405633, "lon": 73.0138011}, {"type": "node", "id": 5729558108, "lat": 19.0405098, "lon": 73.0146062}, {"type": "node", "id": 5753961350, "lat": 19.0657305, "lon": 73.0101817}, {"type": "node", "id": 5908830221, "lat": 19.0258134, "lon": 72.8661963}, {"type": "node", "id": 5908830222, "lat": 19.0259199, "lon": 72.8662768}, {"type": "node", "id": 5908830223, "lat": 19.025996, "lon": 72.866435}, {"type": "node", "id": 5908830224, "lat": 19.0260086, "lon": 72.8665048}, {"type": "node", "id": 5908830225, "lat": 19.0258971, "lon": 72.867068}, {"type": "node", "id": 5908830226, "lat": 19.0255522, "lon": 72.8669795}, {"type": "node", "id": 5908830227, "lat": 19.0257348, "lon": 72.8661695}, {"type": "node", "id": 5909533857, "lat": 19.151023, "lon": 72.8501467, "tags": {"internet_access": "no", "name": "Ram Mandir", "name:hi": "\u0930\u093e\u092e \u092e\u0902\u0926\u093f\u0930", "network": "IR", "operator": "WR", "public_transport": "station", "railway": "station", "ref": "RMAR", "train": "yes", "wikidata": "Q18129030", "wikipedia": "en:Ram Mandir railway station"}}, {"type": "node", "id": 5911635656, "lat": 19.059721, "lon": 72.9010048}, {"type": "node", "id": 5911635657, "lat": 19.0601324, "lon": 72.9013202}, {"type": "node", "id": 5911695107, "lat": 19.0428341, "lon": 72.926073}, {"type": "node", "id": 5918530689, "lat": 19.0690931, "lon": 72.8665352}, {"type": "node", "id": 5918530690, "lat": 19.0686237, "lon": 72.8668573}, {"type": "node", "id": 5918530691, "lat": 19.0663558, "lon": 72.8631576}, {"type": "node", "id": 5918530692, "lat": 19.0668252, "lon": 72.8628355}, {"type": "node", "id": 5938773117, "lat": 19.1764019, "lon": 72.8652616}, {"type": "node", "id": 5938773118, "lat": 19.1764153, "lon": 72.8656813}, {"type": "node", "id": 5938773119, "lat": 19.1757414, "lon": 72.8657055}, {"type": "node", "id": 5939253602, "lat": 19.1634287, "lon": 72.8487861}, {"type": "node", "id": 5939253603, "lat": 19.164019, "lon": 72.848939}, {"type": "node", "id": 6020955334, "lat": 19.1204624, "lon": 72.8487861, "tags": {"building": "transportation", "description": "Andheri Metro Station", "name": "Andheri", "name:mr": "\u0905\u0902\u0927\u0947\u0930\u0940", "public_transport": "station", "railway": "station", "station": "subway", "subway": "yes", "wikidata": "Q17512034", "wikipedia": "en:Andheri metro station"}}, {"type": "node", "id": 6021319006, "lat": 19.0209123, "lon": 73.0398886, "tags": {"amenity": "bus_station", "bench": "yes", "bus": "yes", "departures_board": "timetable", "name": "C.B.D.Belapur Railway Station", "network": "NMMT", "operator": "NMMT", "public_transport": "station", "shelter": "yes", "wikidata": "Q6982295", "wikimedia_commons": "Category:Navi Mumbai Municipal Transport", "wikipedia": "en:Navi Mumbai Municipal Transport"}}, {"type": "node", "id": 6025235827, "lat": 19.0965449, "lon": 72.8949498}, {"type": "node", "id": 6029559152, "lat": 19.0153328, "lon": 73.0152504}, {"type": "node", "id": 6045572041, "lat": 19.0209986, "lon": 73.039534}, {"type": "node", "id": 6045572053, "lat": 19.0208787, "lon": 73.0395391}, {"type": "node", "id": 6050884340, "lat": 19.0326617, "lon": 73.0185016}, {"type": "node", "id": 6050884341, "lat": 19.0322911, "lon": 73.0184814}, {"type": "node", "id": 6050884359, "lat": 19.0568282, "lon": 73.0176952}, {"type": "node", "id": 6050884360, "lat": 19.0571656, "lon": 73.0177807}, {"type": "node", "id": 6050884362, "lat": 19.0571816, "lon": 73.0186746}, {"type": "node", "id": 6050884363, "lat": 19.0568242, "lon": 73.0186828}, {"type": "node", "id": 6050884364, "lat": 19.056826, "lon": 73.0187695}, {"type": "node", "id": 6050884365, "lat": 19.055067, "lon": 73.0188037}, {"type": "node", "id": 6050884366, "lat": 19.0550651, "lon": 73.0186984}, {"type": "node", "id": 6050884367, "lat": 19.0545634, "lon": 73.0187082}, {"type": "node", "id": 6050884368, "lat": 19.0545485, "lon": 73.0178564}, {"type": "node", "id": 6050884369, "lat": 19.0550562, "lon": 73.0178465}, {"type": "node", "id": 6050884370, "lat": 19.0550542, "lon": 73.0177297}, {"type": "node", "id": 6050910707, "lat": 19.0230872, "lon": 73.0182758}, {"type": "node", "id": 6056810036, "lat": 19.0232337, "lon": 73.0181119}, {"type": "node", "id": 6056810038, "lat": 19.0216948, "lon": 73.0198339}, {"type": "node", "id": 6056810041, "lat": 19.0227032, "lon": 73.0187055}, {"type": "node", "id": 6078180229, "lat": 18.9425417, "lon": 72.8352344}, {"type": "node", "id": 6078180230, "lat": 18.942545, "lon": 72.8352773}, {"type": "node", "id": 6078180231, "lat": 18.9425504, "lon": 72.8353461}, {"type": "node", "id": 6078180232, "lat": 18.9425531, "lon": 72.8353788}, {"type": "node", "id": 6078180234, "lat": 18.9423071, "lon": 72.834878}, {"type": "node", "id": 6078180249, "lat": 18.9389384, "lon": 72.8350284}, {"type": "node", "id": 6091712997, "lat": 19.0568298, "lon": 73.0177873}, {"type": "node", "id": 6138574122, "lat": 19.0762812, "lon": 73.0170132}, {"type": "node", "id": 6138574123, "lat": 19.0763368, "lon": 73.0173297}, {"type": "node", "id": 6138574126, "lat": 19.0764144, "lon": 73.0180762}, {"type": "node", "id": 6138574127, "lat": 19.0764418, "lon": 73.0182325}, {"type": "node", "id": 6138574128, "lat": 19.0760484, "lon": 73.0183099}, {"type": "node", "id": 6138574129, "lat": 19.0760223, "lon": 73.0181612}, {"type": "node", "id": 6138574132, "lat": 19.0758245, "lon": 73.0174262}, {"type": "node", "id": 6138574133, "lat": 19.0757696, "lon": 73.0171138}, {"type": "node", "id": 6138592378, "lat": 19.1597235, "lon": 72.9992237}, {"type": "node", "id": 6138592379, "lat": 19.1597249, "lon": 72.9995913}, {"type": "node", "id": 6138592380, "lat": 19.1573213, "lon": 72.9995794}, {"type": "node", "id": 6138592381, "lat": 19.1573259, "lon": 72.9992133}, {"type": "node", "id": 6138599546, "lat": 19.0774081, "lon": 73.017119}, {"type": "node", "id": 6138599548, "lat": 19.0775374, "lon": 73.0178554}, {"type": "node", "id": 6141782769, "lat": 19.1377692, "lon": 73.0023188}, {"type": "node", "id": 6141782770, "lat": 19.1378464, "lon": 73.0026729}, {"type": "node", "id": 6141782771, "lat": 19.1355018, "lon": 73.0032457}, {"type": "node", "id": 6141782772, "lat": 19.1354246, "lon": 73.0028921}, {"type": "node", "id": 6141782773, "lat": 19.1173785, "lon": 73.0064054}, {"type": "node", "id": 6141782774, "lat": 19.1174986, "lon": 73.0067474}, {"type": "node", "id": 6141782775, "lat": 19.115244, "lon": 73.0076339}, {"type": "node", "id": 6141782776, "lat": 19.115124, "lon": 73.0072924}, {"type": "node", "id": 6141782777, "lat": 19.1043534, "lon": 73.0107838}, {"type": "node", "id": 6141782778, "lat": 19.1044479, "lon": 73.0111314}, {"type": "node", "id": 6141782779, "lat": 19.1021383, "lon": 73.0118382}, {"type": "node", "id": 6141782780, "lat": 19.1020429, "lon": 73.0114874}, {"type": "node", "id": 6144400144, "lat": 19.0747533, "lon": 73.0176369}, {"type": "node", "id": 6144400145, "lat": 19.0748847, "lon": 73.018385}, {"type": "node", "id": 6144401593, "lat": 19.1037937, "lon": 73.0113316}, {"type": "node", "id": 6144401594, "lat": 19.1039721, "lon": 73.0112764}, {"type": "node", "id": 6144401601, "lat": 19.1026642, "lon": 73.011678}, {"type": "node", "id": 6144401602, "lat": 19.1028429, "lon": 73.0116227}, {"type": "node", "id": 6144401635, "lat": 19.1170317, "lon": 73.0069311}, {"type": "node", "id": 6144401638, "lat": 19.116842, "lon": 73.0070051}, {"type": "node", "id": 6144401639, "lat": 19.1159173, "lon": 73.0073693}, {"type": "node", "id": 6144401642, "lat": 19.1157273, "lon": 73.0074438}, {"type": "node", "id": 6144401724, "lat": 19.157954, "lon": 72.9995826}, {"type": "node", "id": 6144401727, "lat": 19.1578002, "lon": 72.9995814}, {"type": "node", "id": 6144401728, "lat": 19.1592293, "lon": 72.9995892}, {"type": "node", "id": 6144401731, "lat": 19.1590754, "lon": 72.9995879}, {"type": "node", "id": 6170656892, "lat": 18.9526895, "lon": 72.8380025}, {"type": "node", "id": 6174538672, "lat": 18.942516, "lon": 72.8348976}, {"type": "node", "id": 6174538673, "lat": 18.9425195, "lon": 72.8349401}, {"type": "node", "id": 6174538674, "lat": 18.9423062, "lon": 72.8348686}, {"type": "node", "id": 6174539220, "lat": 18.9425613, "lon": 72.83547}, {"type": "node", "id": 6175360983, "lat": 19.0694658, "lon": 72.8919779, "tags": {"internet_access": "wlan", "name": "Lokmanya Tilak Terminus", "name:hi": "\u0932\u094b\u0915\u092e\u093e\u0928\u094d\u092f \u0924\u093f\u0932\u0915 \u091f\u0930\u094d\u092e\u093f\u0928\u0938", "name:ml": "\u0d32\u0d4b\u0d15\u0d2e\u0d3e\u0d28\u0d4d\u0d2f \u0d24\u0d3f\u0d32\u0d15\u0d4d \u0d1f\u0d46\u0d7c\u0d2e\u0d3f\u0d28\u0d38\u0d4d", "network": "IR", "operator": "CR", "public_transport": "station", "railway": "station", "ref": "LTT", "train": "yes", "wikidata": "Q4520739", "wikipedia": "en:Lokmanya Tilak Terminus"}}, {"type": "node", "id": 6235803038, "lat": 19.1104691, "lon": 72.8736194}, {"type": "node", "id": 6235803039, "lat": 19.1102518, "lon": 72.8735167}, {"type": "node", "id": 6235803044, "lat": 19.1098035, "lon": 72.8747219}, {"type": "node", "id": 6235809308, "lat": 19.1084869, "lon": 72.8789269}, {"type": "node", "id": 6235809309, "lat": 19.1082652, "lon": 72.8788359}, {"type": "node", "id": 6235809312, "lat": 19.1080466, "lon": 72.8801197}, {"type": "node", "id": 6235809313, "lat": 19.1078223, "lon": 72.8800356}, {"type": "node", "id": 6235813594, "lat": 19.1039795, "lon": 72.8875081}, {"type": "node", "id": 6235813596, "lat": 19.1033246, "lon": 72.8885633}, {"type": "node", "id": 6249729383, "lat": 19.1304816, "lon": 72.8207464}, {"type": "node", "id": 6249730789, "lat": 19.1300067, "lon": 72.8219174}, {"type": "node", "id": 6257907252, "lat": 19.1303647, "lon": 72.8746974}, {"type": "node", "id": 6257907253, "lat": 19.1302329, "lon": 72.8749441}, {"type": "node", "id": 6257907254, "lat": 19.1307448, "lon": 72.8752392}, {"type": "node", "id": 6257907255, "lat": 19.1309171, "lon": 72.8750568}, {"type": "node", "id": 6257907256, "lat": 19.130613, "lon": 72.8748529}, {"type": "node", "id": 6293035154, "lat": 18.9559282, "lon": 72.8492114}, {"type": "node", "id": 6293035155, "lat": 18.9567749, "lon": 72.8494066}, {"type": "node", "id": 6498408219, "lat": 18.9931201, "lon": 72.8314698, "tags": {"monorail": "yes", "name": "Lower Parel", "public_transport": "platform", "railway": "station", "station": "monorail"}}, {"type": "node", "id": 6651130795, "lat": 19.0155957, "lon": 73.0149617, "tags": {"access": "no", "barrier": "gate", "foot": "yes"}}, {"type": "node", "id": 6813413581, "lat": 18.9568222, "lon": 72.8494839, "tags": {"addr:postcode": "400010", "amenity": "ferry_terminal", "ferry": "yes", "name": "Bhaucha Dhakka / Ferry Wharf", "name:mr": "\u092d\u093e\u090a\u091a\u093e \u0927\u0915\u094d\u0915\u093e", "public_transport": "station"}}, {"type": "node", "id": 6897787509, "lat": 19.1654284, "lon": 72.8501498}, {"type": "node", "id": 6984082429, "lat": 19.0219372, "lon": 73.0184835}, {"type": "node", "id": 6984082430, "lat": 19.0224474, "lon": 73.0189917}, {"type": "node", "id": 6984082431, "lat": 19.0224786, "lon": 73.0178775}, {"type": "node", "id": 6984082432, "lat": 19.0229922, "lon": 73.0183821}, {"type": "node", "id": 7018006485, "lat": 18.9398641, "lon": 72.8354116, "tags": {"int_name": "Victoria Terminus", "name": "Chhatrapati Shivaji Maharaj Terminus - CSMT", "name:en": "Chhatrapati Shivaji Maharaj Terminus - CSMT", "name:hi": "\u091b\u0924\u094d\u0930\u092a\u0924\u093f \u0936\u093f\u0935\u093e\u091c\u0940 \u092e\u0939\u093e\u0930\u093e\u091c \u091f\u0930\u094d\u092e\u093f\u0928\u0938", "name:ml": "\u0d1b\u0d24\u0d4d\u0d30\u0d2a\u0d24\u0d3f \u0d36\u0d3f\u0d35\u0d3e\u0d1c\u0d3f \u0d2e\u0d39\u0d3e\u0d30\u0d3e\u0d1c\u0d4d \u0d1f\u0d46\u0d7c\u0d2e\u0d3f\u0d28\u0d38\u0d4d", "name:mr": "\u091b\u0924\u094d\u0930\u092a\u0924\u0940 \u0936\u093f\u0935\u093e\u091c\u0940 \u092e\u0939\u093e\u0930\u093e\u091c \u091f\u0930\u094d\u092e\u093f\u0928\u0938", "name:ur": "\u0686\u06be\u062a\u0631\u067e\u062a\u06cc \u0634\u06cc\u0648\u0627\u062c\u06cc \u0645\u06c1\u0627\u0631\u0627\u062c \u0679\u0631\u0645\u06cc\u0646\u0633", "operator": "CR", "public_transport": "station", "railway": "station", "ref": "CSMT", "tourism": "attraction", "wikidata": "Q235884", "wikipedia": "en:Chhatrapati Shivaji Terminus"}}, {"type": "node", "id": 7021435149, "lat": 19.0149253, "lon": 73.0152975, "tags": {"barrier": "gate"}}, {"type": "node", "id": 7158649626, "lat": 19.1083713, "lon": 72.8265085}, {"type": "node", "id": 7158649628, "lat": 19.1078249, "lon": 72.8264921}, {"type": "node", "id": 7158649630, "lat": 19.1083646, "lon": 72.8266538}, {"type": "node", "id": 7158649634, "lat": 19.1084284, "lon": 72.8266388}, {"type": "node", "id": 7158649635, "lat": 19.1084355, "lon": 72.8265249}, {"type": "node", "id": 7461870585, "lat": 19.1183046, "lon": 72.905834}, {"type": "node", "id": 7655342132, "lat": 19.0631723, "lon": 72.9995339}, {"type": "node", "id": 7728028075, "lat": 19.0753974, "lon": 72.984427}, {"type": "node", "id": 7728274569, "lat": 19.0643198, "lon": 72.997429}, {"type": "node", "id": 7728274570, "lat": 19.0645676, "lon": 72.9980188}, {"type": "node", "id": 7728278705, "lat": 19.0637553, "lon": 72.9976968}, {"type": "node", "id": 7728278706, "lat": 19.0640029, "lon": 72.9982849}, {"type": "node", "id": 7728934351, "lat": 19.0688632, "lon": 72.9983522, "tags": {"amenity": "bus_station", "bus": "yes", "name": "Vashi", "public_transport": "station"}}, {"type": "node", "id": 7728934353, "lat": 19.0684274, "lon": 72.9962587, "tags": {"amenity": "bus_station", "bus": "yes", "name": "Vashi", "public_transport": "station"}}, {"type": "node", "id": 7731220339, "lat": 19.0464067, "lon": 73.0254382, "tags": {"amenity": "bus_station", "bus": "yes", "name": "Nerul L.P", "public_transport": "station"}}, {"type": "node", "id": 7731220342, "lat": 19.0470249, "lon": 73.0241739, "tags": {"amenity": "bus_station", "bus": "yes", "name": "Nerul L.P", "public_transport": "station"}}, {"type": "node", "id": 7772621107, "lat": 19.0571855, "lon": 73.0188631}, {"type": "node", "id": 7772621108, "lat": 19.0568281, "lon": 73.0188713}, {"type": "node", "id": 7780999997, "lat": 19.0746403, "lon": 72.9975344}, {"type": "node", "id": 7781000024, "lat": 19.0395088, "lon": 73.0197145}, {"type": "node", "id": 7817387343, "lat": 18.9700583, "lon": 72.8153563}, {"type": "node", "id": 7817387344, "lat": 18.9700507, "lon": 72.815582}, {"type": "node", "id": 7817387345, "lat": 18.9700064, "lon": 72.8156206}, {"type": "node", "id": 7817387346, "lat": 18.9699007, "lon": 72.8157303}, {"type": "node", "id": 7817387347, "lat": 18.9697219, "lon": 72.8157547}, {"type": "node", "id": 7817387348, "lat": 18.96972, "lon": 72.8155616}, {"type": "node", "id": 7817387349, "lat": 18.969695, "lon": 72.8154905}, {"type": "node", "id": 7817387350, "lat": 18.9695508, "lon": 72.8154864}, {"type": "node", "id": 7817387351, "lat": 18.9694278, "lon": 72.8155108}, {"type": "node", "id": 7817387352, "lat": 18.9695624, "lon": 72.8152994}, {"type": "node", "id": 7817387353, "lat": 18.9697873, "lon": 72.815117}, {"type": "node", "id": 7817387355, "lat": 18.970032, "lon": 72.8150759}, {"type": "node", "id": 7818210887, "lat": 19.1573236, "lon": 72.9993924}, {"type": "node", "id": 8123031512, "lat": 19.1638127, "lon": 72.8488301}, {"type": "node", "id": 8247795344, "lat": 19.0208929, "lon": 73.040302}, {"type": "node", "id": 8360488232, "lat": 18.9573602, "lon": 72.8475783, "tags": {"amenity": "ferry_terminal", "ferry": "yes", "name": "M2M Ro-Ro Terminal", "public_transport": "station"}}, {"type": "node", "id": 8360488234, "lat": 18.953769, "lon": 72.8464559, "tags": {"amenity": "ferry_terminal", "ferry": "yes", "name": "Angriya Water Terminal", "public_transport": "station"}}, {"type": "node", "id": 8360488244, "lat": 19.0016916, "lon": 73.0242154, "tags": {"amenity": "ferry_terminal", "ferry": "yes", "name": "Seawoods Water Terminal", "public_transport": "station"}}, {"type": "node", "id": 8366121927, "lat": 19.1788976, "lon": 72.9935299}, {"type": "node", "id": 8366121928, "lat": 19.1787252, "lon": 72.9942398}, {"type": "node", "id": 8366121929, "lat": 19.182047, "lon": 72.9951441}, {"type": "node", "id": 8366121930, "lat": 19.1822195, "lon": 72.9944335}, {"type": "node", "id": 8366121931, "lat": 19.1802885, "lon": 72.9942858, "tags": {"construction": "station", "name": "Digha", "public_transport": "station", "railway": "construction", "train": "yes"}}, {"type": "node", "id": 8366126761, "lat": 19.0021588, "lon": 73.0239409}, {"type": "node", "id": 8443491298, "lat": 19.0513418, "lon": 72.8688982}, {"type": "node", "id": 8443491299, "lat": 19.0513762, "lon": 72.8688598}, {"type": "node", "id": 8443491300, "lat": 19.0516407, "lon": 72.8684982}, {"type": "node", "id": 8467842286, "lat": 19.1209753, "lon": 72.8481013}, {"type": "node", "id": 8467842287, "lat": 19.1200515, "lon": 72.8495577}, {"type": "node", "id": 8467842288, "lat": 19.1198999, "lon": 72.84945}, {"type": "node", "id": 8467842289, "lat": 19.1208236, "lon": 72.8479935}, {"type": "node", "id": 8476017849, "lat": 19.2288377, "lon": 72.9659277}, {"type": "node", "id": 8476017850, "lat": 19.2288168, "lon": 72.965989}, {"type": "node", "id": 8476017851, "lat": 19.2288776, "lon": 72.9660122}, {"type": "node", "id": 8490881433, "lat": 19.186709, "lon": 72.9756741}, {"type": "node", "id": 8537895380, "lat": 19.1918095, "lon": 72.9757131, "tags": {"amenity": "ferry_terminal", "ferry": "yes", "public_transport": "station"}}, {"type": "node", "id": 8643703263, "lat": 19.1382949, "lon": 72.787049, "tags": {"amenity": "ferry_terminal", "ferry": "yes", "public_transport": "station"}}, {"type": "node", "id": 8820651813, "lat": 19.0226111, "lon": 73.0177292}, {"type": "node", "id": 8878071393, "lat": 19.117818, "lon": 72.9061264}, {"type": "node", "id": 8878071394, "lat": 19.1177471, "lon": 72.9058742}, {"type": "node", "id": 8878071395, "lat": 19.1177293, "lon": 72.9057267}, {"type": "node", "id": 8878071396, "lat": 19.1177496, "lon": 72.905547}, {"type": "node", "id": 8878071397, "lat": 19.1184592, "lon": 72.9062497}, {"type": "node", "id": 8878071398, "lat": 19.1179675, "lon": 72.9064697}, {"type": "node", "id": 9019341403, "lat": 18.9692676, "lon": 72.8212076}, {"type": "node", "id": 9139946982, "lat": 19.0960226, "lon": 72.8279603, "tags": {"barrier": "entrance"}}, {"type": "node", "id": 9139966583, "lat": 19.0962978, "lon": 72.8274384, "tags": {"barrier": "entrance"}}, {"type": "node", "id": 9141521957, "lat": 19.1388628, "lon": 72.8083842}, {"type": "node", "id": 9141521959, "lat": 19.1393131, "lon": 72.8082351}, {"type": "node", "id": 9141521961, "lat": 19.1393952, "lon": 72.808517, "tags": {"barrier": "gate"}}, {"type": "node", "id": 9332158973, "lat": 19.0328181, "lon": 73.017595}, {"type": "node", "id": 9332158974, "lat": 19.032881, "lon": 73.0175236}, {"type": "node", "id": 9332158975, "lat": 19.0345939, "lon": 73.0176859}, {"type": "node", "id": 9332158976, "lat": 19.0343599, "lon": 73.0176021}, {"type": "node", "id": 9332158977, "lat": 19.034385, "lon": 73.0187282}, {"type": "node", "id": 9332158978, "lat": 19.0343065, "lon": 73.0187932}, {"type": "node", "id": 9332158979, "lat": 19.0328523, "lon": 73.0187389}, {"type": "node", "id": 9332158980, "lat": 19.0327712, "lon": 73.0186559}, {"type": "node", "id": 9347970555, "lat": 19.0631375, "lon": 72.9994406}, {"type": "node", "id": 9348416630, "lat": 19.0571847, "lon": 73.0188221}, {"type": "node", "id": 9350085458, "lat": 19.062787, "lon": 72.9986195}, {"type": "node", "id": 9383394432, "lat": 19.0019247, "lon": 73.0239611}, {"type": "node", "id": 9383394433, "lat": 19.0019459, "lon": 73.0242449}, {"type": "node", "id": 9383394434, "lat": 19.0021809, "lon": 73.0242264}, {"type": "node", "id": 9383394435, "lat": 19.0020717, "lon": 73.0243401}, {"type": "node", "id": 9383394436, "lat": 19.002158, "lon": 73.024285}, {"type": "node", "id": 9383394437, "lat": 19.0021216, "lon": 73.0243196}, {"type": "node", "id": 9383394438, "lat": 19.001967, "lon": 73.024296}, {"type": "node", "id": 9383394439, "lat": 19.0020127, "lon": 73.0243322}, {"type": "node", "id": 9383394454, "lat": 19.0057193, "lon": 73.0337642, "tags": {"amenity": "ferry_terminal", "ferry": "yes", "name": "Belapur Water Terminal", "public_transport": "station"}}, {"type": "node", "id": 9608304661, "lat": 19.0231439, "lon": 73.0182124}, {"type": "node", "id": 9627118208, "lat": 19.2506981, "lon": 72.8666664, "tags": {"name": "Dahisar (East) [Line 7]", "name:mr": "\u0926\u0939\u093f\u0938\u0930 (\u092a\u0942\u0930\u094d\u0935)", "public_transport": "station", "railway": "station", "station": "subway", "subway": "yes"}}, {"type": "node", "id": 9627118209, "lat": 19.2517331, "lon": 72.8673322, "tags": {"name": "Dahisar (East) [Line 2]", "name:mr": "\u0926\u0939\u093f\u0938\u0930 (\u092a\u0942\u0930\u094d\u0935)", "public_transport": "station", "railway": "station", "station": "subway", "subway": "yes"}}, {"type": "node", "id": 9629564097, "lat": 19.1693864, "lon": 72.8587848, "tags": {"name": "Aarey", "name:mr": "\u0906\u0930\u0947 \u0930\u094b\u0921 \u091c\u0902\u0915\u094d\u0936\u0928", "public_transport": "station", "railway": "station", "station": "subway", "subway": "yes", "wikidata": "Q116271881"}}, {"type": "node", "id": 9629564098, "lat": 19.179763, "lon": 72.8582574, "tags": {"name": "Dindoshi", "name:mr": "\u0926\u093f\u0902\u0921\u094b\u0936\u0940", "public_transport": "station", "railway": "station", "station": "subway"}}, {"type": "node", "id": 9629564099, "lat": 19.1873024, "lon": 72.858393, "tags": {"alt_name": "Pushpa Park", "name": "Kurar Village", "name:mr": "\u0915\u0941\u0930\u093e\u0930 \u0917\u093e\u0935 / \u092a\u0941\u0937\u094d\u092a\u093e \u092a\u093e\u0930\u094d\u0915", "public_transport": "station", "railway": "station", "station": "subway", "subway": "yes"}}, {"type": "node", "id": 9629564100, "lat": 19.1981585, "lon": 72.8604905, "tags": {"alt_name": "Akurli", "name": "Bandongri", "name:mr": "\u092c\u093e\u0923\u0921\u094b\u0902\u0917\u0930\u0940 / \u0906\u0915\u0941\u0930\u094d\u0932\u0940", "public_transport": "station", "railway": "station", "station": "subway", "subway": "yes"}}, {"type": "node", "id": 9629564101, "lat": 19.203535, "lon": 72.8630775, "tags": {"alt_name": "Poisar", "name": "Mahindra & Mahindra", "name:mr": "\u092e\u0939\u093f\u0902\u0926\u094d\u0930\u093e \u0906\u0923\u093f \u092e\u0939\u093f\u0902\u0926\u094d\u0930\u093e (\u092a\u094b\u0908\u0938\u0930)", "public_transport": "station", "railway": "station", "station": "subway", "subway": "yes"}}, {"type": "node", "id": 9629564102, "lat": 19.2167968, "lon": 72.8668012, "tags": {"name": "Magathane", "name:mr": "\u092e\u0917\u093e\u0920\u093e\u0923\u0947", "public_transport": "station", "railway": "station", "station": "subway", "subway": "yes"}}, {"type": "node", "id": 9629564103, "lat": 19.2240357, "lon": 72.8643251, "tags": {"name": "Devipada", "name:mr": "\u0926\u0947\u0935\u0940\u092a\u093e\u0921\u093e", "public_transport": "station", "railway": "station", "station": "subway", "subway": "yes"}}, {"type": "node", "id": 9629564104, "lat": 19.2348129, "lon": 72.8630608, "tags": {"name": "National Park", "name:mr": "\u0930\u093e\u0937\u094d\u091f\u094d\u0930\u0940\u092f \u0909\u0926\u094d\u092f\u093e\u0928", "network": "Mumbai Metro", "operator": "MMRDA", "public_transport": "station", "railway": "station", "station": "subway", "subway": "yes"}}, {"type": "node", "id": 9629564105, "lat": 19.2431487, "lon": 72.8641377, "tags": {"name": "Ovaripada", "name:mr": "\u0913\u0935\u0930\u0940\u092a\u093e\u0921\u093e", "network": "Mumbai Metro", "operator": "MMRDA", "public_transport": "station", "railway": "station", "station": "subway", "subway": "yes"}}, {"type": "node", "id": 9739285681, "lat": 19.0541605, "lon": 72.8398113}, {"type": "node", "id": 9812336620, "lat": 19.2476667, "lon": 72.8479863, "tags": {"amenity": "bus_station", "bus": "yes", "name": "IC colony", "public_transport": "station"}}, {"type": "node", "id": 9905573860, "lat": 19.0685093, "lon": 72.9961105}, {"type": "node", "id": 9905573861, "lat": 19.0682964, "lon": 72.996092}, {"type": "node", "id": 9905573863, "lat": 19.0684688, "lon": 72.9966314}, {"type": "node", "id": 9905573864, "lat": 19.0682575, "lon": 72.996613}, {"type": "node", "id": 10088731325, "lat": 19.0148841, "lon": 73.0152574, "tags": {"barrier": "gate"}}, {"type": "node", "id": 10243804620, "lat": 19.110765, "lon": 72.9287669}, {"type": "node", "id": 10243804621, "lat": 19.1106053, "lon": 72.9292685}, {"type": "node", "id": 10243804622, "lat": 19.1103595, "lon": 72.9294214}, {"type": "node", "id": 10257874073, "lat": 18.9207395, "lon": 72.8304103, "tags": {"amenity": "bus_station", "bus": "yes", "name": "Colaba Bus Depot", "public_transport": "station"}}, {"type": "node", "id": 10257903089, "lat": 19.0542081, "lon": 72.8397363}, {"type": "node", "id": 10257911200, "lat": 19.0135149, "lon": 72.820006, "tags": {"amenity": "bus_station", "bus": "yes", "name": "Worli Depot", "public_transport": "station"}}, {"type": "node", "id": 10257915994, "lat": 19.2213614, "lon": 72.8663787, "tags": {"amenity": "bus_station", "name": "Magathane Bus Depot"}}, {"type": "node", "id": 10257947691, "lat": 19.1836961, "lon": 72.8357077, "tags": {"amenity": "bus_station", "bus": "yes", "name": "Malad Depot", "public_transport": "station"}}, {"type": "node", "id": 10257959918, "lat": 19.2137227, "lon": 72.8507146, "tags": {"amenity": "bus_station", "name": "Poisar Bus Depot"}}, {"type": "node", "id": 10260963836, "lat": 19.0926614, "lon": 72.9012801}, {"type": "node", "id": 10260963837, "lat": 19.092619, "lon": 72.9014034}, {"type": "node", "id": 10261216906, "lat": 19.1677839, "lon": 72.9319078, "tags": {"amenity": "bus_station", "name": "Amar Nagar"}}, {"type": "node", "id": 10261220747, "lat": 19.1084891, "lon": 72.9011482, "tags": {"alt_name": "Chandivli", "amenity": "bus_station", "name": "Sangharsh Nagar"}}, {"type": "node", "id": 10261228661, "lat": 19.0934529, "lon": 72.8557692, "tags": {"amenity": "bus_station", "bus": "yes", "name": "Domestic Airport Terminal 1", "public_transport": "station"}}, {"type": "node", "id": 10262941455, "lat": 19.1730327, "lon": 72.956718}, {"type": "node", "id": 10262941456, "lat": 19.1725716, "lon": 72.9562486}, {"type": "node", "id": 10262941457, "lat": 19.1729838, "lon": 72.9567718}, {"type": "node", "id": 10263048889, "lat": 19.1440747, "lon": 72.9382315}, {"type": "node", "id": 10263048890, "lat": 19.1443218, "lon": 72.9376736}, {"type": "node", "id": 10263048891, "lat": 19.1441496, "lon": 72.9382686}, {"type": "node", "id": 10263048892, "lat": 19.1443966, "lon": 72.9377107}, {"type": "node", "id": 10265836855, "lat": 19.139135, "lon": 72.8942844}, {"type": "node", "id": 10265836856, "lat": 19.1392997, "lon": 72.8944078}, {"type": "node", "id": 10265836857, "lat": 19.1392617, "lon": 72.8945366}, {"type": "node", "id": 10265836858, "lat": 19.1390666, "lon": 72.8945929}, {"type": "node", "id": 10265836859, "lat": 19.1389399, "lon": 72.8943542}, {"type": "node", "id": 10266211975, "lat": 19.0844049, "lon": 72.9068547}, {"type": "node", "id": 10266211976, "lat": 19.084851, "lon": 72.9076593}, {"type": "node", "id": 10266211977, "lat": 19.0844331, "lon": 72.9068372}, {"type": "node", "id": 10266211978, "lat": 19.0848793, "lon": 72.9076418}, {"type": "node", "id": 10267208087, "lat": 19.1007285, "lon": 72.8445616, "tags": {"amenity": "bus_station", "bus": "yes", "name": "Vile Parle Station (E)", "public_transport": "station"}}, {"type": "node", "id": 10276589075, "lat": 19.1203675, "lon": 72.9385892}, {"type": "node", "id": 10276589076, "lat": 19.1206538, "lon": 72.9387447}, {"type": "node", "id": 10276589077, "lat": 19.1207932, "lon": 72.9385328}, {"type": "node", "id": 10276589078, "lat": 19.1204562, "lon": 72.9384121}, {"type": "node", "id": 10276589079, "lat": 19.110694, "lon": 72.9276887, "tags": {"amenity": "bus_station", "name": "Vikhroli Station (W)"}}, {"type": "node", "id": 10278496036, "lat": 19.1954854, "lon": 72.9707704}, {"type": "node", "id": 10278496041, "lat": 19.1952104, "lon": 72.9706586}, {"type": "node", "id": 10278496043, "lat": 19.1952258, "lon": 72.9704444}, {"type": "node", "id": 10278496044, "lat": 19.1952664, "lon": 72.9704565}, {"type": "node", "id": 10278496045, "lat": 19.1953094, "lon": 72.9703036}, {"type": "node", "id": 10278496046, "lat": 19.1955235, "lon": 72.9703613}, {"type": "node", "id": 10278496047, "lat": 19.1951752, "lon": 72.9706442}, {"type": "node", "id": 10301879102, "lat": 19.111858, "lon": 72.8677478}, {"type": "node", "id": 10306082433, "lat": 19.0597534, "lon": 72.9012095}, {"type": "node", "id": 10306082434, "lat": 19.0601376, "lon": 72.9010163}, {"type": "node", "id": 10306082435, "lat": 19.0600862, "lon": 72.9010141}, {"type": "node", "id": 10306082436, "lat": 19.0600822, "lon": 72.9012169}, {"type": "node", "id": 10306082437, "lat": 19.0597574, "lon": 72.9010067}, {"type": "node", "id": 10576622687, "lat": 19.1145125, "lon": 72.8551556, "tags": {"name": "Gundavali", "name:mr": "\u0917\u0941\u0902\u0926\u0935\u0932\u0940", "public_transport": "station", "railway": "station", "station": "subway", "subway": "yes"}}, {"type": "node", "id": 10576622712, "lat": 19.1284512, "lon": 72.8553126, "tags": {"name": "Mogra", "name:mr": "\u092e\u094b\u0917\u0930\u093e", "public_transport": "station", "railway": "station", "station": "subway", "subway": "yes"}}, {"type": "node", "id": 10576622721, "lat": 19.1429737, "lon": 72.855068, "tags": {"name": "Jogeshwari East", "name:mr": "\u091c\u094b\u0917\u0947\u0936\u094d\u0935\u0930\u0940 \u092a\u0942\u0930\u094d\u0935", "public_transport": "station", "railway": "station", "station": "subway", "subway": "yes"}}, {"type": "node", "id": 10576622722, "lat": 19.1524364, "lon": 72.8564445, "tags": {"name": "Goregaon East", "name:mr": "\u0917\u094b\u0930\u0947\u0917\u093e\u0935 \u092a\u0942\u0930\u094d\u0935", "public_transport": "station", "railway": "station", "station": "subway", "subway": "yes"}}, {"type": "node", "id": 10576726748, "lat": 19.1291432, "lon": 72.8314162, "tags": {"name": "Andheri West", "name:mr": "\u0905\u0902\u0927\u0947\u0930\u0940 \u092a\u0936\u094d\u091a\u093f\u092e", "public_transport": "station", "railway": "station", "station": "subway", "subway": "yes"}}, {"type": "node", "id": 10576726751, "lat": 19.140715, "lon": 72.8316124, "tags": {"name": "Lower Oshiwara", "name:mr": "\u0932\u094b\u0905\u0930 \u0913\u0936\u093f\u0935\u0930\u093e", "public_transport": "station", "railway": "station", "station": "subway", "subway": "yes"}}, {"type": "node", "id": 10576726756, "lat": 19.1460024, "lon": 72.8339597, "tags": {"name": "Oshiwara", "name:mr": "\u0913\u0936\u093f\u0935\u093e\u0930\u093e", "public_transport": "station", "railway": "station", "station": "subway", "subway": "yes"}}, {"type": "node", "id": 10576726757, "lat": 19.1530219, "lon": 72.8356233, "tags": {"name": "Goregaon West", "name:mr": "\u0917\u094b\u0930\u0947\u0917\u093e\u0935 \u092a\u0936\u094d\u091a\u093f\u092e", "public_transport": "station", "railway": "station", "station": "subway", "subway": "yes"}}, {"type": "node", "id": 10576726760, "lat": 19.162369, "lon": 72.8348196, "tags": {"name": "Pahadi Goregaon", "name:mr": "\u092a\u0939\u093e\u0921\u0940 \u0917\u094b\u0930\u0947\u0917\u093e\u0935", "public_transport": "station", "railway": "station", "station": "subway", "subway": "yes", "wikidata": "Q116188743"}}, {"type": "node", "id": 10576726761, "lat": 19.173127, "lon": 72.8364213, "tags": {"name": "Lower Malad", "name:mr": "\u0932\u094b\u0905\u0930 \u092e\u093e\u0932\u093e\u0921", "public_transport": "station", "railway": "station", "station": "subway", "subway": "yes", "wikidata": "Q116188743"}}, {"type": "node", "id": 10576726762, "lat": 19.1852888, "lon": 72.835808, "tags": {"name": "Malad West", "name:mr": "\u092e\u093e\u0932\u093e\u0921 \u092a\u0936\u094d\u091a\u093f\u092e", "public_transport": "station", "railway": "station", "station": "subway", "subway": "yes", "wikidata": "Q116188743"}}, {"type": "node", "id": 10576726763, "lat": 19.1968293, "lon": 72.8337752, "tags": {"name": "Valnai", "name:mr": "\u0935\u0933\u0928\u0908", "public_transport": "station", "railway": "station", "station": "subway", "subway": "yes", "wikidata": "Q116188743"}}, {"type": "node", "id": 10696453281, "lat": 19.0615949, "lon": 72.8503559}, {"type": "node", "id": 10696453282, "lat": 19.0618314, "lon": 72.8505564}, {"type": "node", "id": 10696453283, "lat": 19.06173, "lon": 72.850728}, {"type": "node", "id": 10832119728, "lat": 19.0628312, "lon": 72.9974953}, {"type": "node", "id": 10832119729, "lat": 19.0627908, "lon": 72.9974882}, {"type": "node", "id": 10832119730, "lat": 19.0627843, "lon": 72.9974963}, {"type": "node", "id": 10832119731, "lat": 19.062783, "lon": 72.9975302}, {"type": "node", "id": 10832119732, "lat": 19.0631503, "lon": 72.9976833}, {"type": "node", "id": 10832119733, "lat": 19.0631708, "lon": 72.9977116}, {"type": "node", "id": 10832119734, "lat": 19.0631245, "lon": 72.9977507}, {"type": "node", "id": 10832119735, "lat": 19.0628155, "lon": 72.9986778}, {"type": "node", "id": 10832119736, "lat": 19.062967, "lon": 72.9994442}, {"type": "node", "id": 10832119737, "lat": 19.0631184, "lon": 72.9993847}, {"type": "node", "id": 10878535985, "lat": 19.0812297, "lon": 72.8420119}, {"type": "node", "id": 10878535986, "lat": 19.0814446, "lon": 72.8425929}, {"type": "node", "id": 11277161561, "lat": 19.2416748, "lon": 72.8466958}, {"type": "node", "id": 11277161562, "lat": 19.2418233, "lon": 72.8466444}, {"type": "node", "id": 11290713019, "lat": 19.2397903, "lon": 72.8427326}, {"type": "node", "id": 11290713020, "lat": 19.2410311, "lon": 72.8439074}, {"type": "node", "id": 11290713021, "lat": 19.2408615, "lon": 72.8441113}, {"type": "node", "id": 11290713022, "lat": 19.2396155, "lon": 72.8429311}, {"type": "node", "id": 11335491946, "lat": 19.0190075, "lon": 73.0391304, "tags": {"addr:city": "Navi Mumbai", "addr:postcode": "400614", "name": "CBD Belapur", "name:mr": "\u0938\u0940 \u092c\u0940 \u0921\u0940 \u092c\u0947\u0932\u093e\u092a\u0942\u0930", "network": "Mumbai Suburban Railway Network", "operator": "Central Railways", "platforms": "4", "public_transport": "station", "railway": "station", "ref": "BEPR", "train": "yes", "wheelchair": "limited", "wikidata": "Q5009065", "wikipedia": "en:CBD Belapur railway station"}}, {"type": "node", "id": 11335491947, "lat": 19.0205999, "lon": 73.0402663, "tags": {"name": "CBD Belapur", "name:mr": "\u0938\u0940 \u092c\u0940 \u0921\u0940 \u092c\u0947\u0932\u093e\u092a\u0942\u0930", "network": "Navi Mumbai Metro", "operator": "CIDCO", "public_transport": "station", "railway": "station", "station": "subway", "subway": "yes"}}, {"type": "node", "id": 11335491948, "lat": 19.0229846, "lon": 73.0479433, "tags": {"name": "Sector 7", "name:mr": "\u0938\u0947\u0915\u094d\u091f\u0930 7", "network": "Navi Mumbai Metro", "operator": "CIDCO", "public_transport": "station", "railway": "station", "station": "subway", "subway": "yes"}}, {"type": "node", "id": 11451459511, "lat": 19.0434662, "lon": 72.8643372, "tags": {"amenity": "bus_station", "name": "Rani Lakshmi Chowk"}}, {"type": "way", "id": 27036772, "nodes": [296357673, 296357688, 9139946982, 296357695, 9139966583, 296357706, 296357673], "tags": {"amenity": "bus_station", "area": "yes", "bus": "yes", "name": "Juhu Chowpati Bus Station", "name:hi": "\u091c\u0941\u0939\u0942 \u091a\u094c\u092a\u093e\u091f\u0940 \u092c\u0938 \u0938\u094d\u0925\u093e\u0928\u0915", "public_transport": "station"}}, {"type": "way", "id": 28848080, "nodes": [317164439, 2175054154, 6174538674, 6078180234, 317164440, 6174538672, 6174538673, 317164441, 2176830128, 2175054181, 6078180229, 6078180230, 2175054183, 6078180231, 6078180232, 2175054185, 6174539220, 2175054164, 1234802605, 2175658360, 1234802678, 317164438, 2175658359, 317164439], "tags": {"addr:city": "Mumbai", "addr:postcode": "400001", "addr:street": "Dr Dadabhai Naoroji Road", "building": "train_station", "internet_access": "wlan", "internet_access:ssid": "RailWire Wi-Fi", "name": "Mumbai CSMT (Suburban)", "name:hi": "\u092e\u0941\u0902\u092c\u0908 \u0938\u0940\u090f\u0938\u090f\u092e\u091f\u0940 (\u0909\u092a\u0928\u0917\u0930\u0940\u092f)", "name:ur": "\u0645\u0645\u0628\u0626\u06cc \u0633\u06cc \u0627\u06cc\u0633 \u0627\u06cc\u0645 \u0679\u06cc \u0679\u0631\u0645\u06cc\u0646\u0644", "network": "Mumbai Suburban Rail Network", "operator": "Central Railways", "public_transport": "station", "railway": "station", "ref": "CSMT", "station": "subway", "train": "yes", "wheelchair": "yes", "wikidata": "Q235884", "wikipedia": "en:Chhatrapati Shivaji Terminus railway station"}}, {"type": "way", "id": 39092819, "nodes": [467145475, 467145478, 467145477, 467145476, 467145475], "tags": {"amenity": "bus_station", "source": "GPS"}}, {"type": "way", "id": 42441498, "nodes": [529858572, 529858573, 529858574, 529858575, 529858576, 529858572], "tags": {"amenity": "bus_station", "bus": "yes", "public_transport": "station", "wheelchair": "limited"}}, {"type": "way", "id": 49685673, "nodes": [631563649, 9019341403, 2178030646, 631563645, 631563647, 2178030645, 2178030653, 631563662, 631563649], "tags": {"amenity": "bus_station", "bus": "yes", "name": "Mumbai Central Bus Station", "operator": "MSRTC", "public_transport": "station"}}, {"type": "way", "id": 55784552, "nodes": [700736553, 6293035155, 700736519, 700736522, 6293035154, 700736539, 700736553], "tags": {"building": "yes", "name": "Bhaucha Dhakka", "public_transport": "station"}}, {"type": "way", "id": 84832706, "nodes": [984976822, 5939253602, 984976823, 984976824, 984976826, 984976827, 5939253603, 8123031512, 984976822], "tags": {"amenity": "bus_station", "bus": "yes", "name": "Goregaon Bus Station (W)", "network": "Bus", "operator": "BEST", "public_transport": "station"}}, {"type": "way", "id": 84832710, "nodes": [1167626071, 6897787509, 4611114419, 984976840, 984976841, 3587701744, 3587701743, 1167626071], "tags": {"addr:city": "Mumbai", "addr:postcode": "400063", "addr:street": "Jay Prakash Rd.No.1", "amenity": "bus_station", "building": "service", "bus": "yes", "internet_access": "no", "name": "Goregaon Bus Station East", "operator": "BEST", "public_transport": "station"}}, {"type": "way", "id": 102652995, "nodes": [1185566280, 4883158968, 1185566277, 1185566278, 4883158971, 4883158976, 1185566281, 1185566280], "tags": {"amenity": "bus_station", "name": "SEEPZ Bus Station", "operator": "BEST"}}, {"type": "way", "id": 121371138, "nodes": [2567639531, 2568668651, 1359116334, 2567639532, 1359116336, 1359116345, 1359116333, 2568668654, 2567639533, 5911695107, 2568668653, 2568668652, 2567639531], "tags": {"amenity": "bus_station", "bus": "yes", "internet_access": "terminal", "name": "Anushakti Nagar Bus Stand", "operator": "BEST", "public_transport": "station", "wheelchair": "yes"}}, {"type": "way", "id": 131950445, "nodes": [1451804415, 1451804436, 1451804427, 1451804433, 1451804417, 1451804435, 1451804424, 1451804415], "tags": {"amenity": "bus_station", "internet_access:fee": "no", "name": "Ghatkopar Bus Terminus", "operator": "BEST"}}, {"type": "way", "id": 151205149, "nodes": [1640287858, 3175794783, 3175794782, 3175794781, 1640287856, 1640287839, 1640287837, 1640287834, 1640287841, 1640287845, 1640287843, 1640287858], "tags": {"building": "transportation", "layer": "1", "name": "Ghatkopar", "name:mr": "\u0918\u093e\u091f\u0915\u094b\u092a\u0930", "network": "Mumbai Metro", "operator": "Mumbai Metro One", "public_transport": "station", "railway": "station", "station": "subway", "subway": "yes"}}, {"type": "way", "id": 151766056, "nodes": [1646037468, 1646037470, 1646037471, 1646037469, 1646037468], "tags": {"amenity": "bus_station", "building": "yes", "bus": "yes", "internet_access": "no", "name": "Prabhodankar Thakre Charkop Bus Station", "operator": "BEST", "public_transport": "station"}}, {"type": "way", "id": 151768155, "nodes": [4819976537, 4819976536, 4819976533, 1646070358, 1646070361, 4819976530, 4819976535, 4819976534, 4819976531, 1646070373, 1646070367, 1646070365, 1646070355, 7655342132, 9347970555, 10832119737, 10832119736, 1646070353, 10832119735, 1646070347, 9350085458, 1646070346, 10832119731, 10832119730, 10832119729, 1646070350, 10832119728, 1646070348, 1646070351, 10832119732, 10832119733, 10832119734, 4819976532, 4819976537], "tags": {"addr:city": "Navi Mumbai", "addr:postcode": "400703", "addr:street": "Vashi Station Road", "building": "office", "building:levels": "7", "internet_access": "wlan", "internet_access:ssid": "RailWire Wi-Fi", "layer": "1", "name": "Vashi", "network": "Mumbai Suburban Railway Network", "operator": "Central Railways", "platforms": "4", "public_transport": "station", "railway": "station", "ref": "VSH", "train": "yes", "wheelchair": "limited", "wikidata": "Q7916505", "wikipedia": "en:Vashi railway station"}}, {"type": "way", "id": 151769149, "nodes": [1646085908, 5556203760, 5556203759, 1646085879, 5556203758, 5725817199, 5753961350, 5556203765, 1646085899, 5556203764, 5556203763, 1646085913, 5556203762, 338318837, 5725817198, 5556203761, 1646085908], "tags": {"addr:city": "Navi Mumbai", "addr:postcode": "400706", "addr:street": "Sanpada Station Road", "building": "retail", "internet_access": "yes", "layer": "1", "name": "Sanpada", "network": "Mumbai Suburban Railway Network", "operator": "Central Railways", "platforms": "4", "public_transport": "station", "railway": "station", "ref": "SNCR", "train": "yes", "wheelchair": "limited", "wikidata": "Q7418902", "wikipedia": "en:Sanpada railway station"}}, {"type": "way", "id": 151818593, "nodes": [1646644305, 1646644309, 1646644308, 1646644306, 1646644305], "tags": {"amenity": "bus_station", "building": "yes", "bus": "yes", "layer": "-1", "name": "P.Thakre Bus Station", "network": "BEST Undertaking", "operator": "BEST Undertaking", "public_transport": "station", "wikidata": "Q916927", "wikimedia_commons": "Category:Brihanmumbai Electric Supply and Transport", "wikipedia": "en:Brihanmumbai Electric Supply and Transport"}}, {"type": "way", "id": 151829677, "nodes": [1646746587, 1646746584, 2131111970, 1646746572, 1646746579, 1646746583, 1646746587], "tags": {"addr:housename": "JVPD Bus Depot", "addr:street": "New Link Road", "amenity": "bus_station", "bus": "yes", "name": "JVPD Bus Station", "operator": "BEST", "public_transport": "station"}}, {"type": "way", "id": 151847079, "nodes": [1646859016, 1646859017, 4583595691, 1646859014, 1646859016], "tags": {"addr:postcode": "400095", "amenity": "bus_station", "name:en": "Malvani Bus Depot", "operator": "BEST"}}, {"type": "way", "id": 151866533, "nodes": [1647048874, 1647048872, 1647086072, 1647048870, 8490881433, 1647086130, 1647048883, 1647048882, 1647048877, 1647048893, 1647048896, 1647048900, 1647048908, 2250251324, 1647048906, 1647048904, 1647048902, 1647048901, 1647048876, 1647048873, 1647048874], "tags": {"amenity": "bus_station", "bus": "yes", "level": "1", "man_made": "bridge", "name": "Thane Station (W)", "operator": "TMT", "public_transport": "station"}}, {"type": "way", "id": 151866565, "nodes": [4335224851, 630670124, 4335224857, 1647048910, 1647048911, 4335224851], "tags": {"addr:postcode": "400601", "addr:street": "Station Road", "bus": "yes", "industrial": "depot", "landuse": "industrial", "name:en": "Thane Bus Depot", "operator": "MSRTC", "public_transport": "station"}}, {"type": "way", "id": 198565173, "nodes": [2086912564, 2086912565, 2086912570, 2130342932, 2086912574, 2130342985, 2086912573, 2086912566, 2086912563, 2086912564], "tags": {"addr:housename": "7 Bungalows Bus Depot", "addr:postcode": "400061", "amenity": "bus_station", "bus": "yes", "name": "7 Bungalows Bus Depot", "public_transport": "station"}}, {"type": "way", "id": 207430186, "nodes": [2176850670, 2176850668, 6170656892, 2176850641, 2176850610, 2176850608, 2176850637, 2176850644, 2176850666, 2176850670], "tags": {"internet_access": "no", "name": "Masjid", "name:hi": "\u092e\u0938\u094d\u091c\u093f\u0926", "name:ml": "\u0d2e\u0d38\u0d4d\u0d1c\u0d3f\u0d26\u0d4d", "name:mr": "\u092e\u0938\u094d\u091c\u093f\u0926", "name:ur": "\u0645\u0633\u062c\u062f", "network": "IR", "operator": "CR", "public_transport": "station", "railway": "station", "ref": "MSD", "train": "yes", "wikidata": "Q12445809", "wikipedia": "en:Masjid railway station"}}, {"type": "way", "id": 207489559, "nodes": [2177429579, 2177429582, 2177429587, 2177429592, 628635780, 628635784, 628635797, 628635799, 2177429584, 2177429580, 2177429579], "tags": {"amenity": "bus_station", "bus": "yes", "public_transport": "station"}}, {"type": "way", "id": 220311101, "nodes": [2294457676, 2294457669, 2294457670, 2294457671, 2294457672, 2294457673, 2294457674, 2294457676], "tags": {"amenity": "bus_station", "name": "Tardeo"}}, {"type": "way", "id": 235944246, "nodes": [2440235103, 2440235100, 2440235099, 2440235105, 2440235111, 2440235107, 2440235104, 2440235103], "tags": {"amenity": "bus_station", "name": "Mulund Check Naka"}}, {"type": "way", "id": 235988235, "nodes": [2440630057, 2440630061, 2440630039, 7780999997, 2440630043, 2440630057], "tags": {"amenity": "bus_station", "bus": "yes", "construction": "yes", "name": "Vashi Bus Depot", "operator": "NMMT", "public_transport": "station"}}, {"type": "way", "id": 236210010, "nodes": [1642954361, 1642954365, 2442705655, 1642954369, 1642954361], "tags": {"addr:city": "Mumbai", "addr:street": "Anik Road", "amenity": "bus_station", "amenity_1": "parking", "bus": "yes", "name": "Inter State Bus Terminal-ISBT", "operator": "MMRDA", "public_transport": "station"}}, {"type": "way", "id": 236594134, "nodes": [2446139765, 2446139770, 2446139789, 2446139782, 2446139765], "tags": {"amenity": "bus_station", "bus": "yes", "name": "Asiad MSRTC Stand", "public_transport": "station"}}, {"type": "way", "id": 237027559, "nodes": [2449757420, 2449757421, 2449757418, 2449757414, 2449757420], "tags": {"amenity": "bus_station", "bus": "yes", "name": "Bandra Reclamation Bus Depot", "operator": "BEST", "public_transport": "station"}}, {"type": "way", "id": 258361639, "nodes": [2637273699, 2637273692, 2637273689, 2637273695, 2637273699], "tags": {"amenity": "bus_station", "building": "yes", "bus": "yes", "landuse": "retail", "name": "Bus Agencies", "public_transport": "station"}}, {"type": "way", "id": 260798115, "nodes": [2663548283, 2663548265, 4583595290, 2663548266, 2663548283], "tags": {"addr:postcode": "400005", "addr:street": "Captain Prakash Pethe Marg", "amenity": "bus_station", "bus": "yes", "name": "Backbay Depot", "name:en": "Backbay Bus Depot", "network": "BEST", "operator": "BEST", "public_transport": "station", "website": "https://bestundertaking.com/", "wikidata": "Q916927", "wikimedia_commons": "Category:Brihanmumbai Electric Supply and Transport", "wikipedia": "en:Brihanmumbai Electric Supply and Transport"}}, {"type": "way", "id": 287299861, "nodes": [2909186532, 2909186519, 3175794849, 3175794848, 2909186505, 6249730789, 2909186522, 3175794850, 3175794851, 6249729383, 2909186532], "tags": {"building": "transportation", "layer": "1", "name": "Versova", "name:mr": "\u0935\u0930\u094d\u0938\u094b\u0935\u093e", "network": "Mumbai Metro", "operator": "MMRDA", "public_transport": "station", "railway": "station", "station": "subway", "subway": "yes", "wikidata": "Q17264777", "wikipedia": "en:Versova metro station"}}, {"type": "way", "id": 287299866, "nodes": [2909184661, 2909184658, 2909184654, 2909184657, 2909184661], "tags": {"building": "transportation", "layer": "1", "name": "D.N. Nagar", "name:mr": "\u0921\u0940. \u090f\u0928. \u0928\u0917\u0930", "public_transport": "station", "railway": "station", "station": "subway", "subway": "yes", "wikidata": "Q17512769"}}, {"type": "way", "id": 288596878, "nodes": [2921502996, 2921502997, 2921502998, 2921502999, 2921502996], "tags": {"amenity": "bus_station", "bus": "yes", "name": "Koparkhairane NMMT Bus Station", "operator": "NMMT", "public_transport": "station", "wheelchair": "yes"}}, {"type": "way", "id": 311841874, "nodes": [3175794846, 3708879338, 3175794847, 6235803038, 3175794842, 3708879335, 3175794841, 3175794840, 3175794839, 3708879334, 3175794838, 6235803044, 6235803039, 3175794843, 245671397, 3175794844, 3175794846], "tags": {"building": "transportation", "layer": "1", "name": "Airport Road", "name:mr": "\u0935\u093f\u092e\u093e\u0928\u0924\u0933 \u0930\u0938\u094d\u0924\u093e", "network": "Mumbai Metro", "operator": "Mumbai Metro One", "public_transport": "station", "railway": "station", "station": "subway", "subway": "yes", "wikidata": "Q18109449", "wikipedia": "en:Airport Road metro station"}}, {"type": "way", "id": 311841875, "nodes": [3175794817, 10260963836, 3175794813, 10260963837, 3175794816, 3175794810, 3175794808, 3175794807, 3175794809, 3175794802, 3175794803, 3175794805, 3175794806, 3175794811, 5477703684, 3175794812, 3175794815, 3175794814, 3175794820, 3175794824, 3175794827, 5477703685, 3175794826, 3175794823, 3175794819, 3175794818, 2244961757, 3175794817], "tags": {"building": "transportation", "name": "Jagruti Nagar", "name:mr": "\u091c\u093e\u0917\u0943\u0924\u0940 \u0928\u0917\u0930", "network": "Mumbai Metro", "operator": "Mumbai Metro One", "public_transport": "station", "railway": "station", "station": "subway", "subway": "yes", "wikidata": "Q18126164", "wikipedia": "en:Jagruti Nagar metro station"}}, {"type": "way", "id": 311841876, "nodes": [3175794836, 3708878217, 3175794837, 6235809308, 6235809312, 3175794832, 3708879290, 3175794831, 3175794829, 3708879286, 3175794828, 6235809313, 6235809309, 3175794833, 3708879298, 3175794834, 3175794836], "tags": {"building": "transportation", "elevation": "1", "layer": "1", "name": "Marol Naka", "name:mr": "\u092e\u0930\u094b\u0933 \u0928\u093e\u0915\u093e", "network": "Mumbai Metro", "operator": "Mumbai Metro One", "public_transport": "station", "railway": "station", "station": "subway", "subway": "yes", "wikidata": "Q18127858", "wikipedia": "en:Marol Naka metro station"}}, {"type": "way", "id": 318034227, "nodes": [3243945320, 11277161561, 3243945321, 3243945322, 3243945323, 11277161562, 3243945320], "tags": {"amenity": "bus_station", "bus": "yes", "name": "Shanti Ashram Bus Depo", "operator": "BEST", "public_transport": "station"}}, {"type": "way", "id": 319831104, "nodes": [3263024865, 3263024866, 3263024867, 3263024868, 3263024865], "tags": {"amenity": "bus_station", "name": "Lokmanya Nagar Bus Depot"}}, {"type": "way", "id": 320659668, "nodes": [3272793153, 3272793154, 3272793155, 3272793156, 3272793153], "tags": {"addr:city": "Mulund (East)", "addr:postcode": "400081", "amenity": "bus_station", "name": "MHADA Bus Station", "operator": "BEST"}}, {"type": "way", "id": 331815667, "nodes": [3389153373, 3389153368, 3389153361, 3389153366, 3389153373], "tags": {"building": "transportation", "layer": "1", "name": "Azad Nagar", "name:mr": "\u0906\u091d\u093e\u0926 \u0928\u0917\u0930", "public_transport": "station", "railway": "station", "station": "subway", "subway": "yes"}}, {"type": "way", "id": 331815671, "nodes": [3389153295, 3803783969, 3803783966, 3389150492, 4686237243, 3389150485, 3803783820, 3803783823, 3389150490, 3389153295], "tags": {"building": "transportation", "layer": "1", "name": "Western Express Highway", "name:mr": "\u092a\u0936\u094d\u091a\u093f\u092e \u0926\u094d\u0930\u0941\u0924\u0917\u0924\u0940 \u092e\u0939\u093e\u092e\u093e\u0930\u094d\u0917", "public_transport": "station", "railway": "station", "station": "subway", "subway": "yes"}}, {"type": "way", "id": 331824153, "nodes": [3389210788, 3389210783, 10301879102, 3389210779, 3389210782, 3389210788], "tags": {"building": "transportation", "layer": "1", "name": "Chakala - J.B. Nagar", "name:mr": "\u091a\u0915\u093e\u0932\u093e - \u091c\u0947. \u092c\u0940. \u0928\u0917\u0930", "public_transport": "station", "railway": "station", "station": "subway", "subway": "yes"}}, {"type": "way", "id": 331824155, "nodes": [3389210711, 3708877809, 3389210708, 3389210702, 3708877805, 3389210707, 6235813596, 6235813594, 3389210711], "tags": {"building": "transportation", "layer": "1", "name": "Saki Naka", "name:mr": "\u0938\u093e\u0915\u0940 \u0928\u093e\u0915\u093e", "public_transport": "station", "railway": "station", "station": "subway", "subway": "yes"}}, {"type": "way", "id": 331827626, "nodes": [3389250247, 5242233618, 620011899, 3389250243, 3389250239, 3708865594, 5242233619, 3389250242, 6025235827, 3389250247], "tags": {"building": "transportation", "layer": "1", "name": "Asalpha", "name:mr": "\u0905\u0938\u0932\u094d\u092b\u093e", "public_transport": "station", "railway": "station", "station": "subway", "subway": "yes"}}, {"type": "way", "id": 339531325, "nodes": [4328161652, 4328161663, 4328161666, 3467509194, 4328161656, 4328161652], "tags": {"amenity": "bus_station", "bus": "yes", "name": "Bandra East", "operator": "BEST", "public_transport": "station"}}, {"type": "way", "id": 354253892, "nodes": [3600058059, 3600058058, 3600058056, 3600058057, 3600058053, 3600058052, 3600058051, 3600058054, 3600058055, 3600058059], "tags": {"aerialway": "station", "building": "yes", "name": "airpot", "public_transport": "station"}}, {"type": "way", "id": 354451786, "nodes": [3601815999, 3601815998, 6984082429, 6984082431, 8820651813, 5530797459, 6056810036, 9608304661, 6050910707, 6984082432, 6056810041, 6984082430, 6056810038, 3601815999], "tags": {"addr:city": "Navi Mumbai", "addr:postcode": "400706", "addr:street": "Seawoods Station Road", "alt_name": "Seawoods-Darave", "building": "commercial", "building:levels": "2", "elevation": "3", "internet_access": "yes", "layer": "1", "level": "2", "name": "Seawoods", "network": "Mumbai Suburban Railway Network", "operator": "Central Railways", "platforms": "4", "public_transport": "station", "railway": "station", "ref": "SWDV", "train": "yes", "wheelchair": "yes", "wikidata": "Q3632540", "wikipedia": "en:Seawoods\u2013Darave railway station"}}, {"type": "way", "id": 384528522, "nodes": [3878413337, 3878413331, 3878413325, 3878413326, 3878413329, 3878413332, 3878413333, 3878413337], "tags": {"amenity": "bus_station", "bus": "yes", "name": "Andheri West", "public_transport": "station"}}, {"type": "way", "id": 384538412, "nodes": [3878506010, 3878506018, 3878506017, 3878506019, 3878506011, 3878506003, 3878506010], "tags": {"amenity": "bus_station", "bus": "yes", "name": "Govandi Bus Depot", "public_transport": "station"}}, {"type": "way", "id": 395230147, "nodes": [3981413852, 2319149020, 2319149022, 2319149024, 3981413852], "tags": {"amenity": "bus_station", "name": "Shivaji Nagar Bus Depot"}}, {"type": "way", "id": 403646143, "nodes": [4059855420, 4059855421, 4264430462, 4264430460, 4059855422, 4264430469, 4059855423, 4264430477, 4059855420], "tags": {"amenity": "bus_station", "bus": "yes", "name": "Kurla West", "public_transport": "station"}}, {"type": "way", "id": 431427967, "nodes": [4306257488, 4306257485, 4306257486, 4306257487, 4306257488], "tags": {"amenity": "bus_station", "bus": "yes", "name": "Andheri East", "public_transport": "station"}}, {"type": "way", "id": 434887902, "nodes": [2435514152, 1392014190, 10257903089, 9739285681, 4328028082, 4328028081, 1392014189, 2435514152], "tags": {"amenity": "bus_station", "bus": "yes", "internet_access": "no", "internet_access:fee": "yes", "name": "Bandra Depot", "operator": "BEST", "public_transport": "station"}}, {"type": "way", "id": 486561072, "nodes": [4791543720, 4791543719, 4791543718, 4791543717, 4791543716, 4791543720], "tags": {"amenity": "bus_station"}}, {"type": "way", "id": 512487822, "nodes": [2439359855, 5010962560, 5010962561, 5010962562, 5010962564, 5010962565, 5010962566, 2439359851, 2439359850, 2439359855], "tags": {"amenity": "bus_station", "internet_access": "no", "name": "Vidyavihar (W)", "operator": "BEST"}}, {"type": "way", "id": 532665654, "nodes": [5168562566, 5168562571, 5168562572, 5168562573, 5168562565, 5168562566], "tags": {"amenity": "bus_station", "bus": "yes", "name": "ST Bus Stand - Khopat", "public_transport": "station"}}, {"type": "way", "id": 548961672, "nodes": [5388598579, 5466069077, 6651130795, 6029559152, 5303039622, 5466069082, 5303039623, 5466069081, 5303039624, 5466069080, 5303039625, 5466069079, 5303039626, 7021435149, 10088731325, 5466069078, 5388598580, 5388598579], "tags": {"addr:city": "Navi Mumbai", "addr:postcode": "400706", "addr:street": "Seawoods Main Road", "amenity": "bus_station", "barrier": "wall", "bench": "yes", "bus": "yes", "internet_access": "no", "name": "Seawoods Bus Station", "operator": "NMMT", "public_transport": "bus_station", "shelter": "public_transport", "wheelchair": "yes", "wikipedia": "en:NMMT"}}, {"type": "way", "id": 566064407, "nodes": [5450640606, 5450640607, 4137798803, 5548014416, 5450640608, 4137798801, 5450640606], "tags": {"amenity": "ferry_terminal", "building": "yes", "ferry": "yes", "name": "Sarovar Vihar (CBD Belapur)", "operator": "CIDCO", "public_transport": "station"}}, {"type": "way", "id": 566076849, "nodes": [206276727, 5450694466, 5450694467, 7728028075, 5450694468, 206276727], "tags": {"amenity": "ferry_terminal", "building": "yes", "ferry": "yes", "name": "Sagar Vihar (Vashi)", "operator": "CIDCO", "public_transport": "station"}}, {"type": "way", "id": 566513467, "nodes": [5455660662, 5455660663, 5455660664, 5455660665, 5455660662], "tags": {"amenity": "bus_station", "bus": "yes", "name": "Artist Colony Sector-8 Depot", "public_transport": "station"}}, {"type": "way", "id": 572630813, "nodes": [5501219611, 5501280537, 5501280534, 6050884341, 6050884340, 5501219612, 9332158980, 9332158979, 9332158978, 9332158977, 5501280533, 5501219613, 5501280532, 5501280531, 5501219614, 9332158975, 5501280530, 9332158976, 9332158974, 9332158973, 5501219611], "tags": {"addr:city": "Navi Mumbai", "addr:postcode": "400706", "addr:street": "Mata Amritanandamayi Marg", "building": "retail", "internet_access": "yes", "layer": "2", "name": "Nerul", "network": "Mumbai Suburban Railway Network", "operator": "Central Railways", "platforms": "6", "public_transport": "train_station", "railway": "station", "ref": "NEU", "train": "yes", "wheelchair": "limited", "wikidata": "Q15261704", "wikipedia": "en:Nerul railway station"}}, {"type": "way", "id": 574007908, "nodes": [5511120963, 5511120964, 5511120965, 5511120966, 5511120963], "tags": {"amenity": "bus_station", "bus": "yes", "name": "Vashi Sector-6 Bus Depot", "public_transport": "station"}}, {"type": "way", "id": 575018148, "nodes": [5518339331, 5518339332, 5518339333, 5518339334, 7781000024, 5518339336, 5518339335, 5518339331], "tags": {"amenity": "bus_station", "bus": "yes", "name": "Nerul Bus Station", "network": "NMMT", "public_transport": "station"}}, {"type": "way", "id": 575831949, "nodes": [5524542046, 5524542047, 5524542048, 5524542049, 5524542046], "tags": {"amenity": "bus_station", "bus": "yes", "name": "CBD Belapur Bus Station", "operator": "NMMT", "public_transport": "station"}}, {"type": "way", "id": 592381471, "nodes": [5653876821, 5653876822, 5653876823, 5653876824, 5653876821], "tags": {"amenity": "bus_station", "bus": "yes", "name": "Sanpada Railway Station", "operator": "NMMT", "public_transport": "station"}}, {"type": "way", "id": 603251681, "nodes": [5727445421, 4625570570, 5727445423, 5727445424, 5727445421], "tags": {"addr:city": "Navi Mumbai", "addr:postcode": "400708", "addr:street": "Airoli Station Road", "amenity": "bus_station", "bus": "yes", "name": "Airoli Bus Station", "operator": "NMMT", "public_transport": "station", "route_master": "bus"}}, {"type": "way", "id": 603568803, "nodes": [5729519924, 8247795344, 5729519925, 5729519926, 6045572053, 6045572041, 5729519924], "tags": {"amenity": "bus_station", "bus": "yes", "name": "Belapur Bus Depot", "operator": "NMMT", "public_transport": "station"}}, {"type": "way", "id": 603574291, "nodes": [3674854448, 3674854447, 5430685715, 5729558107, 5729558108, 3674854448], "tags": {"amenity": "bus_station", "bus": "yes", "name": "Sarsole Bus Station", "operator": "NMMT", "public_transport": "station"}}, {"type": "way", "id": 625837788, "nodes": [5908830227, 5908830226, 5908830225, 5908830224, 5908830223, 5908830222, 5908830221, 5908830227], "tags": {"amenity": "bus_station", "landuse": "garages", "name": "Antop Hill Bus Depot"}}, {"type": "way", "id": 626185287, "nodes": [5911635657, 3215236265, 5911635656, 10306082437, 10306082433, 10306082436, 10306082435, 10306082434, 5911635657], "tags": {"amenity": "bus_station", "bus": "yes", "name": "Dr. B. R. Ambedkar Udyan", "operator": "Brihanmumbai Electricity Supply & Transport (BEST)", "public_transport": "station", "website": "https://bestundertaking.com/"}}, {"type": "way", "id": 626938775, "nodes": [5918530690, 5918530689, 5918530692, 5918530691, 5918530690], "tags": {"addr:city": "Mumbai", "building": "yes", "construction": "train_station", "internet_access": "yes", "layer": "-1", "name": "Mumbai BKC", "public_transport": "station", "railway": "construction", "source": "Bullet Train India Mumbai-Ahmedabad Hi-Speed Rail Corridor", "train": "yes", "wikidata": "Q7260132", "wikipedia": "en:Mumbai\u2013Ahmedabad high-speed rail corridor"}}, {"type": "way", "id": 628785889, "nodes": [1648168306, 1648168298, 1648168303, 1648168305, 1648168306], "tags": {"amenity": "bus_station", "bus": "yes", "name": "Marol Maroshi", "public_transport": "station"}}, {"type": "way", "id": 629015650, "nodes": [985138250, 5938773119, 5938773118, 5938773117, 985138250], "tags": {"amenity": "bus_station", "name": "Dindoshi"}}, {"type": "way", "id": 642845770, "nodes": [6050884359, 6091712997, 6050884360, 6050884362, 6050884363, 6050884364, 6050884365, 6050884366, 6050884367, 6050884368, 6050884369, 6050884370, 6050884359], "tags": {"addr:city": "Navi Mumbai", "addr:postcode": "400706", "addr:street": "Juinagar Station Road", "alt_name": "Jui Nagar", "building": "retail", "internet_access": "yes", "layer": "1", "name": "Juinagar", "network": "Mumbai Suburban Railway Network", "operator": "Cental Railways", "platforms": "6", "public_transport": "station", "railway": "station", "ref": "JNJ", "train": "yes", "wheelchair": "limited", "wikidata": "Q15229831", "wikipedia": "en:Juinagar railway station"}}, {"type": "way", "id": 646769602, "nodes": [2175658360, 1234802678, 1234802668, 1234802647, 2175054093, 2175658360], "tags": {"addr:city": "Mumbai", "addr:postcode": "400001", "addr:street": "Dr Dadabhai Naoroji Road", "building": "train_station", "internet_access": "wlan", "internet_access:ssid": "RailWire Wi-Fi", "layer": "-1", "name": "Mumbai CSMT (Express)", "name:hi": "\u092e\u0941\u0902\u092c\u0908 \u0938\u0940\u090f\u0938\u090f\u092e\u091f\u0940 (\u090f\u0915\u094d\u0938\u092a\u094d\u0930\u0947\u0938)", "name:ur": "\u0645\u0645\u0628\u0626\u06cc \u0633\u06cc \u0627\u06cc\u0633 \u0627\u06cc\u0645 \u0679\u06cc \u0627\u06cc\u06a9\u0633\u067e\u0631\u06cc\u0633", "network": "CR", "operator": "Indian Railways", "public_transport": "station", "railway": "station", "train": "yes", "wheelchair": "yes"}}, {"type": "way", "id": 647133466, "nodes": [3554386358, 6078180249, 2163490649, 2163490646, 4063458444, 3554386358], "tags": {"amenity": "bus_station", "bus": "yes", "name": "CSMT Bus Station", "public_transport": "station"}}, {"type": "way", "id": 655144828, "nodes": [6138574122, 6138574123, 6138599546, 6138599548, 6138574126, 6138574127, 6138574128, 6138574129, 6144400145, 6144400144, 6138574132, 6138574133, 6138574122], "tags": {"addr:city": "Navi Mumbai", "addr:postcode": "400703", "addr:street": "Turbhe Station Road", "building": "train_station", "internet_access": "yes", "layer": "1", "name": "Turbhe", "network": "Mumbai Suburban Railway Network", "operator": "Central Railways", "platforms": "4", "public_transport": "station", "railway": "station", "ref": "TUH", "train": "yes", "wheelchair": "yes", "wikidata": "Q7853749", "wikipedia": "en:Turbhe railway station"}}, {"type": "way", "id": 655146730, "nodes": [6138592378, 6138592379, 6144401728, 6144401731, 6144401724, 6144401727, 6138592380, 7818210887, 6138592381, 6138592378], "tags": {"addr:city": "Navi Mumbai", "addr:postcode": "400708", "addr:street": "Airoli Station Road", "building": "train_station", "internet_access": "yes", "layer": "1", "name": "Airoli", "network": "Mumbai Suburban Railway Network", "operator": "Central Railways", "platforms": "2", "public_transport": "station", "railway": "station", "ref": "AIRL", "train": "yes", "wheelchair": "yes", "wikidata": "Q4698848", "wikipedia": "en:Airoli railway station"}}, {"type": "way", "id": 655530295, "nodes": [6141782769, 6141782770, 6141782771, 6141782772, 6141782769], "tags": {"addr:city": "Navi Mumbai", "addr:postcode": "400701", "addr:street": "Rabale Station Road", "building": "train_station", "internet_access": "yes", "layer": "1", "name": "Rabale", "network": "Mumbai Suburban Railway Network", "operator": "Central Railways", "platforms": "2", "public_transport": "station", "railway": "station", "ref": "RABE", "train": "yes", "wheelchair": "yes", "wikidata": "Q7278492", "wikipedia": "en:Rabale railway station"}}, {"type": "way", "id": 655530297, "nodes": [6141782773, 6141782774, 6144401635, 6144401638, 6144401639, 6144401642, 6141782775, 6141782776, 6141782773], "tags": {"addr:city": "Navi Mumbai", "addr:postcode": "400701", "addr:street": "Ghansoli Station Road", "building": "train_station", "internet_access": "yes", "layer": "1", "name": "Ghansoli", "network": "Mumbai Suburban Railway Network", "operator": "Central Railways", "platforms": "2", "public_transport": "station", "railway": "station", "ref": "GNSL", "train": "yes", "wheelchair": "yes", "wikidata": "Q5555617", "wikipedia": "en:Ghansoli railway station"}}, {"type": "way", "id": 655530301, "nodes": [6141782777, 6141782778, 6144401594, 6144401593, 6144401602, 6144401601, 6141782779, 6141782780, 6141782777], "tags": {"addr:city": "Navi Mumbai", "addr:postcode": "400709", "addr:street": "Koparkhairne Station Road", "building": "train_station", "internet_access": "yes", "layer": "1", "name": "Koparkhairne", "network": "Mumbai Suburban Railway Network", "operator": "Central Railways", "platforms": "2", "public_transport": "station", "railway": "station", "ref": "KPHN", "train": "yes", "wheelchair": "yes", "wikidata": "Q6431003", "wikipedia": "en:Kopar Khairane railway station"}}, {"type": "way", "id": 668257449, "nodes": [6257907252, 6257907253, 6257907254, 6257907255, 6257907256, 6257907252], "tags": {"addr:city": "Mumbai", "addr:housenumber": "SEEPZ VILLAGE", "addr:street": "Jogeshwari Vikhroli Link Road", "amenity": "bus_station", "building": "shed", "bus": "yes", "name": "SEEPZ Village Bus Stn(Temporary)", "operator": "BEST", "public_transport": "station"}}, {"type": "way", "id": 766478200, "nodes": [2392363986, 2392363987, 7158649630, 7158649634, 7158649635, 7158649626, 7158649628, 2392363986], "tags": {"amenity": "bus_station", "area": "yes", "bus": "yes", "name": "Juhu Bus Station", "public_transport": "station"}}, {"type": "way", "id": 827825796, "nodes": [7728278706, 7728278705, 7728274569, 7728274570, 7728278706], "tags": {"amenity": "bus_station", "building": "no", "bus": "yes", "name": "Vashi Railway Station", "operator": "NMMT", "public_transport": "station"}}, {"type": "way", "id": 832522808, "nodes": [6050884362, 9348416630, 7772621107, 7772621108, 6050884364, 6050884363, 6050884362], "tags": {"amenity": "bus_station", "bus": "yes", "name": "Juinagar Railway Station", "public_transport": "station"}}, {"type": "way", "id": 837580929, "nodes": [7817387343, 7817387344, 7817387345, 7817387346, 7817387347, 7817387348, 7817387349, 7817387350, 7817387351, 7817387352, 7817387353, 7817387355, 7817387343], "tags": {"amenity": "bus_station", "building": "yes", "bus": "yes", "internet_access": "no", "layer": "-1", "name": "Vasantrao Naik Chowk Tardeo Bus Station", "name:mr": "\u0935\u0938\u0902\u0924\u0930\u093e\u0935 \u0928\u093e\u0908\u0915 \u091a\u094c\u0915 \u0924\u093e\u0921\u0926\u0947\u0935 \u092c\u0938 \u0938\u094d\u0925\u093e\u0928\u0915", "network": "BEST", "operator": "BEST", "public_transport": "station", "website": "https://www.bestundertaking.com/", "wikidata": "Q916927", "wikimedia_commons": "Category:Brihanmumbai Electric Supply and Transport", "wikipedia": "en:Brihanmumbai Electric Supply and Transport"}}, {"type": "way", "id": 900607248, "nodes": [8366121927, 8366121928, 8366121929, 8366121930, 8366121927], "tags": {"building": "construction", "construction": "train_station", "landuse": "construction", "name": "Digha Railway Station", "public_transport": "station"}}, {"type": "way", "id": 909382854, "nodes": [8443491298, 5326816485, 2134892762, 2134892754, 8443491300, 8443491299, 8443491298], "tags": {"amenity": "bus_station", "name": "Chuna Bhatti"}}, {"type": "way", "id": 911875199, "nodes": [8467842289, 8467842286, 8467842287, 8467842288, 3389153309, 8467842289], "tags": {"building": "transportation", "description": "Andheri Metro Station", "layer": "1", "name": "Andheri", "name:mr": "\u0905\u0902\u0927\u0947\u0930\u0940", "public_transport": "station", "wikidata": "Q17512034", "wikipedia": "en:Andheri metro station"}}, {"type": "way", "id": 912422941, "nodes": [1643413995, 8476017849, 8476017850, 8476017851, 1643413995], "tags": {"amenity": "bus_station", "building": "yes", "bus": "yes", "name": "Pawar Nagar", "public_transport": "station", "wheelchair": "limited"}}, {"type": "way", "id": 959543436, "nodes": [8878071398, 8878071397, 7461870585, 8878071396, 8878071395, 8878071394, 8878071393, 8878071398], "tags": {"amenity": "bus_station", "name": "Hiranandani Powai"}}, {"type": "way", "id": 989056454, "nodes": [2130331525, 2130331619, 9141521957, 9141521959, 9141521961, 2130331525], "tags": {"amenity": "bus_station", "area": "yes", "bus": "yes", "name": "Vesave/Yari Road Bus Station", "operator": "BEST", "public_transport": "station"}}, {"type": "way", "id": 1017311981, "nodes": [9383394432, 9383394433, 9383394438, 9383394439, 9383394435, 9383394437, 9383394436, 9383394434, 8366126761, 9383394432], "tags": {"amenity": "ferry_terminal", "building": "yes", "ferry": "yes", "name": "Seawoods Ferry", "public_transport": "station"}}, {"type": "way", "id": 1080713426, "nodes": [9905573860, 9905573863, 9905573864, 9905573861, 9905573860], "tags": {"amenity": "bus_station", "building": "no", "bus": "yes", "name": "Vashi Highway", "public_transport": "station"}}, {"type": "way", "id": 1120016077, "nodes": [1644081912, 10243804622, 10243804621, 10243804620, 1644081912], "tags": {"amenity": "bus_station", "name": "Vikhroli Station (E)"}}, {"type": "way", "id": 1122104214, "nodes": [3235946459, 10262941456, 10262941455, 10262941457, 3235946459], "tags": {"amenity": "bus_station", "name": "Mulund Railway Station (W)", "operator": "BEST"}}, {"type": "way", "id": 1122111841, "nodes": [10263048892, 10263048890, 10263048889, 10263048891, 10263048892], "tags": {"amenity": "bus_station", "bus": "yes", "name": "Bhandup Railway Station (W)", "public_transport": "station"}}, {"type": "way", "id": 1122440948, "nodes": [10265836859, 10265836858, 10265836857, 10265836856, 10265836855, 10265836859], "tags": {"amenity": "bus_station", "name": "Filter Pada"}}, {"type": "way", "id": 1122483527, "nodes": [10266211978, 10266211976, 10266211975, 10266211977, 10266211978], "tags": {"amenity": "bus_station", "name": "Ghatkopar Railway Station (E)"}}, {"type": "way", "id": 1123726009, "nodes": [10276589078, 10276589077, 10276589076, 10276589075, 10276589078], "tags": {"amenity": "bus_station", "name": "Kannamwar Nagar"}}, {"type": "way", "id": 1123936751, "nodes": [10278496047, 10278496041, 10278496036, 1855429909, 10278496046, 10278496045, 10278496044, 10278496043, 10278496047], "tags": {"amenity": "bus_station", "name": "Vandana ST Bus Stand"}}, {"type": "way", "id": 1149824741, "nodes": [4328161816, 4328161818, 10696453283, 10696453282, 10696453281, 4328161816], "tags": {"amenity": "bus_station", "name": "Bandra Colony"}}, {"type": "way", "id": 1170043439, "nodes": [1392005863, 10878535986, 2623469264, 10878535985, 1392005863], "tags": {"amenity": "bus_station", "bus": "yes", "name": "Santa Cruz Station (E)", "public_transport": "station"}}, {"type": "way", "id": 1218500503, "nodes": [11290713019, 11290713020, 11290713021, 11290713022, 11290713019], "tags": {"building": "transportation", "public_transport": "station", "railway": "station", "station": "subway", "subway": "yes"}}]}