{"version": 0.6, "generator": "Overpass API 0.7.61.5 4133829e", "osm3s": {"timestamp_osm_base": "2024-02-25T09:34:44Z", "copyright": "The data included in this document is from www.openstreetmap.org. The data is made available under ODbL."}, "elements": [{"type": "node", "id": 7018056667, "lat": 26.8270831, "lon": 80.8660483, "tags": {"addr:district": "Lucknow", "addr:full": "No. 1-B, Bara Birwa,Kanpur Road", "addr:postcode": "226001", "addr:state": "Uttar Pradesh", "amenity": "hospital", "name": "Saroj Hospital and Research Centre", "source": "OpenGovernmentData"}}, {"type": "node", "id": 7027632374, "lat": 26.7389175, "lon": 80.8561633, "tags": {"addr:district": "Lucknow", "addr:full": "Scooter India Chauraha, Gauri Bazar", "addr:postcode": "226001", "addr:state": "Uttar Pradesh", "amenity": "hospital", "name": "Shyam Hospital and Research Center", "source": "OpenGovernmentData"}}, {"type": "node", "id": 7028065727, "lat": 26.7973043, "lon": 80.8852771, "tags": {"addr:district": "Lucknow", "addr:full": "M-62 Indra Lok Khishna Nagar", "addr:postcode": "226021", "addr:state": "Uttar Pradesh", "amenity": "clinic", "name": "Chandra Prabha Nursing Home", "source": "OpenGovernmentData"}}, {"type": "node", "id": 7510640708, "lat": 26.7411604, "lon": 80.8588224, "tags": {"addr:district": "Lucknow", "addr:full": "Kanpur - Lucknow Road, Hydil Colony, Gauri Bazar, Sarojini Nagar, Lucknow", "addr:postcode": "226008", "addr:state": "Uttar Pradesh", "amenity": "hospital", "name": "Om Hospital", "source": "Local Knowledge"}}, {"type": "node", "id": 7510640744, "lat": 26.7858387, "lon": 80.8855539, "tags": {"addr:district": "Lucknow", "addr:full": "Overhead Water Tank, Vijay Nagar Colony, Alambagh, Lucknow", "addr:postcode": "226023", "addr:state": "Uttar Pradesh", "amenity": "hospital", "name": "ESIC Hospital", "source": "Local Knowledge"}}, {"type": "node", "id": 7510640749, "lat": 26.7977709, "lon": 80.8869151, "tags": {"addr:district": "Lucknow", "addr:full": "Gopal Nagar, Krishna Nagar, Alambagh, Lucknow", "addr:postcode": "226023", "addr:state": "Uttar Pradesh", "amenity": "hospital", "name": "Silverline Hospital", "source": "Local Knowledge"}}, {"type": "node", "id": 7510640755, "lat": 26.7374437, "lon": 80.8595461, "tags": {"addr:district": "Lucknow", "addr:full": "Gauri, Kanpur - Lucknow Road, Bijnor Road, Sarojini Nagar, Lucknow", "addr:postcode": "226401", "addr:state": "Uttar Pradesh", "amenity": "hospital", "name": "Bajrang Hospital", "source": "Local Knowledge"}}, {"type": "node", "id": 7510640766, "lat": 26.7935391, "lon": 80.888399, "tags": {"addr:district": "Lucknow", "addr:full": "Manokanika Road, Vijay Nagar Colony, Krishna Nagar, Alambagh, Lucknow", "addr:postcode": "226005", "addr:state": "Uttar Pradesh", "amenity": "hospital", "name": "Eye Q Super Speciality Eye Hospital", "source": "Local Knowledge"}}, {"type": "node", "id": 7510640771, "lat": 26.8222844, "lon": 80.8731967, "tags": {"addr:district": "Lucknow", "addr:full": "Sundarkhera, Lucknow", "addr:postcode": "226009", "addr:state": "Uttar Pradesh", "amenity": "hospital", "name": "Kalyan Sewa Hospital Eye Centre", "source": "Local Knowledge"}}, {"type": "node", "id": 7510640785, "lat": 26.7928072, "lon": 80.8891023, "tags": {"addr:district": "Lucknow", "addr:full": "Vijay Nagar Colony, Krishna Nagar, Alambagh, Lucknow", "addr:postcode": "226023", "addr:state": "Uttar Pradesh", "amenity": "hospital", "name": "CMC Medical Centre", "source": "Local Knowledge"}}, {"type": "node", "id": 7510640799, "lat": 26.7980243, "lon": 80.8858923, "tags": {"addr:district": "Lucknow", "addr:full": "Indralok Market, Indralok Colony, Krishna Nagar, Alambagh, Lucknow", "addr:postcode": "226012", "addr:state": "Uttar Pradesh", "amenity": "hospital", "name": "Dr.Manju Pankaj Tripathi Diagnostics and Multi Speciality Hospital", "source": "Local Knowledge"}}, {"type": "node", "id": 10293938945, "lat": 26.8131925, "lon": 80.8863604}, {"type": "node", "id": 10293938946, "lat": 26.8136999, "lon": 80.8871866}, {"type": "node", "id": 10293938947, "lat": 26.8143477, "lon": 80.8866882}, {"type": "node", "id": 10293938948, "lat": 26.8139164, "lon": 80.8861368}, {"type": "node", "id": 10293938949, "lat": 26.8133819, "lon": 80.8858506}, {"type": "node", "id": 10293938950, "lat": 26.8132838, "lon": 80.886078}, {"type": "node", "id": 10293938951, "lat": 26.8134733, "lon": 80.8861463}, {"type": "way", "id": 1125702727, "nodes": [10293938945, 10293938946, 10293938947, 10293938948, 10293938949, 10293938950, 10293938951, 10293938945], "tags": {"building": "hospital", "name": "Railway Hospital"}}]}