{"version": 0.6, "generator": "Overpass API 0.7.61.5 4133829e", "osm3s": {"timestamp_osm_base": "2024-02-25T09:11:15Z", "copyright": "The data included in this document is from www.openstreetmap.org. The data is made available under ODbL."}, "elements": [{"type": "node", "id": 6981868168, "lat": 22.7081121, "lon": 72.6626784, "tags": {"addr:district": "Kheda", "addr:full": "Matar, Dt", "addr:postcode": "387530", "addr:state": "Gujarat", "amenity": "hospital", "name": "Sainath Hospital, Kheda", "source": "OpenGovernmentData"}}, {"type": "node", "id": 6981868173, "lat": 22.7081696, "lon": 72.6636004, "tags": {"addr:district": "Kheda", "addr:full": "Matar", "addr:postcode": "387530", "addr:state": "Gujarat", "amenity": "hospital", "name": "Gayatri Hospital, Kheda", "source": "OpenGovernmentData"}}, {"type": "node", "id": 6993868929, "lat": 22.7477252, "lon": 72.6876907, "tags": {"addr:district": "Kheda", "addr:full": "Referral Hospital/Samuhik Aarogya Kendra", "addr:postcode": "387411", "addr:state": "Gujarat", "amenity": "clinic", "healthcare": "centre", "name": "CHC, Kheda(Sub District Hospital)", "source": "OpenGovernmentData"}}, {"type": "node", "id": 7165606627, "lat": 22.7477434, "lon": 72.6871487, "tags": {"addr:district": "KHEDA", "addr:postcode": "387530", "addr:state": "Gujarat", "amenity": "hospital", "description": "Sub-District Hospital", "name": "Civil Hospital Kheda", "source": "OpenGovernmentData"}}, {"type": "node", "id": 7165606710, "lat": 22.7084441, "lon": 72.6642652, "tags": {"addr:district": "KHEDA", "addr:full": "Oppo. Taluka Panchayat Matar", "addr:postcode": "387530", "addr:state": "Gujarat", "addr:subdistrict": "Matar", "amenity": "hospital", "name": "Government Hospital Matar", "source": "OpenGovernmentData"}}]}