{"version": 0.6, "generator": "Overpass API 0.7.61.5 4133829e", "osm3s": {"timestamp_osm_base": "2024-02-25T09:34:44Z", "copyright": "The data included in this document is from www.openstreetmap.org. The data is made available under ODbL."}, "elements": [{"type": "node", "id": 2237677354, "lat": 26.8775675, "lon": 80.8710157}, {"type": "node", "id": 2237677486, "lat": 26.8780581, "lon": 80.8708845}, {"type": "node", "id": 2237819292, "lat": 26.876697, "lon": 80.8722238}, {"type": "node", "id": 2237819293, "lat": 26.8767178, "lon": 80.8716382}, {"type": "node", "id": 2237819299, "lat": 26.8768254, "lon": 80.8716751}, {"type": "node", "id": 2237819300, "lat": 26.8768491, "lon": 80.8708495}, {"type": "node", "id": 2237819364, "lat": 26.8777833, "lon": 80.8725486}, {"type": "node", "id": 2237819401, "lat": 26.8781459, "lon": 80.871039}, {"type": "node", "id": 2237819406, "lat": 26.878231, "lon": 80.8713444}, {"type": "node", "id": 2237819410, "lat": 26.8782431, "lon": 80.8715195}, {"type": "node", "id": 7018190225, "lat": 26.8507359, "lon": 80.8767825, "tags": {"addr:district": "Lucknow", "addr:full": "Khinni Chauraha,Alamnagar Road", "addr:postcode": "226001", "addr:state": "Uttar Pradesh", "amenity": "hospital", "name": "Sadbhavna Medical and Trauma Centre", "source": "OpenGovernmentData"}}, {"type": "node", "id": 7018944945, "lat": 26.8330813, "lon": 80.8755521, "tags": {"addr:district": "Lucknow", "addr:full": "Rajaji Puram", "addr:postcode": "226001", "addr:state": "Uttar Pradesh", "amenity": "clinic", "name": "Nav Jeevan Nursing Home", "source": "OpenGovernmentData"}}, {"type": "node", "id": 7020296952, "lat": 26.8417269, "lon": 80.8750592, "tags": {"addr:district": "Lucknow", "addr:full": "F-2314, Rajaji Puram", "addr:postcode": "226003", "addr:state": "Uttar Pradesh", "amenity": "clinic", "name": "Ankur Nursing Home", "source": "OpenGovernmentData"}}, {"type": "node", "id": 7021142006, "lat": 26.8401773, "lon": 80.8764888, "tags": {"addr:district": "Lucknow", "addr:full": "2025 - E Block, Near Dena Bank, Rajajipuram", "addr:postcode": "226017", "addr:state": "Uttar Pradesh", "amenity": "hospital", "name": "Eye-Q Super Speciality Eye Hospitals, Rajajipuram", "operator:type": "private", "source": "OpenGovernmentData", "website": "https://eyeqindia.com/"}}, {"type": "node", "id": 7031809505, "lat": 26.8488768, "lon": 80.8793008, "tags": {"addr:district": "Lucknow", "addr:full": "510-173-A, New Hydrabad", "addr:postcode": "226007", "addr:state": "Uttar Pradesh", "amenity": "clinic", "name": "Heramba Clinic", "source": "OpenGovernmentData"}}, {"type": "node", "id": 7035159322, "lat": 26.8499426, "lon": 80.8864076, "tags": {"addr:district": "Lucknow", "addr:full": "64, 65/1 Hig Lda Tikait Rai Talab , Mohaan Road , Rajajipuram", "addr:postcode": "226003", "addr:state": "Uttar Pradesh", "amenity": "hospital", "name": "National Hospital, Lucknow", "source": "OpenGovernmentData"}}, {"type": "node", "id": 7035561729, "lat": 26.8387091, "lon": 80.8879969, "tags": {"addr:district": "Lucknow", "addr:full": "C-1573, Rajajipuram Lucknow, Phillips Workshop Near Greenfield School", "addr:postcode": "226003", "addr:state": "Uttar Pradesh", "amenity": "clinic", "name": "Chirayu Matenity and Surgical Clinic", "source": "OpenGovernmentData"}}, {"type": "node", "id": 7037813506, "lat": 26.8784473, "lon": 80.8726466, "tags": {"addr:district": "Lucknow", "addr:full": "Sarfrazganj, Hardoi Road", "addr:postcode": "226003", "addr:state": "Uttar Pradesh", "amenity": "hospital", "name": "Eras Lucknow Medical College And Hospital - Lucknow", "source": "OpenGovernmentData"}}, {"type": "node", "id": 7204046392, "lat": 26.9243227, "lon": 80.7129224, "tags": {"addr:district": "Lucknow", "addr:full": "NEAR CANAL, KAHALA", "addr:postcode": "226302", "addr:state": "Uttar Pradesh", "addr:subdistrict": "Malihabad", "amenity": "hospital", "name": "Government. Hospital", "source": "OpenGovernmentData"}}, {"type": "node", "id": 7205722225, "lat": 26.9674614, "lon": 80.5979019, "tags": {"addr:district": "Lucknow", "addr:full": "Katra Tiraona", "addr:postcode": "209870", "addr:state": "Uttar Pradesh", "addr:subdistrict": "Jindaur", "amenity": "hospital", "description": "Government Hospital", "name": "Government Hospital Katra Tiraona", "source": "OpenGovernmentData"}}, {"type": "node", "id": 7510640713, "lat": 26.8532026, "lon": 80.8888975, "tags": {"addr:district": "Lucknow", "addr:full": "Matadeen Road, Near Kotwali, Saadatganj, Lucknow", "addr:postcode": "226003", "addr:state": "Uttar Pradesh", "amenity": "hospital", "name": "B Hope Hospital", "source": "Local Knowledge"}}, {"type": "node", "id": 7510640721, "lat": 26.8398712, "lon": 80.8885437, "tags": {"addr:district": "Lucknow", "addr:full": "C-1637, Block C, Rajajipuram, Lucknow", "addr:postcode": "226017", "addr:state": "Uttar Pradesh", "amenity": "hospital", "name": "Eye Hospital", "source": "Local Knowledge"}}, {"type": "node", "id": 7510640722, "lat": 26.8466405, "lon": 80.8852291, "tags": {"addr:district": "Lucknow", "addr:full": "Patthar Katta Masjid Road, New Haiderganj, Rajajipuram, Lucknow", "addr:postcode": "226017", "addr:state": "Uttar Pradesh", "amenity": "hospital", "name": "Sethi Hospital", "source": "Local Knowledge"}}, {"type": "node", "id": 7510640739, "lat": 26.918186, "lon": 80.885981, "tags": {"addr:district": "Lucknow", "addr:full": "Sitapur - Hardoi Bypass Road, Ghailla, Lucknow", "addr:postcode": "226020", "addr:state": "Uttar Pradesh", "amenity": "hospital", "name": "Career Institute Of Medical Sciences and Hospital", "source": "Local Knowledge"}}, {"type": "node", "id": 7510640741, "lat": 26.835048, "lon": 80.824775, "tags": {"addr:district": "Lucknow", "addr:full": "Narona", "addr:postcode": "226101", "addr:state": "Uttar Pradesh", "amenity": "hospital", "name": "Sun Hospital", "source": "Local Knowledge"}}, {"type": "node", "id": 7510640748, "lat": 26.847925, "lon": 80.866146, "tags": {"addr:district": "Lucknow", "addr:full": "Alamnagar Mohan Road, Ashok Vihar, Alamnagar, Rajajipuram, Lucknow", "addr:postcode": "226017", "addr:state": "Uttar Pradesh", "amenity": "hospital", "name": "Moon Hospital", "source": "Local Knowledge"}}, {"type": "node", "id": 7510640750, "lat": 26.8454545, "lon": 80.8746359, "tags": {"addr:district": "Lucknow", "addr:full": "Rajajipuram, Lucknow", "addr:postcode": "226017", "addr:state": "Uttar Pradesh", "amenity": "hospital", "name": "Sai Hospital", "source": "Local Knowledge"}}, {"type": "node", "id": 7510640757, "lat": 26.8398049, "lon": 80.8500146, "tags": {"addr:district": "Lucknow", "addr:full": "Mohan Road, Lucknow", "addr:postcode": "226017", "addr:state": "Uttar Pradesh", "amenity": "hospital", "name": "Buddheshwar Hospital", "source": "Local Knowledge"}}, {"type": "node", "id": 7510640760, "lat": 26.872571, "lon": 80.871309, "tags": {"addr:district": "Lucknow", "addr:full": "Hardoi Road, Near Safed Masjid, Dubagga, Lucknow", "addr:postcode": "226003", "addr:state": "Uttar Pradesh", "amenity": "hospital", "name": "Charak Hospital", "source": "Local Knowledge"}}, {"type": "node", "id": 7510640761, "lat": 26.8524846, "lon": 80.8580979, "tags": {"addr:district": "Lucknow", "addr:full": "Ring Road Masjid, Lala Bagh, Near Railway Crossing, Dubagga, Lucknow", "addr:postcode": "226017", "addr:state": "Uttar Pradesh", "amenity": "hospital", "name": "Hitech Hospital & Trauma Centre", "source": "Local Knowledge"}}, {"type": "node", "id": 7510640764, "lat": 26.8714561, "lon": 80.881432, "tags": {"addr:district": "Lucknow", "addr:full": "Campbell Road, Lakshman Vihar Colony, Karim Ganj, Lucknow", "addr:postcode": "226003", "addr:state": "Uttar Pradesh", "amenity": "hospital", "name": "Unique Hospital and Trauma Centre", "source": "Local Knowledge"}}, {"type": "node", "id": 7510640767, "lat": 26.872799, "lon": 80.8733019, "tags": {"addr:district": "Lucknow", "addr:full": "Sarfarazganj, Lucknow", "addr:postcode": "226003", "addr:state": "Uttar Pradesh", "amenity": "hospital", "name": "U.P. Hospital", "source": "Local Knowledge"}}, {"type": "node", "id": 7510640768, "lat": 26.835095, "lon": 80.8464471, "tags": {"addr:district": "Lucknow", "addr:full": "Pink City, Lucknow", "addr:postcode": "226017", "addr:state": "Uttar Pradesh", "amenity": "clinic", "name": "Agarwal Clinic", "source": "Local Knowledge"}}, {"type": "node", "id": 7510640772, "lat": 26.8376948, "lon": 80.8820987, "tags": {"addr:district": "Lucknow", "addr:full": "Block C, Rajajipuram, Lucknow", "addr:postcode": "226017", "addr:state": "Uttar Pradesh", "amenity": "hospital", "name": "Radha Hospital", "source": "Local Knowledge"}}, {"type": "node", "id": 7510640778, "lat": 26.8434488, "lon": 80.8600929, "tags": {"addr:district": "Lucknow", "addr:full": "Alamnagar Mohan Road, Budheshwar, Alamnagar, Rajajipuram, Lucknow", "addr:postcode": "226017", "addr:state": "Uttar Pradesh", "amenity": "hospital", "name": "India Hospital", "source": "Local Knowledge"}}, {"type": "node", "id": 7510640787, "lat": 26.8692909, "lon": 80.8802997, "tags": {"addr:district": "Lucknow", "addr:full": "Nishad Raj Marg, Near Ambedkar Park, Balaganj, Thakurganj, Baraura Hussain Bari, Lucknow", "addr:postcode": "226010", "addr:state": "Uttar Pradesh", "amenity": "hospital", "name": "Balaganj Hospital & Maternity Centre", "source": "Local Knowledge"}}, {"type": "node", "id": 7510640792, "lat": 26.8448193, "lon": 80.8521757, "tags": {"addr:district": "Lucknow", "addr:full": "Near A B Lawn, Dubagga-Kanpur Ring Road, Budheshwar, Lucknow", "addr:postcode": "226017", "addr:state": "Uttar Pradesh", "amenity": "hospital", "name": "Indus Hospital & Trauma Centre", "source": "Local Knowledge"}}, {"type": "node", "id": 7510640795, "lat": 26.8323498, "lon": 80.8782306, "tags": {"addr:district": "Lucknow", "addr:full": "Para Road, Ram Vihar Colony, Devpur, Rajajipuram, Lucknow", "addr:postcode": "226017", "addr:state": "Uttar Pradesh", "amenity": "hospital", "name": "Chandra Hospital, Rajajipuram", "source": "Local Knowledge"}}, {"type": "node", "id": 7510640800, "lat": 26.8382781, "lon": 80.876143, "tags": {"addr:district": "Lucknow", "addr:full": "Sabji Mandi, Block E, Rajajipuram, Lucknow", "addr:postcode": "226017", "addr:state": "Uttar Pradesh", "amenity": "hospital", "name": "Rajaji Puram Hospital and Maternity Research Centre", "source": "Local Knowledge"}}, {"type": "node", "id": 7510640810, "lat": 26.8504658, "lon": 80.8798797, "tags": {"addr:district": "Lucknow", "addr:full": "Near New Taxi Stand, Rajajipuram, Lucknow", "addr:postcode": "226017", "addr:state": "Uttar Pradesh", "amenity": "hospital", "name": "Khan Hospital", "source": "Local Knowledge"}}, {"type": "node", "id": 7510640811, "lat": 26.8498931, "lon": 80.8861973, "tags": {"addr:district": "Lucknow", "addr:full": "Tikait Rai Talaab, Mohan Road, Lda Colony, Lucknow", "addr:postcode": "226017", "addr:state": "Uttar Pradesh", "amenity": "hospital", "name": "Sana Hospital & Research Centre", "source": "Local Knowledge"}}, {"type": "node", "id": 10933384509, "lat": 26.8403918, "lon": 80.850167}, {"type": "node", "id": 10933384510, "lat": 26.8403727, "lon": 80.850108}, {"type": "node", "id": 10933384511, "lat": 26.8403169, "lon": 80.8501438}, {"type": "node", "id": 10933384512, "lat": 26.840336, "lon": 80.8502064}, {"type": "way", "id": 214190054, "nodes": [2237819364, 2237819410, 2237819406, 2237819401, 2237677486, 2237677354, 2237819300, 2237819293, 2237819299, 2237819292, 2237819364], "tags": {"amenity": "hospital"}}, {"type": "way", "id": 1176841295, "nodes": [10933384509, 10933384510, 10933384511, 10933384512, 10933384509], "tags": {"addr:housenumber": "2, Budheshwar, Lucknow, Uttar Pradesh 226017", "amenity": "clinic", "building": "yes", "healthcare": "clinic", "name": "New Sahara Polly Clinic"}}]}