{"version": 0.6, "generator": "Overpass API 0.7.61.5 4133829e", "osm3s": {"timestamp_osm_base": "2024-02-25T09:11:15Z", "copyright": "The data included in this document is from www.openstreetmap.org. The data is made available under ODbL."}, "elements": [{"type": "node", "id": 4330126136, "lat": 23.1764265, "lon": 72.5753408, "tags": {"addr:city": "Adalaj", "addr:postcode": "382421", "addr:street": "Ahmedabad-Kalol Highway", "amenity": "hospital", "emergency": "yes", "healthcare": "hospital", "healthcare:speciality": "clinic;general;physiotherapy;dental;ophthalmology;surgery;psychology;homeopathy;internal;vaccination", "name": "Amba Health Centre & Hospital", "operator": "Shree Simandhar Swami Aradhana Trust", "operator:type": "private", "phone": "(079)39830036/37", "start_date": "1 November 2002", "website": "https://www.ambahealthcentre.org/", "wheelchair": "yes"}}, {"type": "node", "id": 4477759676, "lat": 23.2406148, "lon": 72.5004199, "tags": {"addr:district": "Gandhinagar", "addr:full": "Yogi Complex, Mahendra Mill Road, Near J.P. Commercial Centre, Kalol", "addr:postcode": "382721", "addr:state": "Gujarat", "amenity": "clinic", "name": "Niral Heart and Medicare and Skin Clinic", "operator": "Dr Rajni Patel", "source": "OpenGovernmentData"}}, {"type": "node", "id": 4477788297, "lat": 23.2401161, "lon": 72.5010726, "tags": {"amenity": "hospital", "name": "Vinayak Orthopedic", "operator": "Dr Vinayak Oza"}}, {"type": "node", "id": 4477788814, "lat": 23.2407385, "lon": 72.5003548, "tags": {"amenity": "hospital", "name": "Dr Rajesh SHukla Hospital"}}, {"type": "node", "id": 4477791505, "lat": 23.2409219, "lon": 72.5000206, "tags": {"amenity": "hospital", "name": "Maruti Hospital Gynecologist", "operator": "Dr Chiman N Patel"}}, {"type": "node", "id": 6514790625, "lat": 23.1777399, "lon": 72.641066}, {"type": "node", "id": 6514790626, "lat": 23.1777137, "lon": 72.6412693}, {"type": "node", "id": 6514790627, "lat": 23.1771513, "lon": 72.6411748}, {"type": "node", "id": 6514790628, "lat": 23.1772038, "lon": 72.6407414}, {"type": "node", "id": 6514790629, "lat": 23.177389, "lon": 72.6407682}, {"type": "node", "id": 6514790630, "lat": 23.1773661, "lon": 72.6410143}, {"type": "node", "id": 6970533527, "lat": 23.2397411, "lon": 72.5008647, "tags": {"addr:district": "Gandhinagar", "addr:full": "Ice - Factory Cross Road, Mahendra Mill Road, Kalol (N.G.)", "addr:postcode": "382721", "addr:state": "Gujarat", "amenity": "hospital", "name": "Hemant Hospital and Maternity Home", "source": "OpenGovernmentData"}}, {"type": "node", "id": 6975458117, "lat": 23.239823, "lon": 72.4990569, "tags": {"addr:district": "Gandhinagar", "addr:full": "27,Shree Nagar , Opposite Milkamdar Society, Kalol", "addr:postcode": "382721", "addr:state": "Gujarat", "amenity": "hospital", "name": "Mahalaxmi General and Eye Hospital", "source": "OpenGovernmentData"}}, {"type": "node", "id": 6976044769, "lat": 23.2439523, "lon": 72.5045098, "tags": {"addr:district": "Gandhinagar", "addr:full": "1st Floor, Maruti Complex, Opposite Railway Station, Kalol", "addr:postcode": "382721", "addr:state": "Gujarat", "amenity": "hospital", "name": "Kuldeep Maternity and Surgical Hospital", "source": "OpenGovernmentData"}}, {"type": "node", "id": 6977604149, "lat": 23.2403073, "lon": 72.5004651, "tags": {"addr:district": "Gandhinagar", "addr:full": "Near Jain Wadi Vardhman Nagar Kalol", "addr:postcode": "382721", "addr:state": "Gujarat", "amenity": "hospital", "name": "Jawahar Children Hospital, Gandhinagar", "source": "OpenGovernmentData"}}, {"type": "node", "id": 6981501666, "lat": 23.1924861, "lon": 72.6132895, "tags": {"addr:district": "Gandhinagar", "addr:full": "166, Shopping Centre, Opposite Nigam Petrol Pump, Sector - 21", "addr:postcode": "382021", "addr:state": "Gujarat", "amenity": "hospital", "name": "Sanjivani Heart And Medical Hospital - Gandhinagar", "source": "OpenGovernmentData"}}, {"type": "node", "id": 6986279344, "lat": 23.167703, "lon": 72.5857745, "tags": {"addr:district": "GANDHINAGAR", "addr:full": "Balapi highway, Adalaj, Near post office", "addr:postcode": "382421", "addr:state": "Gujarat", "amenity": "hospital", "check_date": "2023-10-22", "healthcare": "centre", "name": "Government hospital Adalaj", "source": "OpenGovernmentData"}}, {"type": "node", "id": 6986279345, "lat": 23.16756, "lon": 72.5857139}, {"type": "node", "id": 6986279346, "lat": 23.16756, "lon": 72.5857859}, {"type": "node", "id": 6986279347, "lat": 23.1676176, "lon": 72.5857859}, {"type": "node", "id": 6986279348, "lat": 23.1676123, "lon": 72.585987}, {"type": "node", "id": 6986279349, "lat": 23.1677727, "lon": 72.5859851}, {"type": "node", "id": 6986279350, "lat": 23.1677902, "lon": 72.5855261}, {"type": "node", "id": 6986279351, "lat": 23.1676298, "lon": 72.5855242}, {"type": "node", "id": 6986279352, "lat": 23.1676245, "lon": 72.5857195}, {"type": "node", "id": 6987753044, "lat": 23.2423011, "lon": 72.4987971, "tags": {"addr:district": "Gandhinagar", "addr:full": "1, Vaibhav Complex Opp Mun Hospital Kalol Kalol", "addr:postcode": "382721", "addr:state": "Gujarat", "amenity": "hospital", "name": "Shraddha Hospital, Gandhinagar", "source": "OpenGovernmentData"}}, {"type": "node", "id": 7866803546, "lat": 23.2383163, "lon": 72.5015174, "tags": {"addr:district": "Gandhinagar", "addr:full": "Vardhaman Nagar, Kalol", "addr:postcode": "382721", "addr:state": "Gujarat", "amenity": "clinic", "name": "Ashok Clinic", "source": "Local Knowledge"}}, {"type": "node", "id": 7866803549, "lat": 23.2408269, "lon": 72.4994876, "tags": {"addr:district": "Gandhinagar", "addr:full": "Kalol", "addr:postcode": "382721", "addr:state": "Gujarat", "amenity": "hospital", "name": "My Life Hospital", "source": "Local Knowledge"}}, {"type": "node", "id": 7866803556, "lat": 23.2525385, "lon": 72.5028176, "tags": {"addr:district": "Gandhinagar", "addr:full": "Kalol", "addr:postcode": "382721", "addr:state": "Gujarat", "amenity": "clinic", "name": "Dr. Mahendra's Clinic", "source": "Local Knowledge"}}, {"type": "node", "id": 7866803558, "lat": 23.2411199, "lon": 72.5025964, "tags": {"addr:district": "Gandhinagar", "addr:full": "Kalol", "addr:postcode": "382721", "addr:state": "Gujarat", "amenity": "clinic", "name": "Krishna Skin Clinic kalol", "source": "Local Knowledge"}}, {"type": "node", "id": 7866803569, "lat": 23.2410536, "lon": 72.5026108, "tags": {"addr:district": "Gandhinagar", "addr:full": "Kalol", "addr:postcode": "382721", "addr:state": "Gujarat", "amenity": "dentist", "name": "Vatsalya Dental Care", "source": "Local Knowledge"}}, {"type": "node", "id": 7866803573, "lat": 23.246433, "lon": 72.5086122, "tags": {"addr:district": "Gandhinagar", "addr:full": "Kalol, Ahmedabad", "addr:postcode": "382721", "addr:state": "Gujarat", "amenity": "clinic", "name": "Sapana Clinic", "source": "Local Knowledge"}}, {"type": "node", "id": 7866803578, "lat": 23.2400076, "lon": 72.5011793, "tags": {"addr:district": "Gandhinagar", "addr:full": "Kalol", "addr:postcode": "382721", "addr:state": "Gujarat", "amenity": "hospital", "name": "Patel ENT Hospital", "source": "Local Knowledge"}}, {"type": "node", "id": 7866803579, "lat": 23.234974, "lon": 72.505868, "tags": {"addr:district": "Gandhinagar", "addr:full": "Kalol", "addr:postcode": "382721", "addr:state": "Gujarat", "amenity": "dentist", "name": "Vidhya Dental Clinic", "source": "Local Knowledge"}}, {"type": "node", "id": 7866803588, "lat": 23.2223753, "lon": 72.5071455, "tags": {"addr:district": "Gandhinagar", "addr:full": "Kalol", "addr:postcode": "382725", "addr:state": "Gujarat", "amenity": "hospital", "name": "Psm Hospital", "source": "Local Knowledge"}}, {"type": "node", "id": 7866803590, "lat": 23.2407523, "lon": 72.5001613, "tags": {"addr:district": "Gandhinagar", "addr:full": "Kalol", "addr:postcode": "382721", "addr:state": "Gujarat", "amenity": "dentist", "name": "Ivory Dental Care", "source": "Local Knowledge"}}, {"type": "node", "id": 7866803595, "lat": 23.2414544, "lon": 72.5030444, "tags": {"addr:district": "Gandhinagar", "addr:full": "Kalol", "addr:postcode": "382721", "addr:state": "Gujarat", "amenity": "dentist", "name": "Smile India Dental Clinic", "source": "Local Knowledge"}}, {"type": "node", "id": 7866803603, "lat": 23.2328095, "lon": 72.5003125, "tags": {"addr:district": "Gandhinagar", "addr:full": "Ambika Nagar, Kalol", "addr:postcode": "382721", "addr:state": "Gujarat", "amenity": "hospital", "name": "R K Shah Eye Hospital", "source": "Local Knowledge"}}, {"type": "node", "id": 7866803606, "lat": 23.240989, "lon": 72.503137, "tags": {"addr:district": "Gandhinagar", "addr:full": "Kalol", "addr:postcode": "382721", "addr:state": "Gujarat", "amenity": "hospital", "name": "Riddhi Siddhi Hospital", "source": "Local Knowledge"}}, {"type": "node", "id": 7866803610, "lat": 23.2426265, "lon": 72.5027125, "tags": {"addr:district": "Gandhinagar", "addr:full": "Kalol", "addr:postcode": "382721", "addr:state": "Gujarat", "amenity": "hospital", "name": "Parma Spine & Pain Hospital", "source": "Local Knowledge"}}, {"type": "node", "id": 7866803615, "lat": 23.2351913, "lon": 72.504865, "tags": {"addr:district": "Gandhinagar", "addr:full": "Kalol", "addr:postcode": "382721", "addr:state": "Gujarat", "amenity": "clinic", "name": "Somani Polyclinic", "source": "Local Knowledge"}}, {"type": "node", "id": 7867000242, "lat": 23.1779864, "lon": 72.6292954, "tags": {"addr:district": "Gandhinagar", "addr:full": "Kudasan", "addr:postcode": "382421", "addr:state": "Gujarat", "amenity": "dentist", "name": "Shreem Multispeciality Dental Clinic", "source": "Local Knowledge"}}, {"type": "node", "id": 7867000250, "lat": 23.179368, "lon": 72.633425, "tags": {"addr:district": "Gandhinagar", "addr:full": "Kudasan, Gandhinagar", "addr:postcode": "382421", "addr:state": "Gujarat", "amenity": "hospital", "name": "Sanjivani Babycare Hospital", "source": "Local Knowledge"}}, {"type": "node", "id": 7867000255, "lat": 23.178993, "lon": 72.629041, "tags": {"addr:district": "Gandhinagar", "addr:full": "Kudasan, Gandhinagar", "addr:postcode": "382421", "addr:state": "Gujarat", "amenity": "clinic", "name": "Anshul Homoeopathy Clinic", "source": "Local Knowledge"}}, {"type": "node", "id": 7867000261, "lat": 23.181673, "lon": 72.637304, "tags": {"addr:district": "Gandhinagar", "addr:full": "Urjanagar, Gandhinagar", "addr:postcode": "382007", "addr:state": "Gujarat", "amenity": "clinic", "name": "Shivam Clinic", "source": "Local Knowledge"}}, {"type": "node", "id": 7867000264, "lat": 23.1857862, "lon": 72.6217901, "tags": {"addr:district": "Gandhinagar", "addr:full": "Sargasan, Gandhinagar", "addr:postcode": "382421", "addr:state": "Gujarat", "amenity": "hospital", "name": "Aashka Multispeciality Hospitals", "source": "Local Knowledge"}}, {"type": "node", "id": 7867000272, "lat": 23.1898721, "lon": 72.6083933, "tags": {"addr:district": "Gandhinagar", "addr:full": "Gandhinagar", "addr:postcode": "382421", "addr:state": "Gujarat", "amenity": "clinic", "name": "Skin and Cosmetology Clinic", "source": "Local Knowledge"}}, {"type": "node", "id": 7867000276, "lat": 23.1691147, "lon": 72.6129583, "tags": {"addr:district": "Gandhinagar", "addr:full": "Por", "addr:postcode": "382421", "addr:state": "Gujarat", "amenity": "hospital", "name": "Vishwas Kamdhenu Panchgavya Aarogya Hospital", "source": "Local Knowledge"}}, {"type": "node", "id": 7867000278, "lat": 23.1761355, "lon": 72.6367501, "tags": {"addr:district": "Gandhinagar", "addr:full": "Kudasan, Gandhinagar", "addr:postcode": "382421", "addr:state": "Gujarat", "amenity": "clinic", "name": "Health Focus Physiotherapy Clinic", "source": "Local Knowledge"}}, {"type": "node", "id": 7867000282, "lat": 23.179407, "lon": 72.634087, "tags": {"addr:district": "Gandhinagar", "addr:postcode": "382421", "addr:state": "Gujarat", "amenity": "hospital", "name": "Vachhani Hospital", "source": "Local Knowledge"}}, {"type": "node", "id": 7867000291, "lat": 23.1794518, "lon": 72.6341251, "tags": {"addr:district": "Gandhinagar", "addr:full": "Kudasan", "addr:postcode": "382421", "addr:state": "Gujarat", "amenity": "dentist", "name": "Kroma Multispeciality Dental Clinic and Implant Centre", "source": "Local Knowledge"}}, {"type": "node", "id": 7867000299, "lat": 23.1616888, "lon": 72.5871116, "tags": {"addr:district": "Gandhinagar", "addr:postcode": "382421", "addr:state": "Gujarat", "amenity": "hospital", "name": "Om Prasuti Gruha Hospital", "source": "Local Knowledge"}}, {"type": "node", "id": 7867000305, "lat": 23.1946681, "lon": 72.6116722, "tags": {"addr:district": "Gandhinagar", "addr:full": "Sargasan, Gandhinagar", "addr:postcode": "382421", "addr:state": "Gujarat", "amenity": "dentist", "name": "Dr. Mansi's Dental Clinic and Implant Centre", "source": "Local Knowledge"}}, {"type": "node", "id": 7867000306, "lat": 23.178224, "lon": 72.636617, "tags": {"addr:district": "Gandhinagar", "addr:full": "Urjanagar, Kudasan, Gandhinagar", "addr:postcode": "382421", "addr:state": "Gujarat", "amenity": "clinic", "name": "Navkar Clinic & Health Care", "source": "Local Knowledge"}}, {"type": "node", "id": 9221706976, "lat": 23.1817847, "lon": 72.6280818, "tags": {"addr:city": "Kudasan", "addr:housenumber": "VTC", "addr:postcode": "382421", "addr:street": "Pandit Dindayal Upadhyay Marg", "amenity": "hospital", "healthcare": "hospital", "name": "Radhe Hospital", "operator": "Radhe", "operator:type": "private"}}, {"type": "node", "id": 9266900171, "lat": 23.1347336, "lon": 72.5410956}, {"type": "node", "id": 9266900172, "lat": 23.1354871, "lon": 72.5412278}, {"type": "node", "id": 9266900173, "lat": 23.135458, "lon": 72.5414549}, {"type": "node", "id": 9266900174, "lat": 23.1359285, "lon": 72.5415239}, {"type": "node", "id": 9266900175, "lat": 23.1358809, "lon": 72.5418718}, {"type": "node", "id": 9266900176, "lat": 23.1353232, "lon": 72.5417855}, {"type": "node", "id": 9266900177, "lat": 23.1352994, "lon": 72.5415872}, {"type": "node", "id": 9266900178, "lat": 23.1351117, "lon": 72.5415383}, {"type": "node", "id": 9266900179, "lat": 23.1350985, "lon": 72.5413572}, {"type": "node", "id": 9266900180, "lat": 23.1347125, "lon": 72.5412997}, {"type": "node", "id": 10839117487, "lat": 23.1354749, "lon": 72.5415625, "tags": {"addr:city": "Ahmedabad", "addr:postcode": "382421", "addr:street": "SG Highway", "amenity": "hospital", "description": "We provide the best gynecology services, infertility services, full term 9 months care, foetal care, breast clinic, maternity and obstetrics services, neonatal and pediatric care, and vaccination services all under one roof", "healthcare": "hospital", "healthcare:speciality": "gynaecology", "name": "KD Blossom", "phone": "7966770000", "website": "https://kdblossom.co.in/"}}, {"type": "way", "id": 693889233, "nodes": [6514790625, 6514790626, 6514790627, 6514790628, 6514790629, 6514790630, 6514790625], "tags": {"addr:city": "Randesan", "addr:postcode": "382421", "amenity": "hospital", "emergency": "yes", "healthcare": "hospital", "healthcare:speciality": "general;paediatrics;dentistry;orthopaedics;surgery;cardiology;radiology;physiatry;maternity;gynaecology;emergency", "name": "SMVS Hospital", "operator": "SMVS Sanstha"}}, {"type": "way", "id": 746534520, "nodes": [6986279352, 6986279351, 6986279350, 6986279349, 6986279348, 6986279347, 6986279346, 6986279345, 6986279352], "tags": {"building": "hospital"}}, {"type": "way", "id": 1004354570, "nodes": [9266900171, 9266900172, 9266900173, 9266900174, 9266900175, 9266900176, 9266900177, 9266900178, 9266900179, 9266900180, 9266900171], "tags": {"addr:city": "Ahmedabad", "addr:postcode": "382421", "addr:street": "S P Ring Road", "alt_name": "Kusum Dhirajlal Hospital", "building": "hospital", "name": "KD Hospital", "website": "https://kdhospital.co.in/"}}]}