{"version": 0.6, "generator": "Overpass API 0.7.61.5 4133829e", "osm3s": {"timestamp_osm_base": "2024-02-25T09:12:15Z", "copyright": "The data included in this document is from www.openstreetmap.org. The data is made available under ODbL."}, "elements": [{"type": "node", "id": 2376625760, "lat": 23.053882, "lon": 72.499022}, {"type": "node", "id": 2376625762, "lat": 23.0538538, "lon": 72.4992273}, {"type": "node", "id": 2376625764, "lat": 23.0536235, "lon": 72.4991901}, {"type": "node", "id": 2376625770, "lat": 23.0536516, "lon": 72.4989847}, {"type": "node", "id": 4488080693, "lat": 23.0724693, "lon": 72.3634999, "tags": {"addr:street": "Nana Viramgam", "amenity": "police"}}, {"type": "node", "id": 9009467533, "lat": 23.0314383, "lon": 72.2946904}, {"type": "node", "id": 9009467534, "lat": 23.0313891, "lon": 72.2948306}, {"type": "node", "id": 9009467535, "lat": 23.0314689, "lon": 72.2948602}, {"type": "node", "id": 9009467536, "lat": 23.0314519, "lon": 72.2949339}, {"type": "node", "id": 9009467537, "lat": 23.0313161, "lon": 72.294886}, {"type": "node", "id": 9009467538, "lat": 23.0313823, "lon": 72.2946665}, {"type": "node", "id": 11011114254, "lat": 23.0126733, "lon": 72.4711874, "tags": {"amenity": "fire_station", "name": "Bopal Fire Station", "opening_hours": "24/7", "website": "https://ahmedabadcity.gov.in/portal/jsp/Static_pages/fire_dept.jsp"}}, {"type": "way", "id": 229021982, "nodes": [2376625760, 2376625762, 2376625764, 2376625770, 2376625760], "tags": {"amenity": "fire_station", "building": "yes", "name": "Thaltej Fire Dpt."}}, {"type": "way", "id": 973444842, "nodes": [9009467533, 9009467534, 9009467535, 9009467536, 9009467537, 9009467538, 9009467533], "tags": {"addr:city": "Khoda", "addr:postcode": "382110", "amenity": "police", "building": "yes", "name": "Sanand G.I.D.C police station"}}]}