{"version": 0.6, "generator": "Overpass API 0.7.61.5 4133829e", "osm3s": {"timestamp_osm_base": "2024-02-25T09:05:00Z", "copyright": "The data included in this document is from www.openstreetmap.org. The data is made available under ODbL."}, "elements": [{"type": "node", "id": 1864390010, "lat": 22.5244798, "lon": 88.3327671, "tags": {"air_conditioning": "yes", "amenity": "fast_food", "brand": "Domino's", "brand:ks": "\u0688\u0648\u0645\u06cc\u0646\u0648\u0632", "brand:pa": "\u0a21\u0a4b\u0a2e\u0a40\u0a28\u0a4b\u0a1c\u0a3c", "brand:ur": "\u0688\u0648\u0645\u06cc\u0646\u0648\u0632", "brand:wikidata": "Q839466", "brand:wikipedia": "en:Domino's Pizza", "check_date": "2023-10-27", "cuisine": "pizza", "name": "Domino's", "name:ks": "\u0688\u0648\u0645\u06cc\u0646\u0648\u0632", "name:pa": "\u0a21\u0a4b\u0a2e\u0a40\u0a28\u0a4b\u0a1c\u0a3c", "name:ur": "\u0688\u0648\u0645\u06cc\u0646\u0648\u0632", "opening_hours": "Mo-Su 11:00-23:00", "takeaway": "yes", "website": "https://www.dominos.co.in/store-locations/kolkata/alipore?src=local_gmb&utm_source=Google_GMB&utm_medium=GMB_SEO_urls_website"}}, {"type": "node", "id": 1983412036, "lat": 22.5200042, "lon": 88.3647712, "tags": {"amenity": "fast_food", "check_date": "2023-12-16", "cuisine": "regional", "diet:non-vegetarian": "yes", "internet_access": "no", "name": "Roll Shop", "payment:cash": "yes", "payment:mastercard": "yes", "payment:visa": "yes", "wheelchair": "no"}}, {"type": "node", "id": 2017557725, "lat": 22.5222006, "lon": 88.3312799, "tags": {"amenity": "fast_food", "name": "Kookie jar"}}, {"type": "node", "id": 2017557726, "lat": 22.5222049, "lon": 88.3310616, "tags": {"amenity": "fast_food", "name": "Cream & Fudge"}}, {"type": "node", "id": 2461251697, "lat": 22.5494789, "lon": 88.4010016, "tags": {"amenity": "pub", "name": "The Spring Club"}}, {"type": "node", "id": 2560435257, "lat": 22.5164608, "lon": 88.3669256, "tags": {"addr:housenumber": "102", "addr:street": "Ballygunge Gardens", "amenity": "cafe", "brand": "Cafe Coffee Day", "brand:wikidata": "Q5017235", "check_date": "2023-12-16", "cuisine": "coffee_shop", "internet_access": "no", "name": "Cafe Coffee Day", "payment:cash": "yes", "payment:mastercard": "yes", "payment:visa": "yes", "takeaway": "yes"}}, {"type": "node", "id": 2560450679, "lat": 22.5164344, "lon": 88.3656505, "tags": {"amenity": "cafe", "check_date": "2023-12-16", "cuisine": "baked", "internet_access": "no", "name": "Just Baked", "outdoor_seating": "no", "payment:cash": "yes", "payment:mastercard": "yes", "payment:visa": "yes", "smoking": "no", "wheelchair": "no"}}, {"type": "node", "id": 2560452047, "lat": 22.5165683, "lon": 88.3660103, "tags": {"amenity": "fast_food", "check_date": "2023-12-16", "cuisine": "indian;regional", "diet:non-vegetarian": "yes", "internet_access": "wlan", "name": "Alibaba", "payment:cash": "yes", "payment:mastercard": "yes", "payment:visa": "yes"}}, {"type": "node", "id": 2561110172, "lat": 22.5529926, "lon": 88.3527098, "tags": {"amenity": "cafe", "brand": "Cafe Coffee Day", "brand:wikidata": "Q5017235", "cuisine": "coffee_shop", "delivery": "yes", "name": "Cafe Coffee Day", "opening_hours": "Mo-Su 08:00-00:00", "outdoor_seating": "no", "smoking": "no", "source": "survey", "takeaway": "yes"}}, {"type": "node", "id": 2746986381, "lat": 22.543995, "lon": 88.3583326, "tags": {"amenity": "cafe", "name": "The Chocolate Room"}}, {"type": "node", "id": 2746986382, "lat": 22.5437624, "lon": 88.3582462, "tags": {"amenity": "cafe", "brand": "Cafe Coffee Day", "brand:wikidata": "Q5017235", "cuisine": "coffee_shop", "name": "Cafe Coffee Day", "takeaway": "yes"}}, {"type": "node", "id": 3418913493, "lat": 22.5171093, "lon": 88.3609818, "tags": {"amenity": "cafe", "name": "Wise Owl"}}, {"type": "node", "id": 3512180085, "lat": 22.5529144, "lon": 88.3528134, "tags": {"addr:city": "Kolkata", "addr:housenumber": "25B", "addr:street": "Park Street", "amenity": "cafe", "brand": "Barista", "brand:wikidata": "Q644735", "cuisine": "coffee_shop", "name": "Barista", "takeaway": "yes"}}, {"type": "node", "id": 3641838071, "lat": 22.5013299, "lon": 88.3501098}, {"type": "node", "id": 3641838075, "lat": 22.5013363, "lon": 88.34997}, {"type": "node", "id": 3641838301, "lat": 22.5014239, "lon": 88.3501148}, {"type": "node", "id": 3641838307, "lat": 22.5014303, "lon": 88.3499751}, {"type": "node", "id": 4147782996, "lat": 22.499211, "lon": 88.3170665, "tags": {"addr:city": "Kolkata", "addr:street": "Brahma Samaj Road", "amenity": "fast_food", "cuisine": "indian", "designation": "Sweet shop", "name": "Panna Sweets"}}, {"type": "node", "id": 4178731070, "lat": 22.5605894, "lon": 88.3514148, "tags": {"amenity": "fast_food", "name": "The Food Bowl"}}, {"type": "node", "id": 4178815699, "lat": 22.5605918, "lon": 88.3513384, "tags": {"amenity": "fast_food", "name": "Brother's snacks"}}, {"type": "node", "id": 4243771893, "lat": 22.5245108, "lon": 88.3524953, "tags": {"amenity": "cafe", "brand": "Cafe Coffee Day", "brand:wikidata": "Q5017235", "cuisine": "coffee_shop", "name": "Cafe Coffee Day", "takeaway": "yes"}}, {"type": "node", "id": 4340907850, "lat": 22.5130096, "lon": 88.4051299, "tags": {"amenity": "fast_food", "name": "Mio Amore"}}, {"type": "node", "id": 4349782391, "lat": 22.627314, "lon": 88.378423, "tags": {"amenity": "fast_food", "brand": "Domino's", "brand:ks": "\u0688\u0648\u0645\u06cc\u0646\u0648\u0632", "brand:pa": "\u0a21\u0a4b\u0a2e\u0a40\u0a28\u0a4b\u0a1c\u0a3c", "brand:ur": "\u0688\u0648\u0645\u06cc\u0646\u0648\u0632", "brand:wikidata": "Q839466", "brand:wikipedia": "en:Domino's Pizza", "cuisine": "pizza", "name": "Domino's", "name:ks": "\u0688\u0648\u0645\u06cc\u0646\u0648\u0632", "name:pa": "\u0a21\u0a4b\u0a2e\u0a40\u0a28\u0a4b\u0a1c\u0a3c", "name:ur": "\u0688\u0648\u0645\u06cc\u0646\u0648\u0632", "takeaway": "yes"}}, {"type": "node", "id": 4362703977, "lat": 22.4755316, "lon": 88.4010838, "tags": {"amenity": "fast_food", "cuisine": "indian", "name": "Neils Kitchen", "website": "Neils kitchen"}}, {"type": "node", "id": 4364237746, "lat": 22.4752627, "lon": 88.4009281, "tags": {"amenity": "cafe", "brand": "Cafe Coffee Day", "brand:wikidata": "Q5017235", "cuisine": "coffee_shop", "name": "Cafe Coffee Day", "takeaway": "yes", "website": "https://www.cafecoffeeday.com/"}}, {"type": "node", "id": 4370643951, "lat": 22.5014712, "lon": 88.3517381, "tags": {"amenity": "cafe", "internet_access": "wlan", "name": "Crossroad Cafe", "name:en": "Crossroad Cafe"}}, {"type": "node", "id": 4377549603, "lat": 22.5521803, "lon": 88.3527404, "tags": {"alt_name": "Kentucky Fried Chicken", "alt_name:en": "Kentucky Fried Chicken", "alt_name:hi": "\u0915\u0947\u0902\u091f\u0941\u0915\u0940 \u092b\u094d\u0930\u093e\u0907\u0921 \u091a\u093f\u0915\u0928", "alt_name:pa": "\u0a15\u0a48\u0a02\u0a1f\u0a41\u0a15\u0a40 \u0a2b\u0a4d\u0a30\u0a3e\u0a08\u0a21 \u0a1a\u0a3f\u0a15\u0a28", "alt_name:pnb": "\u06a9\u06cc\u0646\u0679\u06a9\u06cc \u0641\u0631\u0627\u0626\u06cc\u0688 \u0686\u06a9\u0646", "alt_name:ur": "\u06a9\u06cc\u0646\u0679\u06a9\u06cc \u0641\u0631\u0627\u0626\u06cc\u0688 \u0686\u06a9\u0646", "amenity": "fast_food", "brand": "KFC", "brand:en": "KFC", "brand:hi": "\u0915\u0947\u090f\u092b\u0938\u0940", "brand:pa": "\u0a15\u0a47\u0a10\u0a2b\u0a38\u0a40", "brand:pnb": "\u06a9\u06d2 \u0627\u06cc\u0641 \u0633\u06cc", "brand:ur": "\u06a9\u06d2 \u0627\u06cc\u0641 \u0633\u06cc", "brand:wikidata": "Q524757", "brand:wikipedia": "en:KFC", "brand:wikipedia:pa": "\u0a15\u0a47\u0a10\u0a2b\u0a38\u0a40", "brand:wikipedia:ur": "\u06a9\u06cc\u0646\u0679\u06a9\u06cc \u0641\u0631\u0627\u0626\u06cc\u0688 \u0686\u06a9\u0646", "cuisine": "chicken", "delivery": "yes", "drive_through": "no", "internet_access": "no", "name": "KFC", "name:en": "KFC", "name:hi": "\u0915\u0947\u090f\u092b\u0938\u0940", "name:pa": "\u0a15\u0a47\u0a10\u0a2b\u0a38\u0a40", "name:pnb": "\u06a9\u06d2 \u0627\u06cc\u0641 \u0633\u06cc", "name:ur": "\u06a9\u06d2 \u0627\u06cc\u0641 \u0633\u06cc", "outdoor_seating": "no", "smoking": "no", "source": "Survey", "takeaway": "yes"}}, {"type": "node", "id": 4613442991, "lat": 22.565726, "lon": 88.3506294, "tags": {"amenity": "fast_food", "name": "Amazing Lassi Stall", "name:en": "Amazing Lassi Stall"}}, {"type": "node", "id": 4638153290, "lat": 22.5627857, "lon": 88.3527928, "tags": {"addr:housenumber": "140", "addr:street": "Surendra Nath Banerjee Road", "amenity": "fast_food", "cuisine": "indian", "name": "Shree Krishna Mistanna Bhandar140", "name:hi": "Shree Krishna Mistanna Bhandar140"}}, {"type": "node", "id": 4646548489, "lat": 22.53893, "lon": 88.3656293, "tags": {"amenity": "bar", "name": "The Irish House", "name:hi": "The Irish House"}}, {"type": "node", "id": 4646598289, "lat": 22.5525958, "lon": 88.3559628, "tags": {"amenity": "fast_food", "cuisine": "indian", "name": "Bably's Fast Food", "name:en": "Bably's Fast Food"}}, {"type": "node", "id": 4716438832, "lat": 22.5230927, "lon": 88.3652596, "tags": {"addr:housenumber": "8", "addr:street": "Mandeville Gardens", "amenity": "fast_food", "check_date": "2023-12-16", "cuisine": "regional", "internet_access": "no", "name": "Phuchka Stand", "payment:cash": "yes", "payment:mastercard": "yes", "payment:visa": "yes", "wheelchair": "no"}}, {"type": "node", "id": 4718204589, "lat": 22.5273404, "lon": 88.3655921, "tags": {"addr:street": "Hazra Road", "amenity": "fast_food", "check_date": "2023-12-16", "description": "Momo seller", "name": "Momo on The Move", "name:en": "Wow Momo (on The Move)", "payment:cash": "yes", "payment:mastercard": "yes", "payment:visa": "yes"}}, {"type": "node", "id": 4766298584, "lat": 22.5580743, "lon": 88.3541457, "tags": {"amenity": "cafe", "name": "Raj's Spanish Cafe", "name:en": "Raj's Spanish Cafe"}}, {"type": "node", "id": 4825578821, "lat": 22.5535422, "lon": 88.3522664, "tags": {"amenity": "fast_food", "name": "Kusum Rolls", "phone": "+91 98310 66077;+91 33 6503 0009"}}, {"type": "node", "id": 4841144421, "lat": 22.5536951, "lon": 88.3582981, "tags": {"amenity": "fast_food", "name": "Lin's Noodle King", "name:en": "Lin's Noodle King"}}, {"type": "node", "id": 4841301732, "lat": 22.5690728, "lon": 88.3906231, "tags": {"amenity": "cafe", "cuisine": "indian", "diet:vegetarian": "yes", "name": "Pawanputra Restaurant", "outdoor_seating": "no"}}, {"type": "node", "id": 4845192822, "lat": 22.5605395, "lon": 88.3516371, "tags": {"amenity": "fast_food", "brand": "Domino's", "brand:ks": "\u0688\u0648\u0645\u06cc\u0646\u0648\u0632", "brand:pa": "\u0a21\u0a4b\u0a2e\u0a40\u0a28\u0a4b\u0a1c\u0a3c", "brand:ur": "\u0688\u0648\u0645\u06cc\u0646\u0648\u0632", "brand:wikidata": "Q839466", "brand:wikipedia": "en:Domino's Pizza", "cuisine": "pizza", "name": "Domino's", "name:ks": "\u0688\u0648\u0645\u06cc\u0646\u0648\u0632", "name:pa": "\u0a21\u0a4b\u0a2e\u0a40\u0a28\u0a4b\u0a1c\u0a3c", "name:ur": "\u0688\u0648\u0645\u06cc\u0646\u0648\u0632", "takeaway": "yes"}}, {"type": "node", "id": 4845252121, "lat": 22.5605007, "lon": 88.3515266, "tags": {"amenity": "fast_food", "brand": "Wow! Momo", "brand:wikidata": "Q8037446", "cuisine": "momo", "name": "Wow! Momo", "name:en": "Wow! Momo", "takeaway": "yes"}}, {"type": "node", "id": 4974899822, "lat": 22.5520527, "lon": 88.352852, "tags": {"addr:housenumber": "20G", "addr:street": "Park Street", "amenity": "bar", "name": "The Myx", "name:en": "The Myx"}}, {"type": "node", "id": 4974928524, "lat": 22.5442927, "lon": 88.3522127, "tags": {"addr:street": "901A, 9th Floor, Fort Knox, 6, Camac, St. Elgin, Elgin, Kolkata, West Bengal 700017", "amenity": "bar", "name": "Monkey Bar", "name:en": "Monkey Bar"}}, {"type": "node", "id": 5150935621, "lat": 22.5621436, "lon": 88.3535384, "tags": {"addr:housenumber": "22-23", "addr:street": "Hogg St", "amenity": "cafe", "name": "Nizam's"}}, {"type": "node", "id": 5151716323, "lat": 22.5516985, "lon": 88.3525878, "tags": {"amenity": "cafe", "name": "Amber Cafe"}}, {"type": "node", "id": 5241930863, "lat": 22.5709743, "lon": 88.4012179, "tags": {"amenity": "bar", "name": "Beer Republic"}}, {"type": "node", "id": 5259891223, "lat": 22.48329, "lon": 88.3910361, "tags": {"addr:postcode": "700094", "addr:street": "Eastern Metropolitan Bypass", "amenity": "fast_food", "name": "Sandwiches"}}, {"type": "node", "id": 5303024823, "lat": 22.5448688, "lon": 88.3545938, "tags": {"amenity": "fast_food", "cuisine": "indian", "diet:vegetarian": "only", "name": "Veg restaurant"}}, {"type": "node", "id": 5392863822, "lat": 22.5408307, "lon": 88.3441615, "tags": {"amenity": "fast_food", "name": "Street food area"}}, {"type": "node", "id": 5574212963, "lat": 22.5729323, "lon": 88.3665439, "tags": {"addr:housenumber": "29", "addr:street": "Surya Sen Street", "amenity": "fast_food", "description": "Serves fried Bengali snacks like chop, cutlet, beguni, accepts only cash.", "name": "Kalika", "opening_hours": "Mo-Sa 15:00-20:00"}}, {"type": "node", "id": 5598656722, "lat": 22.5524307, "lon": 88.3532304, "tags": {"amenity": "cafe", "brand": "Starbucks", "brand:pa": "\u0a38\u0a1f\u0a3e\u0a30\u0a2c\u0a15\u0a38", "brand:ur": "\u0627\u0633\u0679\u0627\u0631\u0628\u06a9\u0633", "brand:wikidata": "Q37158", "brand:wikipedia": "en:Starbucks", "cuisine": "coffee_shop", "internet_access": "wlan", "internet_access:fee": "no", "name": "Starbucks", "name:pa": "\u0a38\u0a1f\u0a3e\u0a30\u0a2c\u0a15\u0a38", "name:ur": "\u0627\u0633\u0679\u0627\u0631\u0628\u06a9\u0633", "official_name": "Starbucks Coffee", "official_name:pa": "\u0a38\u0a1f\u0a3e\u0a30\u0a2c\u0a15\u0a38 \u0a15\u0a4c\u0a2b\u0a40", "official_name:ur": "\u0627\u0633\u0679\u0627\u0631\u0628\u06a9\u0633 \u06a9\u0627\u0641\u06cc", "opening_hours": "Mo-Su 07:00-00:30", "smoking": "no", "takeaway": "yes", "wheelchair": "designated"}}, {"type": "node", "id": 5600097022, "lat": 22.5528507, "lon": 88.3528567, "tags": {"addr:city": "Kolkata", "addr:housenumber": "57", "addr:postcode": "700016", "addr:street": "Park Street", "amenity": "fast_food", "brand": "Wow! Momo", "brand:wikidata": "Q8037446", "cuisine": "momo", "indoor_seating": "yes", "name": "Wow! Momo", "phone": "+91-33-4602-4764", "takeaway": "yes"}}, {"type": "node", "id": 5651742622, "lat": 22.5542336, "lon": 88.3509882, "tags": {"amenity": "fast_food", "brand": "Domino's", "brand:ks": "\u0688\u0648\u0645\u06cc\u0646\u0648\u0632", "brand:pa": "\u0a21\u0a4b\u0a2e\u0a40\u0a28\u0a4b\u0a1c\u0a3c", "brand:ur": "\u0688\u0648\u0645\u06cc\u0646\u0648\u0632", "brand:wikidata": "Q839466", "brand:wikipedia": "en:Domino's Pizza", "cuisine": "pizza", "indoor_seating": "yes", "name": "Domino's", "name:ks": "\u0688\u0648\u0645\u06cc\u0646\u0648\u0632", "name:pa": "\u0a21\u0a4b\u0a2e\u0a40\u0a28\u0a4b\u0a1c\u0a3c", "name:ur": "\u0688\u0648\u0645\u06cc\u0646\u0648\u0632", "operator": "Jubilant Foodworks Limited", "outdoor_seating": "no", "takeaway": "yes"}}, {"type": "node", "id": 5879139485, "lat": 22.5542483, "lon": 88.351339, "tags": {"amenity": "fast_food", "name": "Kati Rolls"}}, {"type": "node", "id": 5923972005, "lat": 22.5538473, "lon": 88.3518492, "tags": {"amenity": "cafe", "cuisine": "tea;coffee_shop;international", "diet:vegetarian": "yes", "name": "Cha Bar"}}, {"type": "node", "id": 6135362107, "lat": 22.5327945, "lon": 88.3649879, "tags": {"alt_name": "Haldiram", "amenity": "fast_food", "brand": "Haldiram's", "brand:wikidata": "Q17054442", "check_date": "2023-12-16", "cuisine": "indian", "internet_access": "wlan", "internet_access:fee": "customers", "level": "1", "name": "Haldiram's", "payment:cash": "yes", "payment:mastercard": "yes", "payment:visa": "yes", "takeaway": "yes", "wheelchair": "limited"}}, {"type": "node", "id": 6135363744, "lat": 22.552898, "lon": 88.3543572, "tags": {"addr:postcode": "700016", "amenity": "cafe", "check_date": "2023-10-28", "delivery": "yes", "name": "Caf\u00e9 Harmony", "opening_hours": "16:00-23:30", "phone": "09038024943", "takeaway": "yes"}}, {"type": "node", "id": 6135364200, "lat": 22.5519786, "lon": 88.3524857, "tags": {"amenity": "fast_food", "name": "The Golden Spoon"}}, {"type": "node", "id": 6135364481, "lat": 22.544679, "lon": 88.3553121, "tags": {"amenity": "cafe", "brand": "Cafe Coffee Day", "brand:wikidata": "Q5017235", "brand:wikipedia": "en:Caf\u00e9 Coffee Day", "cuisine": "coffee_shop", "name": "Cafe Coffee Day", "takeaway": "yes"}}, {"type": "node", "id": 6135364595, "lat": 22.5525948, "lon": 88.3526504, "tags": {"addr:housenumber": "18G", "addr:street": "Park Street", "amenity": "fast_food", "cuisine": "waffle", "indoor_seating": "yes", "name": "Waffle Wallah"}}, {"type": "node", "id": 6138457981, "lat": 22.5531688, "lon": 88.353451, "tags": {"amenity": "fast_food", "level": "1", "name": "Udta Punjab Dhaba"}}, {"type": "node", "id": 6138458223, "lat": 22.5473767, "lon": 88.3517657, "tags": {"amenity": "cafe", "name": "Spices and Sauces", "phone": "+91-33-2440-1314;+91-33-2440-8787;+91-98307-58920;+91-98304-04196"}}, {"type": "node", "id": 6138458224, "lat": 22.5528863, "lon": 88.3532982, "tags": {"amenity": "fast_food", "brand": "Subway", "brand:pa": "\u0a38\u0a2c\u0a35\u0a47\u0a05", "brand:ur": "\u0633\u0628 \u0648\u06d2", "brand:wikidata": "Q244457", "brand:wikipedia": "en:Subway (restaurant)", "cuisine": "sandwich", "name": "Subway", "name:pa": "\u0a38\u0a2c\u0a35\u0a47\u0a05", "name:ur": "\u0633\u0628 \u0648\u06d2", "opening_hours": "Mo-Su 10:00-24:00", "phone": "+91-33-4005-3774;+91-98300-31636", "takeaway": "yes"}}, {"type": "node", "id": 6138458225, "lat": 22.5456757, "lon": 88.3525236, "tags": {"amenity": "cafe", "brand": "Cafe Coffee Day", "brand:wikidata": "Q5017235", "cuisine": "coffee_shop", "name": "Cafe Coffee Day", "takeaway": "yes"}}, {"type": "node", "id": 6138458337, "lat": 22.5385047, "lon": 88.364883, "tags": {"amenity": "fast_food", "brand": "Domino's", "brand:ks": "\u0688\u0648\u0645\u06cc\u0646\u0648\u0632", "brand:pa": "\u0a21\u0a4b\u0a2e\u0a40\u0a28\u0a4b\u0a1c\u0a3c", "brand:ur": "\u0688\u0648\u0645\u06cc\u0646\u0648\u0632", "brand:wikidata": "Q839466", "brand:wikipedia": "en:Domino's Pizza", "cuisine": "pizza", "level": "1", "name": "Domino's", "name:ks": "\u0688\u0648\u0645\u06cc\u0646\u0648\u0632", "name:pa": "\u0a21\u0a4b\u0a2e\u0a40\u0a28\u0a4b\u0a1c\u0a3c", "name:ur": "\u0688\u0648\u0645\u06cc\u0646\u0648\u0632", "takeaway": "yes"}}, {"type": "node", "id": 6141500108, "lat": 22.5519801, "lon": 88.3559754, "tags": {"amenity": "fast_food", "delivery": "yes", "indoor_seating": "yes", "name": "Grill and Chill"}}, {"type": "node", "id": 6141500381, "lat": 22.5471967, "lon": 88.3523673, "tags": {"amenity": "pub", "name": "Pls Dnt Tlk"}}, {"type": "node", "id": 6143230210, "lat": 22.5525609, "lon": 88.35264, "tags": {"amenity": "fast_food", "indoor_seating": "no", "name": "Bombay Toastee"}}, {"type": "node", "id": 6143232247, "lat": 22.5498352, "lon": 88.3499431, "tags": {"addr:city": "Kolkata", "addr:housenumber": "41", "addr:postcode": "700071", "addr:street": "Chowringhee Road", "amenity": "fast_food", "indoor_seating": "yes", "name": "Russell Punjabi Dhaba"}}, {"type": "node", "id": 6143233752, "lat": 22.552702, "lon": 88.3511371, "tags": {"amenity": "fast_food", "indoor_seating": "yes", "name": "I \u2764\ufe0f Haldiram"}}, {"type": "node", "id": 6209969585, "lat": 22.5524896, "lon": 88.3636672, "tags": {"amenity": "fast_food"}}, {"type": "node", "id": 6299181585, "lat": 22.5175878, "lon": 88.3594413, "tags": {"amenity": "cafe", "cuisine": "international", "name": "Mystic Yoga Cafe", "website": "https://mysticyoga.in/"}}, {"type": "node", "id": 6357619185, "lat": 22.5673588, "lon": 88.3709318, "tags": {"amenity": "fast_food", "brand": "Wow! Momo", "brand:wikidata": "Q8037446", "cuisine": "momo", "name": "Wow! Momo", "name:en": "Wow momo", "takeaway": "yes"}}, {"type": "node", "id": 6384815185, "lat": 22.5420415, "lon": 88.3474925, "tags": {"addr:housenumber": "46", "addr:postcode": "700071", "addr:street": "Acharya Jagadish Chandra Bose Road", "alt_name": "Haldiram", "amenity": "fast_food", "branch": "Veg Restaurant", "brand": "Haldiram's", "brand:wikidata": "Q17054442", "check_date": "2023-10-28", "cuisine": "indian", "name": "Haldiram's", "opening_hours": "Mo-Su 09:00-23:00", "takeaway": "yes", "website": "https://www.haldirams.com/"}}, {"type": "node", "id": 6395400106, "lat": 22.5475583, "lon": 88.3541763, "tags": {"amenity": "fast_food", "name": "Hot Chips, Wood Street"}}, {"type": "node", "id": 6447820893, "lat": 22.5613064, "lon": 88.3548313, "tags": {"amenity": "fast_food", "name:ja": "2\u968e\u306e\u30ed\u30fc\u30ab\u30eb\u30ec\u30b9\u30c8\u30e9\u30f3"}}, {"type": "node", "id": 6447831193, "lat": 22.5648376, "lon": 88.3543888, "tags": {"amenity": "fast_food", "name:ja": "\u30de\u30fc\u30b1\u30c3\u30c8"}}, {"type": "node", "id": 6447832087, "lat": 22.5534228, "lon": 88.3617897, "tags": {"amenity": "fast_food", "name:ja": "\u7f8e\u5473\u3057\u3044\u30df\u30eb\u30af\u30c1\u30e3\u30a4"}}, {"type": "node", "id": 6533478594, "lat": 22.5581343, "lon": 88.3530887, "tags": {"amenity": "cafe", "name": "Curd Corner"}}, {"type": "node", "id": 6544682386, "lat": 22.4884846, "lon": 88.4161186, "tags": {"amenity": "fast_food", "name": "Trishna fast food"}}, {"type": "node", "id": 6544682487, "lat": 22.5253984, "lon": 88.3957737, "tags": {"amenity": "fast_food", "name": "Red chilli"}}, {"type": "node", "id": 6551217385, "lat": 22.5473301, "lon": 88.3509795, "tags": {"addr:postcode": "700071", "addr:street": "Ho Chi Minh Sarani", "amenity": "fast_food", "indoor_seating": "yes", "name": "Mr. Veggie", "opening_hours": "24/7"}}, {"type": "node", "id": 6698400585, "lat": 22.5605313, "lon": 88.3515299, "tags": {"alt_name": "Kentucky Fried Chicken", "alt_name:en": "Kentucky Fried Chicken", "alt_name:hi": "\u0915\u0947\u0902\u091f\u0941\u0915\u0940 \u092b\u094d\u0930\u093e\u0907\u0921 \u091a\u093f\u0915\u0928", "alt_name:pa": "\u0a15\u0a48\u0a02\u0a1f\u0a41\u0a15\u0a40 \u0a2b\u0a4d\u0a30\u0a3e\u0a08\u0a21 \u0a1a\u0a3f\u0a15\u0a28", "alt_name:pnb": "\u06a9\u06cc\u0646\u0679\u06a9\u06cc \u0641\u0631\u0627\u0626\u06cc\u0688 \u0686\u06a9\u0646", "alt_name:ur": "\u06a9\u06cc\u0646\u0679\u06a9\u06cc \u0641\u0631\u0627\u0626\u06cc\u0688 \u0686\u06a9\u0646", "amenity": "fast_food", "brand": "KFC", "brand:en": "KFC", "brand:hi": "\u0915\u0947\u090f\u092b\u0938\u0940", "brand:pa": "\u0a15\u0a47\u0a10\u0a2b\u0a38\u0a40", "brand:pnb": "\u06a9\u06d2 \u0627\u06cc\u0641 \u0633\u06cc", "brand:ur": "\u06a9\u06d2 \u0627\u06cc\u0641 \u0633\u06cc", "brand:wikidata": "Q524757", "brand:wikipedia": "en:KFC", "brand:wikipedia:pa": "\u0a15\u0a47\u0a10\u0a2b\u0a38\u0a40", "brand:wikipedia:ur": "\u06a9\u06cc\u0646\u0679\u06a9\u06cc \u0641\u0631\u0627\u0626\u06cc\u0688 \u0686\u06a9\u0646", "cuisine": "chicken", "name": "KFC", "name:en": "KFC", "name:hi": "\u0915\u0947\u090f\u092b\u0938\u0940", "name:pa": "\u0a15\u0a47\u0a10\u0a2b\u0a38\u0a40", "name:pnb": "\u06a9\u06d2 \u0627\u06cc\u0641 \u0633\u06cc", "name:ur": "\u06a9\u06d2 \u0627\u06cc\u0641 \u0633\u06cc", "takeaway": "yes"}}, {"type": "node", "id": 6698406886, "lat": 22.5605463, "lon": 88.3514908, "tags": {"amenity": "cafe", "brand": "Barista", "brand:wikidata": "Q644735", "cuisine": "coffee_shop", "internet_access": "wlan", "name": "Barista", "takeaway": "yes"}}, {"type": "node", "id": 6698978095, "lat": 22.5387257, "lon": 88.3654984, "tags": {"alt_name": "Kentucky Fried Chicken", "alt_name:en": "Kentucky Fried Chicken", "alt_name:hi": "\u0915\u0947\u0902\u091f\u0941\u0915\u0940 \u092b\u094d\u0930\u093e\u0907\u0921 \u091a\u093f\u0915\u0928", "alt_name:pa": "\u0a15\u0a48\u0a02\u0a1f\u0a41\u0a15\u0a40 \u0a2b\u0a4d\u0a30\u0a3e\u0a08\u0a21 \u0a1a\u0a3f\u0a15\u0a28", "alt_name:pnb": "\u06a9\u06cc\u0646\u0679\u06a9\u06cc \u0641\u0631\u0627\u0626\u06cc\u0688 \u0686\u06a9\u0646", "alt_name:ur": "\u06a9\u06cc\u0646\u0679\u06a9\u06cc \u0641\u0631\u0627\u0626\u06cc\u0688 \u0686\u06a9\u0646", "amenity": "fast_food", "brand": "KFC", "brand:en": "KFC", "brand:hi": "\u0915\u0947\u090f\u092b\u0938\u0940", "brand:pa": "\u0a15\u0a47\u0a10\u0a2b\u0a38\u0a40", "brand:pnb": "\u06a9\u06d2 \u0627\u06cc\u0641 \u0633\u06cc", "brand:ur": "\u06a9\u06d2 \u0627\u06cc\u0641 \u0633\u06cc", "brand:wikidata": "Q524757", "brand:wikipedia": "en:KFC", "brand:wikipedia:pa": "\u0a15\u0a47\u0a10\u0a2b\u0a38\u0a40", "brand:wikipedia:ur": "\u06a9\u06cc\u0646\u0679\u06a9\u06cc \u0641\u0631\u0627\u0626\u06cc\u0688 \u0686\u06a9\u0646", "cuisine": "chicken", "name": "KFC", "name:en": "KFC", "name:hi": "\u0915\u0947\u090f\u092b\u0938\u0940", "name:pa": "\u0a15\u0a47\u0a10\u0a2b\u0a38\u0a40", "name:pnb": "\u06a9\u06d2 \u0627\u06cc\u0641 \u0633\u06cc", "name:ur": "\u06a9\u06d2 \u0627\u06cc\u0641 \u0633\u06cc", "takeaway": "yes"}}, {"type": "node", "id": 6743484985, "lat": 22.5352649, "lon": 88.3566292, "tags": {"amenity": "bar", "name": "Automobile association of eastern India"}}, {"type": "node", "id": 7029177785, "lat": 22.5740334, "lon": 88.3645532, "tags": {"amenity": "cafe", "name": "Paramount Juices & Shakes"}}, {"type": "node", "id": 7030445285, "lat": 22.5345762, "lon": 88.3669984, "tags": {"amenity": "cafe", "name": "Zee\u2019s Coffeeshop"}}, {"type": "node", "id": 7030447585, "lat": 22.5406686, "lon": 88.3539831, "tags": {"amenity": "cafe", "name": "Artsy Coffee & Culture"}}, {"type": "node", "id": 7030462685, "lat": 22.5175409, "lon": 88.3578028, "tags": {"amenity": "cafe", "name": "Potboiler Coffee House"}}, {"type": "node", "id": 7030467285, "lat": 22.5175563, "lon": 88.3629545, "tags": {"amenity": "cafe", "name": "Sienna Store & Cafe"}}, {"type": "node", "id": 7030467286, "lat": 22.5059517, "lon": 88.359076, "tags": {"amenity": "cafe", "name": "The Lighthouse Cafe"}}, {"type": "node", "id": 7030485285, "lat": 22.5161655, "lon": 88.36055, "tags": {"amenity": "cafe", "name": "8th Day Cafe & Bakery"}}, {"type": "node", "id": 7030508385, "lat": 22.5384486, "lon": 88.3542805, "tags": {"amenity": "cafe", "name": "Piccadilly Square"}}, {"type": "node", "id": 7051238690, "lat": 22.5535847, "lon": 88.3523162, "tags": {"amenity": "fast_food", "cuisine": "sandwich"}}, {"type": "node", "id": 7054075560, "lat": 22.5505406, "lon": 88.3553144, "tags": {"amenity": "fast_food", "cuisine": "south_indian;north_indian;sandwich", "diet:lacto_vegetarian": "only", "name": "Hunger Street"}}, {"type": "node", "id": 7055109482, "lat": 22.551651, "lon": 88.352408, "tags": {"amenity": "fast_food", "cuisine": "chinese;roll", "diet:lacto_vegetarian": "yes", "level": "0;1", "name": "Roll It Out", "opening_hours": "Mo-Su 10:00-22:00", "payment:cash": "yes", "wheelchair": "limited"}}, {"type": "node", "id": 7055909438, "lat": 22.5537671, "lon": 88.3546443, "tags": {"amenity": "fast_food", "drink:lassi": "served", "level": "0", "name": "Thandai Dhaba", "shop": "beverages"}}, {"type": "node", "id": 7059693031, "lat": 22.551308, "lon": 88.3556197, "tags": {"amenity": "fast_food", "cuisine": "continental;chinese;thai", "name": "Starters"}}, {"type": "node", "id": 8008509574, "lat": 22.5145844, "lon": 88.3446875, "tags": {"amenity": "cafe", "cuisine": "coffee_shop;burger", "name": "Bru Mugs"}}, {"type": "node", "id": 8008509580, "lat": 22.5164647, "lon": 88.3487146, "tags": {"amenity": "cafe", "brand": "Cafe Coffee Day", "brand:wikidata": "Q5017235", "brand:wikipedia": "en:Caf\u00e9 Coffee Day", "cuisine": "coffee_shop", "name": "Cafe Coffee Day", "takeaway": "yes"}}, {"type": "node", "id": 8008527285, "lat": 22.5163409, "lon": 88.3483026, "tags": {"amenity": "cafe", "cuisine": "regional;snackbar", "name": "Radu Babu's"}}, {"type": "node", "id": 8011950435, "lat": 22.5115361, "lon": 88.3489685, "tags": {"amenity": "cafe", "name": "Cafe Kathmandu"}}, {"type": "node", "id": 8011950437, "lat": 22.5112214, "lon": 88.3503869, "tags": {"amenity": "cafe", "name": "Cakes"}}, {"type": "node", "id": 8011950440, "lat": 22.5146731, "lon": 88.3606486, "tags": {"amenity": "cafe", "name": "Fillers"}}, {"type": "node", "id": 8011950450, "lat": 22.5141493, "lon": 88.3624283, "tags": {"amenity": "cafe", "name": "What's Up! Cafe"}}, {"type": "node", "id": 8011950454, "lat": 22.5173303, "lon": 88.3671971, "tags": {"addr:housenumber": "102", "addr:street": "Ballygunge Gardens", "amenity": "fast_food", "brand": "Wow! Momo", "brand:wikidata": "Q8037446", "check_date": "2023-12-16", "cuisine": "momo", "name": "Wow! Momo", "takeaway": "yes"}}, {"type": "node", "id": 8011950455, "lat": 22.5172101, "lon": 88.3671686, "tags": {"amenity": "cafe", "check_date": "2023-12-16", "cuisine": "regional;pizza;burger", "internet_access": "wlan", "internet_access:fee": "customers", "name": "Tribe", "payment:cash": "yes", "payment:mastercard": "yes", "payment:visa": "yes", "wheelchair": "no"}}, {"type": "node", "id": 8014162874, "lat": 22.533162, "lon": 88.3533683, "tags": {"addr:city": "kolkata", "addr:housenumber": "42", "air_conditioning": "yes", "amenity": "cafe", "bar": "yes", "cuisine": "pizza;burger;coffee_shop;chinese;sandwich;chicken;french;international;ice_cream;hookah", "delivery": "yes", "internet_access:fee": "no", "name": "Dawntown Cafe", "opening_hours": "Mo-Su 12:00-4:00", "outdoor_seating": "no", "smoking": "yes", "start_date": "2020-10-11", "takeaway": "yes"}}, {"type": "node", "id": 8266875817, "lat": 22.6016849, "lon": 88.3736658, "tags": {"amenity": "cafe"}}, {"type": "node", "id": 8857669718, "lat": 22.5917929, "lon": 88.3921872, "tags": {"addr:street": "\u00a0164/1, Scheme No 7 M, V I P Road, Kankurgachi, Kolkata - 700054", "amenity": "food_court", "name": "South Indian Best Food", "opening_hours": "Mo-Su 07:30-21:30", "phone": "09830731358"}}, {"type": "node", "id": 9184249611, "lat": 22.5405561, "lon": 88.3964539, "tags": {"amenity": "fast_food"}}, {"type": "node", "id": 9323361386, "lat": 22.4833815, "lon": 88.2926461, "tags": {"amenity": "cafe", "name": "Swapan Tea Stall"}}, {"type": "node", "id": 9323373884, "lat": 22.4810359, "lon": 88.2834848, "tags": {"amenity": "cafe", "name": "Upen Tea Shop"}}, {"type": "node", "id": 9323388122, "lat": 22.4810536, "lon": 88.2834958, "tags": {"amenity": "cafe", "name": "Sanjay Tea Stall"}}, {"type": "node", "id": 9462386917, "lat": 22.581621, "lon": 88.3904347, "tags": {"addr:postcode": "700054", "addr:street": "CIT Road", "amenity": "fast_food", "cuisine": "indian", "name": "Nasta", "opening_hours": "Mo-Sa 07:00-21:00; Su 07:00-12:30; Su 07:00-12:30;"}}, {"type": "node", "id": 9462819520, "lat": 22.5841746, "lon": 88.3914224, "tags": {"addr:housenumber": "p-5", "addr:postcode": "700054", "addr:street": "Kankurgacchi 2nd Lane", "amenity": "fast_food", "cuisine": "chicken;chinese", "name": "Kankurgachi dhaba"}}, {"type": "node", "id": 9566143517, "lat": 22.5803863, "lon": 88.3901624, "tags": {"addr:housenumber": "p40", "addr:postcode": "700054", "addr:street": "Bagmari Road", "amenity": "fast_food", "cuisine": "curry;indian;local", "diet:vegan": "yes", "diet:vegetarian": "yes", "name": "Bikharam Chandmal", "opening_hours": "Mo-Su 08:00-22:00"}}, {"type": "node", "id": 9566166917, "lat": 22.5829429, "lon": 88.3910929, "tags": {"addr:housenumber": "P20", "addr:postcode": "700054", "addr:street": "CIT Road", "alt_name": "Haldiram", "amenity": "fast_food", "brand": "Haldiram's", "brand:wikidata": "Q17054442", "cuisine": "indian", "diet:vegetarian": "yes", "name": "Haldiram's", "opening_hours": "Mo-Su 07:30-21:00", "phone": "070440 70001", "takeaway": "yes", "website": "https://www.haldiramsonline.in/"}}, {"type": "node", "id": 9597557217, "lat": 22.5849948, "lon": 88.3916447, "tags": {"amenity": "cafe", "name": "Quick bite cafe"}}, {"type": "node", "id": 9609443317, "lat": 22.5682681, "lon": 88.3565434, "tags": {"amenity": "cafe", "brand": "Cafe Coffee Day", "brand:wikidata": "Q5017235", "cuisine": "coffee_shop", "name": "Cafe Coffee Day", "takeaway": "yes"}}, {"type": "node", "id": 9761536278, "lat": 22.5163439, "lon": 88.3613253, "tags": {"amenity": "cafe", "name": "The teapot boiler"}}, {"type": "node", "id": 10079224417, "lat": 22.5887873, "lon": 88.3696639, "tags": {"amenity": "fast_food", "name": "Fatso's roll"}}, {"type": "node", "id": 10091478917, "lat": 22.5920591, "lon": 88.39255, "tags": {"addr:street": "Bidhan Nagar Road", "amenity": "fast_food", "brand": "Wow! Momo", "brand:wikidata": "Q8037446", "cuisine": "momo", "name": "Wow! Momo", "name:en": "WOW MOMO", "takeaway": "yes"}}, {"type": "node", "id": 10091478919, "lat": 22.567252, "lon": 88.3711357, "tags": {"alt_name": "Kentucky Fried Chicken", "alt_name:en": "Kentucky Fried Chicken", "alt_name:hi": "\u0915\u0947\u0902\u091f\u0941\u0915\u0940 \u092b\u094d\u0930\u093e\u0907\u0921 \u091a\u093f\u0915\u0928", "alt_name:pa": "\u0a15\u0a48\u0a02\u0a1f\u0a41\u0a15\u0a40 \u0a2b\u0a4d\u0a30\u0a3e\u0a08\u0a21 \u0a1a\u0a3f\u0a15\u0a28", "alt_name:pnb": "\u06a9\u06cc\u0646\u0679\u06a9\u06cc \u0641\u0631\u0627\u0626\u06cc\u0688 \u0686\u06a9\u0646", "alt_name:ur": "\u06a9\u06cc\u0646\u0679\u06a9\u06cc \u0641\u0631\u0627\u0626\u06cc\u0688 \u0686\u06a9\u0646", "amenity": "fast_food", "brand": "KFC", "brand:en": "KFC", "brand:hi": "\u0915\u0947\u090f\u092b\u0938\u0940", "brand:pa": "\u0a15\u0a47\u0a10\u0a2b\u0a38\u0a40", "brand:pnb": "\u06a9\u06d2 \u0627\u06cc\u0641 \u0633\u06cc", "brand:ur": "\u06a9\u06d2 \u0627\u06cc\u0641 \u0633\u06cc", "brand:wikidata": "Q524757", "cuisine": "chicken", "name": "KFC", "name:en": "KFC", "name:hi": "\u0915\u0947\u090f\u092b\u0938\u0940", "name:pa": "\u0a15\u0a47\u0a10\u0a2b\u0a38\u0a40", "name:pnb": "\u06a9\u06d2 \u0627\u06cc\u0641 \u0633\u06cc", "name:ur": "\u06a9\u06d2 \u0627\u06cc\u0641 \u0633\u06cc", "takeaway": "yes"}}, {"type": "node", "id": 10091478921, "lat": 22.566955, "lon": 88.3709447, "tags": {"amenity": "fast_food", "name": "Jan Aahar sealdah station"}}, {"type": "node", "id": 10091490317, "lat": 22.567539, "lon": 88.3710994, "tags": {"amenity": "fast_food", "name": "Evershine Caterers"}}, {"type": "node", "id": 10091492317, "lat": 22.5671227, "lon": 88.3714662, "tags": {"alt_name": "Haldiram", "amenity": "fast_food", "brand": "Haldiram's", "brand:wikidata": "Q17054442", "cuisine": "indian", "name": "Haldiram's Prabhuji Factory Outlet", "opening_hours": "Mo-Su 10:00-10:00", "shop": "confectionery", "takeaway": "yes"}}, {"type": "node", "id": 10091511717, "lat": 22.5777416, "lon": 88.4000312, "tags": {"amenity": "fast_food", "brand": "Wow! Momo", "brand:wikidata": "Q8037446", "cuisine": "momo", "name": "Wow! Momo", "takeaway": "yes"}}, {"type": "node", "id": 10115934219, "lat": 22.6210386, "lon": 88.3923894, "tags": {"addr:housenumber": "13/1B", "addr:postcode": "700030", "addr:street": "Dum Dum Road", "amenity": "fast_food", "brand": "Wow! Momo", "brand:wikidata": "Q8037446", "cuisine": "momo", "name": "Wow! Momo", "opening_hours": "Mo-Su 10:00-23:00", "phone": "076040 62741", "takeaway": "yes"}}, {"type": "node", "id": 10186264176, "lat": 22.5013429, "lon": 88.3200206, "tags": {"amenity": "cafe", "name": "Eatelicious"}}, {"type": "node", "id": 10287098375, "lat": 22.491093, "lon": 88.3177947, "tags": {"amenity": "cafe", "brand": "Cafe Coffee Day", "brand:wikidata": "Q5017235", "cuisine": "coffee_shop", "internet_access": "wlan", "internet_access:fee": "customers", "name": "Cafe Coffee Day", "opening_hours": "Mo-Su 08:30-23:00", "outdoor_seating": "no", "takeaway": "yes", "website": "https://www.cafecoffeeday.com/cafe-menu/"}}, {"type": "node", "id": 10287769485, "lat": 22.5145779, "lon": 88.3476569, "tags": {"amenity": "cafe", "name": "The Irish Brewery"}}, {"type": "node", "id": 10287804508, "lat": 22.5139924, "lon": 88.3491977, "tags": {"amenity": "cafe", "name": "Cafe the Eggspresso"}}, {"type": "node", "id": 10557281120, "lat": 22.5180208, "lon": 88.3767903, "tags": {"addr:city": "Kolkata", "addr:housenumber": "262", "addr:postcode": "700042", "addr:street": "Banku Bihari Chatterjee Road", "amenity": "fast_food", "locality": "Kasba", "name": "Sampa Snacks"}}, {"type": "node", "id": 10682505618, "lat": 22.514424, "lon": 88.3525501, "tags": {"addr:city": "Kolkata", "addr:housenumber": "32B", "addr:postcode": "700029", "addr:street": "Dr Sarat Banerjee Road", "air_conditioning": "yes", "amenity": "cafe", "cuisine": "pizza;coffee_shop;burger;chicken;sandwich;sushi;american", "internet_access": "yes", "internet_access:fee": "customers", "name": "Cheese Cherry Pineapple", "opening_hours": "Mo-Su 11:00-23:00", "outdoor_seating": "no"}}, {"type": "node", "id": 10686185737, "lat": 22.6286683, "lon": 88.3781089}, {"type": "node", "id": 10686185738, "lat": 22.6284669, "lon": 88.3780982}, {"type": "node", "id": 10686185739, "lat": 22.6284554, "lon": 88.3782967}, {"type": "node", "id": 10686185740, "lat": 22.6286633, "lon": 88.3783003}, {"type": "node", "id": 10686185741, "lat": 22.628665, "lon": 88.3782216}, {"type": "node", "id": 10864043305, "lat": 22.6052525, "lon": 88.3844317, "tags": {"addr:postcode": "700037", "addr:street": "Belgachia Road", "amenity": "fast_food", "cuisine": "indian", "name": "Royal Biryani", "opening_hours": "Mo-Su 13:00-23:59"}}, {"type": "node", "id": 10876008006, "lat": 22.6053727, "lon": 88.3841625, "tags": {"addr:postcode": "700037", "addr:street": "Belgachia Road", "amenity": "fast_food", "cuisine": "indian", "name": "Bharat Biryani", "opening_hours": "Mo-Su 14:00-23:59"}}, {"type": "node", "id": 10876010006, "lat": 22.605728, "lon": 88.3861393, "tags": {"addr:postcode": "700037", "addr:street": "Belgachia Metro", "amenity": "fast_food", "cuisine": "american;chinese", "name": "CFC", "opening_hours": "Mo-Su 18:00-22:30", "operator": "Nasim"}}, {"type": "node", "id": 10880624605, "lat": 22.5192763, "lon": 88.3804237, "tags": {"amenity": "fast_food", "name": "The Tasty Bytes"}}, {"type": "node", "id": 10882736007, "lat": 22.5171182, "lon": 88.3601391, "tags": {"amenity": "cafe", "name": "Blue Tokai"}}, {"type": "node", "id": 11098801623, "lat": 22.5164432, "lon": 88.3606841, "tags": {"addr:city": "Kolkata", "addr:district": "Kolkata", "addr:housenumber": "P 459/B", "addr:postcode": "700029", "addr:street": "Golpark, Hemanta Mukherjee Sarani, lake Terrace, Ballygunge,", "amenity": "cafe", "internet_access": "yes", "name": "Armaan's Cafe", "opening_hours": "Mo-Su 12:00-21:00", "outdoor_seating": "no", "phone": "+919748742245", "website": "https://www.facebook.com/profile.php?id=100094880922930"}}, {"type": "node", "id": 11300066506, "lat": 22.4775636, "lon": 88.3767695, "tags": {"amenity": "fast_food", "check_date": "2023-10-30", "cuisine": "pizza;burger;sandwich;chicken;indian", "drive_through": "yes", "internet_access": "wlan", "internet_access:fee": "no", "name": "I Snax", "payment:cash": "yes", "payment:mastercard": "yes", "payment:visa": "yes", "source": "local knowledge"}}, {"type": "node", "id": 11300070189, "lat": 22.4775125, "lon": 88.3772453, "tags": {"amenity": "fast_food", "check_date": "2023-10-30", "cuisine": "indian;chicken;fish;pasta", "diet:meat": "yes", "diet:non-vegetarian": "yes", "diet:vegetarian": "yes", "drive_through": "yes", "internet_access": "wlan", "internet_access:fee": "no", "name": "Amiyo Snacks", "payment:cash": "yes", "payment:mastercard": "yes", "payment:visa": "yes", "source": "local knowledge"}}, {"type": "node", "id": 11300159288, "lat": 22.4745421, "lon": 88.3763285, "tags": {"amenity": "fast_food", "brand": "Wow! Momo", "brand:wikidata": "Q8037446", "check_date": "2023-10-30", "cuisine": "momo", "name": "Wow! Momo", "payment:cash": "yes", "payment:mastercard": "yes", "payment:visa": "yes", "source": "local knowledge", "takeaway": "yes"}}, {"type": "node", "id": 11300161815, "lat": 22.4770654, "lon": 88.3761117, "tags": {"amenity": "cafe", "check_date": "2023-10-30", "name": "Chumuke Chomok Cafe", "payment:cash": "yes", "payment:mastercard": "yes", "payment:visa": "yes", "source": "local knowledge"}}, {"type": "node", "id": 11300205474, "lat": 22.4764077, "lon": 88.3755584, "tags": {"amenity": "cafe", "check_date": "2023-11-11", "name": "Solace Cafe", "outdoor_seating": "no", "source": "local knowledge"}}, {"type": "node", "id": 11300208380, "lat": 22.4700088, "lon": 88.3777667, "tags": {"amenity": "fast_food", "check_date": "2023-10-30", "name": "A1 Fast Food Centre", "source": "local knowledge"}}, {"type": "node", "id": 11300249734, "lat": 22.4643847, "lon": 88.3774683, "tags": {"amenity": "cafe", "check_date": "2023-10-30", "name": "Sushma Tea Stall", "source": "local knowledge"}}, {"type": "node", "id": 11305049652, "lat": 22.4780367, "lon": 88.3813299, "tags": {"amenity": "cafe", "check_date": "2023-11-01", "name": "Sitala Cafe"}}, {"type": "node", "id": 11381115942, "lat": 22.5083351, "lon": 88.3368964, "tags": {"addr:city": "New Alipore", "addr:district": "Kolkata", "addr:housenumber": "603/1B", "addr:postcode": "700053", "addr:street": "Block O", "air_conditioning": "no", "amenity": "cafe", "bar": "no", "cuisine": "indian;pizza;burger;chinese;italian;sandwich;regional;thai", "delivery": "yes", "diet:vegan": "yes", "diet:vegetarian": "yes", "email": "ubuntucommunity3@gmail.com", "level": "0", "name": "Ubuntu Eat", "name:en": "Ubuntu Eat", "opening_hours": "Mo-Su 12:00-22:00", "outdoor_seating": "no", "payment:cash": "yes", "payment:contactless": "yes", "phone": "+91-9330823020", "toilets": "yes", "website": "https://ubuntueat.com/", "website:menu": "https://ubuntueat.com/wp-content/uploads/2022/03/Ubuntu-Eat-Dine-In_Kolkata_2032022_compressed.pdf"}}, {"type": "node", "id": 11408832769, "lat": 22.5151488, "lon": 88.3533639, "tags": {"amenity": "cafe", "brand": "Starbucks", "brand:wikidata": "Q37158", "cuisine": "coffee_shop", "name": "Starbucks", "official_name": "Starbucks Coffee", "shop": "coffee", "takeaway": "yes"}}, {"type": "node", "id": 11422427265, "lat": 22.5253002, "lon": 88.3654384, "tags": {"amenity": "cafe", "check_date": "2023-12-16", "cuisine": "pizza;burger;regional", "internet_access": "wlan", "internet_access:fee": "no", "name": "Kolkata Tram World", "outdoor_seating": "yes", "payment:cash": "yes", "payment:mastercard": "yes", "payment:visa": "yes", "wheelchair": "yes"}}, {"type": "node", "id": 11634134090, "lat": 22.6022704, "lon": 88.3755325, "tags": {"addr:city": "Kolkata", "amenity": "cafe", "cuisine": "chai", "name": "Tea Shop"}}, {"type": "node", "id": 11652266369, "lat": 22.559958, "lon": 88.351837, "tags": {"amenity": "fast_food", "name": "Burger King"}}, {"type": "node", "id": 11659430169, "lat": 22.5602933, "lon": 88.35157, "tags": {"amenity": "fast_food", "name": "Burger King"}}, {"type": "way", "id": 359465661, "nodes": [3641838075, 3641838307, 3641838301, 3641838071, 3641838075], "tags": {"amenity": "cafe", "building": "yes"}}, {"type": "way", "id": 1148562660, "nodes": [10686185737, 10686185738, 10686185739, 10686185740, 10686185741, 10686185737], "tags": {"addr:city": "Kolkata", "addr:postcode": "700 050", "addr:street": "Barrackpore Trunk Road", "amenity": "fast_food", "brand": "Domino's", "brand:wikidata": "Q839466", "building": "yes", "cuisine": "pizza", "name": "Domino's", "takeaway": "yes", "website": "https://www.dominos.co.in/"}}]}