{"version": 0.6, "generator": "Overpass API 0.7.61.5 4133829e", "osm3s": {"timestamp_osm_base": "2024-02-25T09:11:15Z", "copyright": "The data included in this document is from www.openstreetmap.org. The data is made available under ODbL."}, "elements": [{"type": "node", "id": 6986528344, "lat": 22.7220565, "lon": 72.4361055, "tags": {"addr:district": "Ahmedabad", "addr:full": "Opposite Shree Ram market, Lokdiya Sheri, Dholka", "addr:postcode": "387810", "addr:state": "Gujarat", "addr:subdistrict": "Dholka", "amenity": "hospital", "name": "Jivandeep Hospital, Ahmedabad", "operator:type": "private", "source": "OpenGovernmentData", "website": "http://www.rsby.gov.in/Districtwise.aspx"}}, {"type": "node", "id": 7864058604, "lat": 22.730733, "lon": 72.4399816, "tags": {"addr:district": "Ahmedabad", "addr:full": "Maghiya", "addr:postcode": "382225", "addr:state": "Gujarat", "amenity": "hospital", "name": "Arihant Hospital", "source": "Local Knowledge"}}, {"type": "node", "id": 7864058607, "lat": 22.727207, "lon": 72.438565, "tags": {"addr:district": "Ahmedabad", "addr:full": "Radhanpuri", "addr:postcode": "382225", "addr:state": "Gujarat", "amenity": "hospital", "name": "Brinda Maternity Nursing Home", "source": "Local Knowledge"}}, {"type": "node", "id": 7864058620, "lat": 22.718631, "lon": 72.437575, "tags": {"addr:district": "Ahmedabad", "addr:full": "Dholka", "addr:postcode": "382225", "addr:state": "Gujarat", "amenity": "hospital", "name": "Raj Hospital", "source": "Local Knowledge"}}, {"type": "node", "id": 7864058631, "lat": 22.744053, "lon": 72.44004, "tags": {"addr:district": "Ahmedabad", "addr:full": "Kalikund, Dholka", "addr:postcode": "382225", "addr:state": "Gujarat", "amenity": "hospital", "name": "Parshwanath General Hospital", "source": "Local Knowledge"}}, {"type": "node", "id": 7864058640, "lat": 22.727869, "lon": 72.437637, "tags": {"addr:district": "Ahmedabad", "addr:full": "Dholka, Radhanpuri", "addr:postcode": "382225", "addr:state": "Gujarat", "amenity": "hospital", "name": "Shri Hari Krishna Multi Speciality Hospital", "source": "Local Knowledge"}}, {"type": "node", "id": 7864058649, "lat": 22.7262642, "lon": 72.4408365, "tags": {"addr:district": "Ahmedabad", "addr:full": "Radhanpuri", "addr:postcode": "382225", "addr:state": "Gujarat", "amenity": "hospital", "name": "Sethwala Hospital", "source": "Local Knowledge"}}, {"type": "node", "id": 7864058659, "lat": 22.718781, "lon": 72.436646, "tags": {"addr:district": "Ahmedabad", "addr:full": "Maghiya, Dholka", "addr:postcode": "382225", "addr:state": "Gujarat", "amenity": "hospital", "name": "Jiyansh Hospital and Prasutigruh", "source": "Local Knowledge"}}, {"type": "node", "id": 7864058662, "lat": 22.724803, "lon": 72.437541, "tags": {"addr:district": "Ahmedabad", "addr:full": "Radhanpuri, Dholka", "addr:postcode": "382225", "addr:state": "Gujarat", "amenity": "hospital", "name": "Jekuba Children's Hospital", "source": "Local Knowledge"}}, {"type": "node", "id": 7864058663, "lat": 22.7259138, "lon": 72.4376501, "tags": {"addr:district": "Ahmedabad", "addr:full": "Dholka", "addr:postcode": "382225", "addr:state": "Gujarat", "amenity": "dentist", "name": "Patel Dental Clinic", "source": "Local Knowledge"}}]}