{"version": 0.6, "generator": "Overpass API 0.7.61.5 4133829e", "osm3s": {"timestamp_osm_base": "2024-02-25T09:11:15Z", "copyright": "The data included in this document is from www.openstreetmap.org. The data is made available under ODbL."}, "elements": [{"type": "node", "id": 6978003524, "lat": 23.2890617, "lon": 71.9157475, "tags": {"addr:district": "Ahmedabad", "addr:full": "Referral Hospital/Samuhik Aarogya Kendra, Mandal", "addr:postcode": "382130", "addr:state": "Gujarat", "amenity": "clinic", "healthcare": "centre", "name": "CHC, Mandal", "source": "OpenGovernmentData"}}, {"type": "node", "id": 6988337418, "lat": 23.129326, "lon": 72.0437264, "tags": {"addr:district": "Ahmedabad", "addr:full": "Referral Hospital/Samuhik Aarogya Kendra, Viramgam", "addr:state": "Gujarat", "amenity": "clinic", "healthcare": "centre", "name": "Community Health Centre, Viramgam", "operator:type": "government", "source": "OpenGovernmentData", "website": "http://www.rsby.gov.in/Districtwise.aspx"}}, {"type": "node", "id": 6993868962, "lat": 23.1278572, "lon": 72.0466849, "tags": {"addr:district": "Ahmedabad", "addr:full": "Referral Hospital/Samuhik Aarogya Kendra, Viramgam", "addr:postcode": "382150", "addr:state": "Gujarat", "amenity": "clinic", "healthcare": "centre", "name": "CHC, Viramgam", "source": "OpenGovernmentData"}}, {"type": "node", "id": 7864133794, "lat": 23.128407, "lon": 72.045462, "tags": {"addr:district": "Ahmedabad", "addr:full": "Viramgam", "addr:postcode": "384210", "addr:state": "Gujarat", "amenity": "dentist", "healthcare": "dentist", "name": "Avadh Dental Clinic", "source": "Local Knowledge"}}, {"type": "node", "id": 7864133823, "lat": 23.130402, "lon": 72.043186, "tags": {"addr:district": "Ahmedabad", "addr:full": "Aligarh, Viramgam", "addr:postcode": "384210", "addr:state": "Gujarat", "amenity": "hospital", "healthcare": "hospital", "name": "Genearl Eye Hospital", "source": "Local Knowledge"}}, {"type": "node", "id": 7864133838, "lat": 23.128035, "lon": 72.046505, "tags": {"addr:district": "Ahmedabad", "addr:full": "Viramgam", "addr:postcode": "382159", "addr:state": "Gujarat", "amenity": "hospital", "healthcare": "hospital", "name": "Angel Maternity and Nursing Home", "source": "Local Knowledge"}}, {"type": "node", "id": 7864133844, "lat": 23.128233, "lon": 72.051298, "tags": {"addr:district": "Ahmedabad", "addr:full": "Axar Nagar, Viramgam", "addr:postcode": "382159", "addr:state": "Gujarat", "amenity": "hospital", "name": "Krishna Hospital", "source": "Local Knowledge"}}, {"type": "node", "id": 7865156491, "lat": 23.502729, "lon": 72.043374, "tags": {"addr:district": "Mehsana", "addr:full": "Mansarovar, Becharaji", "addr:postcode": "384210", "addr:state": "Gujarat", "amenity": "clinic", "healthcare": "clinic", "name": "Kothanji Ayurvedic Clinic", "source": "Local Knowledge"}}, {"type": "node", "id": 7865156492, "lat": 23.503487, "lon": 72.043737, "tags": {"addr:district": "Mehsana", "addr:postcode": "384210", "addr:state": "Gujarat", "amenity": "hospital", "healthcare": "hospital", "name": "K B Hospital", "source": "Local Knowledge"}}, {"type": "node", "id": 7865156497, "lat": 23.496491, "lon": 72.043514, "tags": {"addr:district": "Mehsana", "addr:full": "Mehsana, Becharaji", "addr:postcode": "334220", "addr:state": "Gujarat", "amenity": "hospital", "name": "Jatin Patel Dental Hospital", "source": "Local Knowledge"}}, {"type": "node", "id": 7865156503, "lat": 23.496594, "lon": 72.043555, "tags": {"addr:district": "Mehsana", "addr:full": "Becharaji", "addr:postcode": "384210", "addr:state": "Gujarat", "amenity": "clinic", "name": "Mishti Clinic", "source": "Local Knowledge"}}, {"type": "node", "id": 7865156505, "lat": 23.501564, "lon": 72.043747, "tags": {"addr:district": "Mehsana", "addr:full": "Mansarovar, Becharaji", "addr:postcode": "384210", "addr:state": "Gujarat", "amenity": "hospital", "healthcare": "hospital", "name": "Mamata Hospital", "source": "Local Knowledge"}}, {"type": "node", "id": 7865156510, "lat": 23.503592, "lon": 72.041618, "tags": {"addr:district": "Mehsana", "addr:full": "Becharaji", "addr:postcode": "384210", "addr:state": "Gujarat", "amenity": "clinic", "healthcare": "clinic", "name": "Umiya Nursing Home", "source": "Local Knowledge"}}, {"type": "node", "id": 7865156519, "lat": 23.5001486, "lon": 72.0434248, "tags": {"addr:district": "Mehsana", "addr:full": "Mansarovar, Becharaji", "addr:postcode": "384210", "addr:state": "Gujarat", "amenity": "clinic", "healthcare": "clinic", "name": "Radhe Clinic", "source": "Local Knowledge"}}, {"type": "node", "id": 7865156520, "lat": 23.4963722, "lon": 72.0420985, "tags": {"addr:district": "Mehsana", "addr:full": "Becharaji", "addr:postcode": "384210", "addr:state": "Gujarat", "amenity": "clinic", "name": "Ramanbhai Foundation Health Centre and Polyclinic", "source": "Local Knowledge"}}, {"type": "node", "id": 7865156522, "lat": 23.501827, "lon": 72.04676, "tags": {"addr:district": "Mehsana", "addr:postcode": "384210", "addr:state": "Gujarat", "amenity": "clinic", "healthcare": "clinic", "name": "Sanjivani Clinic", "source": "Local Knowledge"}}, {"type": "node", "id": 7865156524, "lat": 23.502313, "lon": 72.04367, "tags": {"addr:district": "Mehsana", "addr:full": "Mansarovar, Becharaji", "addr:postcode": "384210", "addr:state": "Gujarat", "amenity": "clinic", "healthcare": "clinic", "name": "Shivam Clinic", "source": "Local Knowledge"}}, {"type": "node", "id": 7865156526, "lat": 23.5027508, "lon": 72.0447349, "tags": {"addr:district": "Mehsana", "addr:postcode": "384210", "addr:state": "Gujarat", "amenity": "dentist", "name": "Bahuchar Dental Clinic", "source": "Local Knowledge"}}, {"type": "node", "id": 7865156530, "lat": 23.503086, "lon": 72.043699, "tags": {"addr:district": "Mehsana", "addr:full": "Becharaji", "addr:postcode": "334220", "addr:state": "Gujarat", "amenity": "hospital", "healthcare": "hospital", "name": "Deepali Hospital", "source": "Local Knowledge"}}, {"type": "node", "id": 7865156540, "lat": 23.505175, "lon": 72.043429, "tags": {"addr:district": "Mehsana", "addr:postcode": "384210", "addr:state": "Gujarat", "amenity": "hospital", "name": "Narmadaba Hospital", "source": "Local Knowledge"}}, {"type": "node", "id": 7865156545, "lat": 23.5027655, "lon": 72.0437023, "tags": {"addr:district": "Mehsana", "addr:full": "Mansarovar, Becharaji", "addr:postcode": "384210", "addr:state": "Gujarat", "amenity": "dentist", "name": "Uma Dental Clinic", "source": "Local Knowledge"}}]}