{"version": 0.6, "generator": "Overpass API 0.7.61.5 4133829e", "osm3s": {"timestamp_osm_base": "2024-02-25T09:45:00Z", "copyright": "The data included in this document is from www.openstreetmap.org. The data is made available under ODbL."}, "elements": [{"type": "node", "id": 2458204090, "lat": 27.0305893, "lon": 75.893362}, {"type": "node", "id": 2458204092, "lat": 27.0303452, "lon": 75.8931754}, {"type": "node", "id": 2458204094, "lat": 27.0288548, "lon": 75.8920124}, {"type": "node", "id": 2458204096, "lat": 27.0288289, "lon": 75.8919774}, {"type": "node", "id": 2458204097, "lat": 27.0282057, "lon": 75.8930122}, {"type": "node", "id": 2458204098, "lat": 27.0283485, "lon": 75.8931142}, {"type": "node", "id": 2458204099, "lat": 27.0280889, "lon": 75.8934815}, {"type": "node", "id": 2458204100, "lat": 27.0299246, "lon": 75.8949185}, {"type": "node", "id": 2458204101, "lat": 27.030527, "lon": 75.8935456}, {"type": "node", "id": 2458217902, "lat": 27.0293113, "lon": 75.8962226}, {"type": "node", "id": 2458217903, "lat": 27.0271543, "lon": 75.8945424}, {"type": "node", "id": 2458217904, "lat": 27.0278318, "lon": 75.8932855}, {"type": "node", "id": 2458220433, "lat": 27.028741, "lon": 75.8973851}, {"type": "node", "id": 2458220434, "lat": 27.0265016, "lon": 75.8958058}, {"type": "node", "id": 4225230790, "lat": 26.8300718, "lon": 75.8430423, "tags": {"addr:postcode": "302017", "amenity": "school", "name": "Turtles School"}}, {"type": "node", "id": 6728959769, "lat": 26.9350377, "lon": 75.9231968}, {"type": "node", "id": 6728982970, "lat": 26.9356935, "lon": 75.9220851}, {"type": "node", "id": 6728982971, "lat": 26.9356821, "lon": 75.9231505}, {"type": "node", "id": 6728982972, "lat": 26.9349826, "lon": 75.9221298}, {"type": "node", "id": 7082196526, "lat": 26.8530865, "lon": 75.8617612, "tags": {"amenity": "college", "name": "Seedling Institute for Integrated Learning and Advanced Studies", "name:hi": "\u0938\u0940\u0921\u0932\u093f\u0902\u0917 \u0907\u0902\u0938\u094d\u091f\u093f\u091f\u094d\u092f\u0942\u091f \u092b\u0949\u0930 \u0907\u0902\u091f\u0940\u0917\u094d\u0930\u0947\u091f\u0947\u0921 \u0932\u0930\u094d\u0928\u093f\u0902\u0917 \u0914\u0930 \u090f\u0921\u0935\u093e\u0902\u0938\u094d\u0921 \u0938\u094d\u091f\u0921\u0940\u0938"}}, {"type": "node", "id": 8043890748, "lat": 26.9595041, "lon": 75.844452}, {"type": "node", "id": 8043890749, "lat": 26.9596109, "lon": 75.8445342}, {"type": "node", "id": 8043890750, "lat": 26.9599893, "lon": 75.8446985}, {"type": "node", "id": 8043890751, "lat": 26.9604715, "lon": 75.8447944}, {"type": "node", "id": 8043890752, "lat": 26.9605112, "lon": 75.844541}, {"type": "node", "id": 8043890753, "lat": 26.9601358, "lon": 75.844202}, {"type": "node", "id": 8043890754, "lat": 26.959971, "lon": 75.8443527}, {"type": "node", "id": 8043890755, "lat": 26.9598856, "lon": 75.8443904}, {"type": "node", "id": 8043890756, "lat": 26.959733, "lon": 75.8442705}, {"type": "node", "id": 8043890757, "lat": 26.959614, "lon": 75.8441712}, {"type": "node", "id": 8125619003, "lat": 26.9062568, "lon": 75.8381512, "tags": {"addr:city": "Jaipur", "addr:housenumber": "Janta Colony", "addr:postcode": "302004", "addr:street": "Govind Marg", "amenity": "school", "name": "SJ Public School", "phone": "+91-141-2613956"}}, {"type": "node", "id": 10752361763, "lat": 26.8140986, "lon": 75.9000698}, {"type": "node", "id": 10752361764, "lat": 26.8139861, "lon": 75.9007055}, {"type": "node", "id": 10752361765, "lat": 26.8137108, "lon": 75.9014189}, {"type": "node", "id": 10752361766, "lat": 26.8147091, "lon": 75.9009334}, {"type": "node", "id": 10752361767, "lat": 26.8148216, "lon": 75.9009469}, {"type": "node", "id": 10752361768, "lat": 26.8153027, "lon": 75.9000832}, {"type": "node", "id": 10752361769, "lat": 26.8155517, "lon": 75.9001315}, {"type": "node", "id": 10752361770, "lat": 26.8158964, "lon": 75.8991739}, {"type": "node", "id": 10752361771, "lat": 26.8158868, "lon": 75.8990774}, {"type": "node", "id": 10752361772, "lat": 26.8158533, "lon": 75.8990371}, {"type": "node", "id": 10752361773, "lat": 26.8158892, "lon": 75.9001878}, {"type": "node", "id": 10752361774, "lat": 26.8149053, "lon": 75.900051}, {"type": "node", "id": 10752361775, "lat": 26.8145678, "lon": 75.9015101}, {"type": "node", "id": 10752361776, "lat": 26.8137156, "lon": 75.9015343}, {"type": "node", "id": 10752361777, "lat": 26.814417, "lon": 75.8990559}, {"type": "node", "id": 10752361778, "lat": 26.8158016, "lon": 75.899021}, {"type": "way", "id": 237962349, "nodes": [2458204090, 2458204092, 2458204094, 2458204096, 2458204097, 2458204098, 2458204099, 2458204100, 2458204101, 2458204090], "tags": {"addr:full": "SP-40, RIICO Industrial Area, Kukas, Delhi Road, Jaipur Rajasthan - 302028", "amenity": "college", "name": "Arya College of Engineering and Information Technology", "website": "https://www.aryacollege.org/", "wheelchair": "no", "wikidata": "Q14956976", "wikipedia": "en:Arya College of Engineering & I.T."}}, {"type": "way", "id": 237964454, "nodes": [2458204100, 2458217902, 2458217903, 2458217904, 2458204100], "tags": {"addr:city": "Kuaks, Jaipur", "addr:housename": "JEC Group of colleges", "addr:housenumber": "SP-43", "addr:postcode": "303101", "addr:street": "RIICO Indistrial Area", "amenity": "college", "name": "Jaipur Engineering College", "phone": "+91 1426 247 345", "website": "https://www.www.jeckukas.org.in/", "wikidata": "Q6124125"}}, {"type": "way", "id": 237964677, "nodes": [2458217902, 2458220433, 2458220434, 2458217903, 2458217902], "tags": {"addr:city": "Kuaks, Jaipur", "addr:housenumber": "SP-44", "addr:postcode": "303101", "addr:street": "RIICO Industrial Area", "amenity": "college", "name": "Shankara Institute of Technology", "phone": "+91 1426 227 005/422", "website": "https://www.shankaratechnology.org/"}}, {"type": "way", "id": 716051408, "nodes": [6728982970, 6728982971, 6728959769, 6728982972, 6728982970], "tags": {"addr:city": "Jaipur", "addr:housenumber": "Adcads", "addr:postcode": "302031", "addr:street": "LNMIIT", "amenity": "university", "building": "commercial", "building:levels": "2", "name": "LNMIIT Academics", "smoking": "no"}}, {"type": "way", "id": 863494838, "nodes": [8043890748, 8043890749, 8043890750, 8043890751, 8043890752, 8043890753, 8043890754, 8043890755, 8043890756, 8043890757, 8043890748], "tags": {"amenity": "school", "name": "Air Force School"}}, {"type": "way", "id": 1156213753, "nodes": [10752361778, 10752361777, 10752361763, 10752361764, 10752361765, 10752361776, 10752361775, 10752361766, 10752361767, 10752361774, 10752361768, 10752361769, 10752361773, 10752361770, 10752361771, 10752361772, 10752361778], "tags": {"addr:city": "Jaipur Municipal Corporation", "addr:postcode": "303905", "addr:street": "VIT Road", "amenity": "school", "name": "Vivek Techno School"}}]}