{"version": 0.6, "generator": "Overpass API 0.7.61.5 4133829e", "osm3s": {"timestamp_osm_base": "2024-02-25T09:23:29Z", "copyright": "The data included in this document is from www.openstreetmap.org. The data is made available under ODbL."}, "elements": [{"type": "node", "id": 298598964, "lat": 21.1414942, "lon": 79.0608763, "tags": {"amenity": "fast_food", "name": "Haldiram"}}, {"type": "node", "id": 2593307943, "lat": 21.1118101, "lon": 79.1041176, "tags": {"amenity": "bar", "name": "Bramhand Bar"}}, {"type": "node", "id": 3068215095, "lat": 21.1465677, "lon": 79.0612847, "tags": {"amenity": "cafe", "brand": "Cafe Coffee Day", "brand:wikidata": "Q5017235", "brand:wikipedia": "en:Caf\u00e9 Coffee Day", "cuisine": "coffee_shop", "name": "Cafe Coffee Day", "takeaway": "yes"}}, {"type": "node", "id": 3068227394, "lat": 21.1222861, "lon": 79.056686, "tags": {"amenity": "fast_food", "brand": "Domino's", "brand:ks": "\u0688\u0648\u0645\u06cc\u0646\u0648\u0632", "brand:pa": "\u0a21\u0a4b\u0a2e\u0a40\u0a28\u0a4b\u0a1c\u0a3c", "brand:ur": "\u0688\u0648\u0645\u06cc\u0646\u0648\u0632", "brand:wikidata": "Q839466", "brand:wikipedia": "en:Domino's Pizza", "cuisine": "pizza", "name": "Domino's", "name:ks": "\u0688\u0648\u0645\u06cc\u0646\u0648\u0632", "name:pa": "\u0a21\u0a4b\u0a2e\u0a40\u0a28\u0a4b\u0a1c\u0a3c", "name:ur": "\u0688\u0648\u0645\u06cc\u0646\u0648\u0632", "takeaway": "yes"}}, {"type": "node", "id": 3141280899, "lat": 21.1559869, "lon": 79.0552084, "tags": {"amenity": "pub", "name": "CP Club"}}, {"type": "node", "id": 3201698592, "lat": 21.1635972, "lon": 79.0802439, "tags": {"amenity": "fast_food", "cuisine": "ice_cream", "name": "Dinshaw's"}}, {"type": "node", "id": 3201698667, "lat": 21.1607847, "lon": 79.0798163, "tags": {"amenity": "fast_food", "cuisine": "ice_cream", "name": "Dinshaw's"}}, {"type": "node", "id": 3201698675, "lat": 21.1635322, "lon": 79.0801527, "tags": {"amenity": "fast_food", "cuisine": "indian", "name": "Haldirams"}}, {"type": "node", "id": 3902582603, "lat": 21.1194578, "lon": 79.1114363}, {"type": "node", "id": 3902582606, "lat": 21.1188899, "lon": 79.1114148}, {"type": "node", "id": 3937316704, "lat": 21.119249, "lon": 79.1044468, "tags": {"amenity": "fast_food", "brand": "Domino's", "brand:ks": "\u0688\u0648\u0645\u06cc\u0646\u0648\u0632", "brand:pa": "\u0a21\u0a4b\u0a2e\u0a40\u0a28\u0a4b\u0a1c\u0a3c", "brand:ur": "\u0688\u0648\u0645\u06cc\u0646\u0648\u0632", "brand:wikidata": "Q839466", "brand:wikipedia": "en:Domino's Pizza", "cuisine": "pizza", "microbrewery": "no", "name": "Domino's", "name:ks": "\u0688\u0648\u0645\u06cc\u0646\u0648\u0632", "name:pa": "\u0a21\u0a4b\u0a2e\u0a40\u0a28\u0a4b\u0a1c\u0a3c", "name:ur": "\u0688\u0648\u0645\u06cc\u0646\u0648\u0632", "takeaway": "yes"}}, {"type": "node", "id": 4002906890, "lat": 21.1220219, "lon": 79.1051552, "tags": {"amenity": "bar", "name": "Prashant Bar and Restaurant"}}, {"type": "node", "id": 4330803191, "lat": 21.1188994, "lon": 79.1113733}, {"type": "node", "id": 4330841389, "lat": 21.11945, "lon": 79.1113767}, {"type": "node", "id": 4330841689, "lat": 21.1194519, "lon": 79.1114099}, {"type": "node", "id": 4445299289, "lat": 21.1432571, "lon": 79.0803975, "tags": {"amenity": "fast_food", "brand": "KFC", "brand:pa": "\u0a15\u0a47\u0a10\u0a2b\u0a38\u0a40", "brand:ur": "\u06a9\u06cc\u0646\u0679\u06a9\u06cc \u0641\u0631\u0627\u0626\u06cc\u0688 \u0686\u06a9\u0646", "brand:wikidata": "Q524757", "brand:wikipedia": "en:KFC", "brand:wikipedia:pa": "\u0a15\u0a47\u0a10\u0a2b\u0a38\u0a40", "brand:wikipedia:ur": "\u06a9\u06cc\u0646\u0679\u06a9\u06cc \u0641\u0631\u0627\u0626\u06cc\u0688 \u0686\u06a9\u0646", "cuisine": "chicken", "drive_through": "no", "name": "KFC", "name:pa": "\u0a15\u0a47\u0a10\u0a2b\u0a38\u0a40", "name:ur": "\u06a9\u06cc\u0646\u0679\u06a9\u06cc \u0641\u0631\u0627\u0626\u06cc\u0688 \u0686\u06a9\u0646", "takeaway": "yes"}}, {"type": "node", "id": 4534465494, "lat": 21.1362251, "lon": 79.0606613, "tags": {"amenity": "fast_food", "name:en": "Haldiram's"}}, {"type": "node", "id": 4539708393, "lat": 21.1370185, "lon": 79.0654413, "tags": {"amenity": "fast_food", "name:en": "Naturals Icecream Parlour"}}, {"type": "node", "id": 4584533502, "lat": 21.1317724, "lon": 79.0523131, "tags": {"amenity": "cafe", "brand": "Cafe Coffee Day", "brand:wikidata": "Q5017235", "brand:wikipedia": "en:Caf\u00e9 Coffee Day", "cuisine": "coffee_shop", "name": "Cafe Coffee Day", "takeaway": "yes"}}, {"type": "node", "id": 4735534721, "lat": 21.1127812, "lon": 79.0521684, "tags": {"addr:city": "Nagpur", "addr:street": "Ring Road", "addr:unit": "Pratap Nagar", "amenity": "cafe", "brand": "Cafe Coffee Day", "brand:wikidata": "Q5017235", "cuisine": "coffee_shop", "name": "Cafe Coffee Day", "name:en": "Cafe Coffee Day", "outdoor_seating": "yes", "takeaway": "yes"}}, {"type": "node", "id": 5280291711, "lat": 21.126266, "lon": 79.1335185, "tags": {"amenity": "fast_food", "name": "Konark Panipuri Centre", "opening_hours": "Mo-Su 017:00-23:00"}}, {"type": "node", "id": 5280291712, "lat": 21.1272893, "lon": 79.1333334, "tags": {"amenity": "fast_food", "name": "Konark Panipuri Centre", "opening_hours": "Mo-Su 17:00-22:00"}}, {"type": "node", "id": 5331412922, "lat": 21.1182069, "lon": 79.0718718, "tags": {"amenity": "bar", "name:en": "Indraprastha Bar and Restaurant"}}, {"type": "node", "id": 5352567844, "lat": 21.1220669, "lon": 79.0570517, "tags": {"addr:city": "Nagpur", "addr:street": "South Ambazari Road", "amenity": "cafe", "description": "Waffles and beverages served here.", "internet_access": "no", "name": "The Belgian Waffle Co.", "opening_hours": "Mo-Su 11:00-23:00", "outdoor_seating": "no", "smoking": "no"}}, {"type": "node", "id": 5365649373, "lat": 21.134524, "lon": 79.0583139, "tags": {"addr:city": "nagpur", "addr:housenumber": "B Wing", "addr:postcode": "440010", "addr:street": "Lower Ground Floor, Rashtra Bhasha Sankul, Shankar Nagar,", "amenity": "cafe", "cuisine": "cafe", "internet_access": "yes", "name": "Bouffage Cafe And Bistro", "opening_hours": "Mo-Su 11:00-23:00", "outdoor_seating": "no"}}, {"type": "node", "id": 5829881185, "lat": 21.1708986, "lon": 79.0794977, "tags": {"amenity": "cafe", "name:en": "Caf\u00e9 Coffee Day"}}, {"type": "node", "id": 6227566327, "lat": 21.2007771, "lon": 79.140539, "tags": {"amenity": "bar", "name": "Duke's Bar and Restaurant"}}, {"type": "node", "id": 7151959215, "lat": 21.1377766, "lon": 79.0603649, "tags": {"amenity": "bar", "name": "Fiona stockexchange"}}, {"type": "node", "id": 7274237082, "lat": 21.1431139, "lon": 79.0803841, "tags": {"amenity": "cafe", "brand": "Cafe Coffee Day", "brand:wikidata": "Q5017235", "brand:wikipedia": "en:Caf\u00e9 Coffee Day", "cuisine": "coffee_shop", "name": "Cafe Coffee Day", "takeaway": "yes"}}, {"type": "node", "id": 7274237083, "lat": 21.1429763, "lon": 79.0803653, "tags": {"amenity": "fast_food", "brand": "Domino's", "brand:ks": "\u0688\u0648\u0645\u06cc\u0646\u0648\u0632", "brand:pa": "\u0a21\u0a4b\u0a2e\u0a40\u0a28\u0a4b\u0a1c\u0a3c", "brand:ur": "\u0688\u0648\u0645\u06cc\u0646\u0648\u0632", "brand:wikidata": "Q839466", "brand:wikipedia": "en:Domino's Pizza", "cuisine": "pizza", "name": "Domino's", "name:ks": "\u0688\u0648\u0645\u06cc\u0646\u0648\u0632", "name:pa": "\u0a21\u0a4b\u0a2e\u0a40\u0a28\u0a4b\u0a1c\u0a3c", "name:ur": "\u0688\u0648\u0645\u06cc\u0646\u0648\u0632", "takeaway": "yes"}}, {"type": "node", "id": 7777717818, "lat": 21.1384293, "lon": 79.1206468, "tags": {"alt_name": "Haldiram", "amenity": "fast_food", "brand": "Haldiram's", "brand:wikidata": "Q17054442", "cuisine": "indian", "name": "Haldiram's", "takeaway": "yes"}}, {"type": "node", "id": 8913967192, "lat": 21.116635, "lon": 79.0568954}, {"type": "node", "id": 8913967193, "lat": 21.1166389, "lon": 79.0570757}, {"type": "node", "id": 8913967194, "lat": 21.1165796, "lon": 79.0570777}, {"type": "node", "id": 8913967195, "lat": 21.1165796, "lon": 79.0568934}, {"type": "node", "id": 8913967196, "lat": 21.1165389, "lon": 79.0570845}, {"type": "node", "id": 8913967197, "lat": 21.1165389, "lon": 79.0571364}, {"type": "node", "id": 8913967198, "lat": 21.1165251, "lon": 79.0571395}, {"type": "node", "id": 8913967199, "lat": 21.1165265, "lon": 79.0570839}, {"type": "node", "id": 8913989923, "lat": 21.1222972, "lon": 79.0566882, "tags": {"amenity": "fast_food", "brand": "Domino's", "brand:ks": "\u0688\u0648\u0645\u06cc\u0646\u0648\u0632", "brand:pa": "\u0a21\u0a4b\u0a2e\u0a40\u0a28\u0a4b\u0a1c\u0a3c", "brand:ur": "\u0688\u0648\u0645\u06cc\u0646\u0648\u0632", "brand:wikidata": "Q839466", "brand:wikipedia": "en:Domino's Pizza", "cuisine": "pizza", "name": "Domino's", "name:ks": "\u0688\u0648\u0645\u06cc\u0646\u0648\u0632", "name:pa": "\u0a21\u0a4b\u0a2e\u0a40\u0a28\u0a4b\u0a1c\u0a3c", "name:ur": "\u0688\u0648\u0645\u06cc\u0646\u0648\u0632", "takeaway": "yes"}}, {"type": "node", "id": 8913989997, "lat": 21.1138082, "lon": 79.0560963, "tags": {"amenity": "cafe", "name": "Cafe Illusions"}}, {"type": "node", "id": 8913990003, "lat": 21.1127232, "lon": 79.0519363, "tags": {"amenity": "cafe", "name": "Icing on the cake"}}, {"type": "node", "id": 9078358917, "lat": 21.052029, "lon": 79.1027881, "tags": {"amenity": "cafe", "name": "By the Way", "survey:date": "2021-09-10"}}, {"type": "node", "id": 9338198331, "lat": 21.1220038, "lon": 79.0569892, "tags": {"addr:city": "Nagpur", "addr:housenumber": "Shop 12, Opp. Dominos Pizza", "addr:postcode": "440022", "addr:street": "South Ambazari Road, Mate Square", "amenity": "cafe", "cuisine": "pizza;coffee_shop;sandwich;indian;ice_cream", "name": "Infusion - Coffee & You", "opening_hours": "Mo-Su 11:00-23:00", "outdoor_seating": "yes", "phone": "+91 98331 91050"}}, {"type": "node", "id": 9729677414, "lat": 21.1253047, "lon": 79.0472051}, {"type": "node", "id": 9729677415, "lat": 21.1253711, "lon": 79.0473843}, {"type": "node", "id": 9729677416, "lat": 21.1252091, "lon": 79.0475076}, {"type": "node", "id": 9729778317, "lat": 21.125125, "lon": 79.0472638}, {"type": "node", "id": 9729778338, "lat": 21.12532, "lon": 79.0474249}, {"type": "node", "id": 10238293281, "lat": 21.1768612, "lon": 79.061872}, {"type": "node", "id": 10238293282, "lat": 21.1767946, "lon": 79.0620736}, {"type": "node", "id": 10238293283, "lat": 21.1766549, "lon": 79.0620201}, {"type": "node", "id": 10238293284, "lat": 21.1766765, "lon": 79.061938}, {"type": "node", "id": 10238293285, "lat": 21.1767098, "lon": 79.0619398}, {"type": "node", "id": 10238293286, "lat": 21.1767414, "lon": 79.0619219}, {"type": "node", "id": 10238293287, "lat": 21.1767614, "lon": 79.0618666}, {"type": "node", "id": 10238293288, "lat": 21.1768046, "lon": 79.0618853}, {"type": "node", "id": 10238293289, "lat": 21.1768155, "lon": 79.0618532}, {"type": "node", "id": 10238293304, "lat": 21.1780622, "lon": 79.0627057}, {"type": "node", "id": 10238293305, "lat": 21.1780737, "lon": 79.0628642}, {"type": "node", "id": 10238293306, "lat": 21.1777666, "lon": 79.0628209}, {"type": "node", "id": 10238293307, "lat": 21.1777855, "lon": 79.0626667}, {"type": "node", "id": 10238293615, "lat": 21.1780903, "lon": 79.0627286}, {"type": "node", "id": 10838008809, "lat": 21.1305321, "lon": 79.1191474, "tags": {"addr:city": "Nagpur", "addr:housenumber": "491", "addr:postcode": "440017", "addr:street": "Nehru Nagar Corner , Nandanvan Main Road", "amenity": "cafe", "cuisine": "pizza;waffle;coffee;ice_cream;sandwich", "internet_access": "yes", "name": "Froozo Cafe", "phone": "+91 9860870327"}}, {"type": "node", "id": 10902645956, "lat": 21.1139599, "lon": 79.107951, "tags": {"amenity": "fast_food", "cuisine": "juice", "name": "Bombay coldrinks"}}, {"type": "node", "id": 11010379133, "lat": 21.2665445, "lon": 79.0877337, "tags": {"amenity": "fast_food", "name": "Haldiram"}}, {"type": "node", "id": 11081420347, "lat": 21.1207747, "lon": 79.0134615, "tags": {"amenity": "fast_food", "name": "BombayWala"}}, {"type": "node", "id": 11262648935, "lat": 21.1319732, "lon": 79.0973237, "tags": {"amenity": "fast_food", "name": "Ketli The Cafe"}}, {"type": "node", "id": 11387123673, "lat": 21.1630542, "lon": 79.0514884, "tags": {"addr:city": "Nagpur", "addr:postcode": "44006", "addr:street": "Wardhaman Nagar", "amenity": "cafe", "cuisine": "pizza;burger;sandwich", "internet_access": "yes", "internet_access:fee": "no", "name": "Sam's Cafe", "opening_hours": "Mo-Su 09:00-21:00", "outdoor_seating": "yes"}}, {"type": "node", "id": 11409759565, "lat": 21.1172803, "lon": 79.0418154, "tags": {"addr:city": "Nagpur", "addr:district": "Nagpur", "addr:housenumber": "89", "addr:postcode": "440022", "addr:street": "NEAR RESONANCE INSTITUTE VIVEKA HOSPITAL LANE NEAR NECLO SOCIETY", "amenity": "cafe", "cuisine": "coffee_shop", "internet_access": "wlan", "internet_access:fee": "no", "name": "TwinkLink - The Coffee Hub", "opening_hours": "Mo-Su 08:00-23:30", "outdoor_seating": "yes", "phone": "+91-6263950256"}}, {"type": "node", "id": 11559169369, "lat": 21.1783403, "lon": 79.0457059, "tags": {"addr:postcode": "440013", "addr:street": "Katol Road", "amenity": "fast_food", "cuisine": "fried_food;cake;sweets", "diet:vegetarian": "yes", "name": "\u091c\u094b\u0936\u0940 \u092b\u0930\u0938\u093e\u0928", "name:en": "Joshi Farsan", "opening_hours": "Mo-Su 09:00-21:00"}}, {"type": "node", "id": 11563909014, "lat": 21.1780435, "lon": 79.0459672, "tags": {"addr:city": "Nagpur", "addr:postcode": "440013", "addr:street": "Katol Road", "amenity": "cafe", "cuisine": "coffee_shop;tea_shop;tea;coffee", "name": "Amrut Chai", "opening_hours": "Mo-Su 08:00-22:00"}}, {"type": "node", "id": 11563909020, "lat": 21.1764916, "lon": 79.0447769, "tags": {"addr:postcode": "440013", "amenity": "cafe", "cuisine": "coffee_shop;tea;smoothie", "name": "All About Coffee", "opening_hours": "Mo-Su 11:00-00:00", "outdoor_seating": "yes", "phone": "+918208449475"}}, {"type": "node", "id": 11563909038, "lat": 21.1754382, "lon": 79.0406369, "tags": {"addr:city": "Nagpur", "addr:postcode": "440013", "addr:street": "Katol Road", "amenity": "fast_food", "cuisine": "chinese;noodle", "diet:non-vegetarian": "yes", "diet:vegetarian": "yes", "drive_through": "no", "name": "D Chinese Hot Corner", "opening_hours": "Mo-Su 17:00-23:59", "phone": "+917387436846"}}, {"type": "node", "id": 11575936051, "lat": 21.1822571, "lon": 79.036538, "tags": {"addr:city": "Nagpur", "addr:postcode": "440013", "addr:street": "Katol Road", "amenity": "fast_food", "cuisine": "chinese", "name": "Patol Saoji Chinese Point", "phone": "+918390644642"}}, {"type": "node", "id": 11578003437, "lat": 21.1780555, "lon": 79.0457021, "tags": {"addr:city": "Nagpur", "addr:postcode": "440013", "addr:street": "Katol Road", "amenity": "fast_food", "cuisine": "indian", "diet:vegetarian": "yes", "name": "Kamal Farsan"}}, {"type": "node", "id": 11578003456, "lat": 21.1775129, "lon": 79.0475188, "tags": {"amenity": "fast_food", "name": "Hot Chips"}}, {"type": "node", "id": 11578003460, "lat": 21.177147, "lon": 79.0482059, "tags": {"amenity": "fast_food", "name": "Friends Food Joint"}}, {"type": "node", "id": 11578443598, "lat": 21.0982175, "lon": 79.0671092, "tags": {"addr:city": "Nagpur", "addr:district": "Nagpur", "addr:housenumber": "5", "addr:postcode": "440025", "addr:street": "Capsule Cafe, Somalwada Square", "air_conditioning": "yes", "amenity": "cafe", "cuisine": "pizza;burger;coffee_shop;sandwich;dessert;continental", "internet_access": "wlan", "internet_access:fee": "customers", "name": "Capsule Cafe", "outdoor_seating": "yes", "phone": "7980878749"}}, {"type": "node", "id": 11591804997, "lat": 21.1762294, "lon": 79.0500683, "tags": {"amenity": "fast_food", "brand": "Domino's", "brand:wikidata": "Q839466", "cuisine": "pizza", "drive_through": "no", "name": "Domino's", "takeaway": "yes"}}, {"type": "node", "id": 11591805008, "lat": 21.1757094, "lon": 79.0516605, "tags": {"alt_name": "Haldiram", "amenity": "fast_food", "brand": "Haldiram's", "brand:wikidata": "Q17054442", "cuisine": "indian", "name": "Haldiram's", "takeaway": "yes"}}, {"type": "node", "id": 11598331871, "lat": 21.097128, "lon": 78.9797562, "tags": {"amenity": "cafe"}}, {"type": "way", "id": 435131824, "nodes": [4330841389, 4330841689, 3902582603, 3902582606, 4330803191, 4330841389], "tags": {"amenity": "fast_food"}}, {"type": "way", "id": 963672498, "nodes": [8913967192, 8913967193, 8913967194, 8913967195, 8913967192], "tags": {"amenity": "cafe", "building": "yes", "name": "Bombay Chaat"}}, {"type": "way", "id": 963672499, "nodes": [8913967196, 8913967197, 8913967198, 8913967199, 8913967196], "tags": {"amenity": "cafe", "building": "yes", "name": "I love momos"}}, {"type": "way", "id": 1058893368, "nodes": [9729677414, 9729677415, 9729778338, 9729677416, 9729778317, 9729677414], "tags": {"alt_name": "Chandaraman Canteen", "amenity": "food_court", "building": "yes", "indoor_seating": "no", "name": "Midnight Canteen", "outdoor_seating": "yes"}}, {"type": "way", "id": 1119416833, "nodes": [10238293281, 10238293282, 10238293283, 10238293284, 10238293285, 10238293286, 10238293287, 10238293288, 10238293289, 10238293281], "tags": {"amenity": "fast_food", "building": "yes", "fast_food": "cafeteria", "name": "RCOEM Canteen", "opening_hours": "Mo-Sa 08:00-21:00"}}, {"type": "way", "id": 1119416837, "nodes": [10238293304, 10238293615, 10238293305, 10238293306, 10238293307, 10238293304], "tags": {"amenity": "fast_food", "building": "yes", "fast_food": "cafeteria", "name": "RCOEM Boys Mess"}}]}