{"version": 0.6, "generator": "Overpass API 0.7.61.5 4133829e", "osm3s": {"timestamp_osm_base": "2024-02-25T09:46:55Z", "copyright": "The data included in this document is from www.openstreetmap.org. The data is made available under ODbL."}, "elements": [{"type": "node", "id": 7025403339, "lat": 26.8757714, "lon": 75.2363156, "tags": {"addr:district": "Jaipur", "addr:full": "Rajasthan State Highway 57, Sambhar,Phulera", "addr:postcode": "303338", "addr:state": "Rajasthan", "amenity": "hospital", "name": "Satyam Hospital, Jaipur", "source": "OpenGovernmentData"}}, {"type": "node", "id": 7036601761, "lat": 26.8747366, "lon": 75.2439304, "tags": {"addr:district": "Jaipur", "addr:full": "Gangouri Bazar, Phulera", "addr:postcode": "303338", "addr:state": "Rajasthan", "amenity": "hospital", "name": "Shri Dadu Hospital and Research Center", "source": "OpenGovernmentData"}}, {"type": "node", "id": 7037489937, "lat": 26.9082365, "lon": 75.1907288, "tags": {"addr:district": "Jaipur", "addr:full": "Salt Colony,Sambhar", "addr:postcode": "302001", "addr:state": "Rajasthan", "amenity": "hospital", "name": "Sambhar Salt Hospital", "source": "OpenGovernmentData"}}, {"type": "node", "id": 7279062541, "lat": 27.054441, "lon": 75.293456, "tags": {"addr:block": "Sambhar", "addr:district": "Jaipur", "addr:full": "Bhainslana", "addr:postcode": "303328", "addr:state": "Rajasthan", "addr:subdistrict": "Phulera (Hq.Sambhar)", "amenity": "hospital", "name": "Government Hospital, Bhainslana", "source": "OpenGovernmentData"}}, {"type": "node", "id": 7694895079, "lat": 26.8746192, "lon": 75.2409749, "tags": {"addr:district": "Jaipur", "addr:full": "Phulera", "addr:postcode": "303338", "addr:state": "Rajasthan", "amenity": "clinic", "name": "Shree Gouri Homoeopathic Clinic", "source": "Local Knowledge"}}, {"type": "node", "id": 7694895096, "lat": 26.909039, "lon": 75.190705, "tags": {"addr:district": "Jaipur", "addr:full": "Samber, Jobner", "addr:postcode": "303338", "addr:state": "Rajasthan", "amenity": "dentist", "name": "Udaipur Dental Hospital", "source": "Local Knowledge"}}, {"type": "node", "id": 7694895114, "lat": 26.8747017, "lon": 75.2366945, "tags": {"addr:district": "Jaipur", "addr:full": "Phulera", "addr:postcode": "303338", "addr:state": "Rajasthan", "amenity": "dentist", "name": "Kumawat Dental Hospital", "source": "Local Knowledge"}}, {"type": "node", "id": 7694895119, "lat": 26.8727934, "lon": 75.239997, "tags": {"addr:district": "Jaipur", "addr:full": "Phulera", "addr:postcode": "303338", "addr:state": "Rajasthan", "amenity": "dentist", "name": "Darshan Dental Clinic", "source": "Local Knowledge"}}, {"type": "node", "id": 7694895133, "lat": 26.8725542, "lon": 75.2246072, "tags": {"addr:district": "Jaipur", "addr:full": "Jaipur", "addr:postcode": "303338", "addr:state": "Rajasthan", "amenity": "hospital", "name": "Shree Krishna Hospital", "source": "Local Knowledge"}}, {"type": "node", "id": 7694895151, "lat": 26.8683309, "lon": 75.2415605, "tags": {"addr:district": "Jaipur", "addr:full": "Phulera", "addr:postcode": "303338", "addr:state": "Rajasthan", "amenity": "hospital", "name": "Railway Hospital", "source": "Local Knowledge"}}, {"type": "node", "id": 7694895152, "lat": 26.871502, "lon": 75.2479135, "tags": {"addr:district": "Jaipur", "addr:full": "Phulera", "addr:postcode": "303338", "addr:state": "Rajasthan", "amenity": "clinic", "name": "Aayush Homeopathic Clinic", "source": "Local Knowledge"}}, {"type": "node", "id": 7694895161, "lat": 26.8765283, "lon": 75.2358841, "tags": {"addr:district": "Jaipur", "addr:full": "Phulera", "addr:postcode": "303338", "addr:state": "Rajasthan", "amenity": "clinic", "name": "R.K. Homoeopathy Clinic", "source": "Local Knowledge"}}, {"type": "node", "id": 7694895162, "lat": 26.877644, "lon": 75.249579, "tags": {"addr:district": "Jaipur", "addr:full": "Jagadamba Colony, Phulera", "addr:postcode": "303338", "addr:state": "Rajasthan", "amenity": "clinic", "name": "Suraj ENT Centre", "source": "Local Knowledge"}}]}