{"version": 0.6, "generator": "Overpass API 0.7.61.5 4133829e", "osm3s": {"timestamp_osm_base": "2024-02-25T09:46:55Z", "copyright": "The data included in this document is from www.openstreetmap.org. The data is made available under ODbL."}, "elements": [{"type": "node", "id": 7027850761, "lat": 27.7019673, "lon": 76.1905611, "tags": {"addr:district": "Jaipur", "addr:full": "Kotputli", "addr:postcode": "303103", "addr:state": "Rajasthan", "amenity": "hospital", "name": "Govt. B D M Hospital", "source": "OpenGovernmentData"}}, {"type": "node", "id": 7035013964, "lat": 27.698531, "lon": 76.1905691, "tags": {"addr:district": "Jaipur", "addr:full": "Near Nagar Palika Park, Old Rseb Office,Kotputli", "addr:postcode": "303108", "addr:state": "Rajasthan", "amenity": "hospital", "name": "Shri Shyam Hospital", "source": "OpenGovernmentData"}}, {"type": "node", "id": 7037548063, "lat": 27.6995308, "lon": 76.1919853, "tags": {"addr:district": "Jaipur", "addr:full": "Kotputli", "addr:postcode": "303108", "addr:state": "Rajasthan", "amenity": "hospital", "name": "Sanjeevane Hospital", "source": "OpenGovernmentData"}}, {"type": "node", "id": 7037564074, "lat": 27.5960726, "lon": 76.0808453, "tags": {"addr:district": "Jaipur", "addr:full": "Paota", "addr:postcode": "303106", "addr:state": "Rajasthan", "amenity": "hospital", "name": "Max Sanjivani Hospital", "source": "OpenGovernmentData"}}, {"type": "node", "id": 7040321447, "lat": 27.6990558, "lon": 76.1923836, "tags": {"addr:district": "Jaipur", "addr:full": "Madhurkar Garh Colony, Kotputli", "addr:postcode": "303108", "addr:state": "Rajasthan", "amenity": "clinic", "name": "Santosh Nursing Home, Jaipur", "source": "OpenGovernmentData"}}, {"type": "node", "id": 7273590078, "lat": 27.707255, "lon": 76.20341, "tags": {"addr:district": "Jaipur", "addr:full": "Near Basant Prabhu Rastriya Vidya Mandir", "addr:postcode": "303108", "addr:state": "Rajasthan", "addr:subdistrict": "Kotputli", "amenity": "hospital", "name": "Janana Hospital, Kotputli", "source": "OpenGovernmentData"}}, {"type": "node", "id": 7273590129, "lat": 27.791586, "lon": 76.096494, "tags": {"addr:district": "Jaipur", "addr:full": "Near Shiv Mandir, Gidhoi, Banethi", "addr:postcode": "303105", "addr:state": "Rajasthan", "addr:subdistrict": "Kotputli", "amenity": "hospital", "name": "Government Hospital, Banethi", "source": "OpenGovernmentData"}}, {"type": "node", "id": 7279018373, "lat": 27.5517958, "lon": 75.8958509, "tags": {"addr:district": "Sikar", "addr:full": "Sanwalpura Tanwran,", "addr:postcode": "332705", "addr:state": "Rajasthan", "addr:subdistrict": "Neem-Ka-Thana", "amenity": "hospital", "name": "Sanwalpura Tanwran", "source": "OpenGovernmentData"}}, {"type": "node", "id": 7279018445, "lat": 27.554935, "lon": 76.249212, "tags": {"addr:district": "Alwar", "addr:full": "Mod Bus Stop, Bilali", "addr:postcode": "301024", "addr:state": "Rajasthan", "addr:subdistrict": "Bansur", "amenity": "hospital", "name": "Government Hospital, Bilali", "source": "OpenGovernmentData"}}, {"type": "node", "id": 7279018490, "lat": 27.658621, "lon": 76.010196, "tags": {"addr:district": "Jaipur", "addr:full": "Bus Stand, Dantil", "addr:postcode": "303107", "addr:state": "Rajasthan", "addr:subdistrict": "Kotputli", "amenity": "hospital", "name": "Government Hospital Dantil", "source": "OpenGovernmentData"}}, {"type": "node", "id": 7279018505, "lat": 27.600501, "lon": 76.2738434, "tags": {"addr:district": "Alwar", "addr:full": "Neemuchana", "addr:postcode": "301402", "addr:state": "Rajasthan", "addr:subdistrict": "Bansur", "amenity": "hospital", "name": "Government Hospital, Nimuchana", "source": "OpenGovernmentData"}}, {"type": "node", "id": 7279018520, "lat": 27.5560665, "lon": 76.111209, "tags": {"addr:district": "Jaipur", "addr:full": "Atta Pana Road, Near Alpha Academy School, Paota, Barnagar", "addr:postcode": "303106", "addr:state": "Rajasthan", "addr:subdistrict": "Viratnagar", "amenity": "hospital", "name": "Government Hospital, Barnagar", "source": "OpenGovernmentData"}}, {"type": "node", "id": 7694895078, "lat": 27.699854, "lon": 76.190334, "tags": {"addr:district": "Jaipur", "addr:full": "Kotputli", "addr:postcode": "303108", "addr:state": "Rajasthan", "amenity": "hospital", "name": "Jeevan Rekha Hospital", "source": "Local Knowledge"}}, {"type": "node", "id": 7694895083, "lat": 27.6936373, "lon": 76.1867275, "tags": {"addr:district": "Jaipur", "addr:full": "Amai", "addr:postcode": "303108", "addr:state": "Rajasthan", "amenity": "clinic", "name": "Dr. Manfool Chaudhary Clinic", "source": "Local Knowledge"}}, {"type": "node", "id": 7694895084, "lat": 27.704298, "lon": 76.196732, "tags": {"addr:district": "Jaipur", "addr:full": "Kotputli", "addr:postcode": "303108", "addr:state": "Rajasthan", "amenity": "hospital", "name": "Sun Rise Hospital", "source": "Local Knowledge"}}, {"type": "node", "id": 7694895094, "lat": 27.698191, "lon": 76.1903043, "tags": {"addr:district": "Jaipur", "addr:full": "Kotputli", "addr:postcode": "303108", "addr:state": "Rajasthan", "amenity": "hospital", "name": "Bhagat Ji Polyclinic & Multi Speciality Centre", "source": "Local Knowledge"}}, {"type": "node", "id": 7694895105, "lat": 27.700139, "lon": 76.191348, "tags": {"addr:district": "Jaipur", "addr:full": "Kotputli", "addr:postcode": "303108", "addr:state": "Rajasthan", "amenity": "clinic", "name": "RL Memorial Clinic", "source": "Local Knowledge"}}, {"type": "node", "id": 7694895112, "lat": 27.6983635, "lon": 76.1903479, "tags": {"addr:district": "Jaipur", "addr:full": "Jaipur, Kotputli", "addr:postcode": "303108", "addr:state": "Rajasthan", "amenity": "hospital", "name": "Metro Health Hospital", "source": "Local Knowledge"}}, {"type": "node", "id": 7694895113, "lat": 27.6999438, "lon": 76.1912343, "tags": {"addr:district": "Jaipur", "addr:full": "Kotputli", "addr:postcode": "303108", "addr:state": "Rajasthan", "amenity": "hospital", "name": "Shri Ram Hospital", "source": "Local Knowledge"}}, {"type": "node", "id": 7694895117, "lat": 27.7042258, "lon": 76.1967233, "tags": {"addr:district": "Jaipur", "addr:full": "Kotputli", "addr:postcode": "303108", "addr:state": "Rajasthan", "amenity": "hospital", "name": "Dr. Gulab Choudhary Homoeopathic Clinic & Research Centre", "source": "Local Knowledge"}}, {"type": "node", "id": 7694895118, "lat": 27.7024365, "lon": 76.1908577, "tags": {"addr:district": "Jaipur", "addr:full": "Kotputli", "addr:postcode": "303108", "addr:state": "Rajasthan", "amenity": "hospital", "name": "Shri Shyam Hospital and Trauma Centre", "source": "Local Knowledge"}}, {"type": "node", "id": 7694895121, "lat": 27.7039906, "lon": 76.1986294, "tags": {"addr:district": "Jaipur", "addr:full": "Azad Chowk, Gulshan Nagar, Kotputli", "addr:postcode": "303108", "addr:state": "Rajasthan", "amenity": "clinic", "name": "Swami Clinic", "source": "Local Knowledge"}}, {"type": "node", "id": 7694895123, "lat": 27.7050824, "lon": 76.1984678, "tags": {"addr:district": "Jaipur", "addr:full": "Kotputli", "addr:postcode": "303108", "addr:state": "Rajasthan", "amenity": "clinic", "name": "Dr. R.K. Gupta Homoeopathic Clinic", "source": "Local Knowledge"}}, {"type": "node", "id": 7694895124, "lat": 27.7068687, "lon": 76.1981697, "tags": {"addr:district": "Jaipur", "addr:full": "Kotputli", "addr:postcode": "303108", "addr:state": "Rajasthan", "amenity": "hospital", "name": "Vinayak Hospital", "source": "Local Knowledge"}}, {"type": "node", "id": 7694895127, "lat": 27.6956981, "lon": 76.1872246, "tags": {"addr:district": "Jaipur", "addr:full": "Kotputli", "addr:postcode": "303108", "addr:state": "Rajasthan", "amenity": "hospital", "name": "Pulse Hospital", "source": "Local Knowledge"}}, {"type": "node", "id": 7694895135, "lat": 27.6970528, "lon": 76.1887285, "tags": {"addr:district": "Jaipur", "addr:full": "Kotputli", "addr:postcode": "303108", "addr:state": "Rajasthan", "amenity": "hospital", "name": "Aarogya Hospital", "source": "Local Knowledge"}}, {"type": "node", "id": 7694895143, "lat": 27.7045116, "lon": 76.2015481, "tags": {"addr:district": "Jaipur", "addr:full": "Kotputli", "addr:postcode": "303108", "addr:state": "Rajasthan", "amenity": "hospital", "name": "Durbeen Hospital", "source": "Local Knowledge"}}, {"type": "node", "id": 7694895144, "lat": 27.7937565, "lon": 76.2347682, "tags": {"addr:district": "Jaipur", "addr:full": "Kherki Mukkar", "addr:postcode": "303108", "addr:state": "Rajasthan", "amenity": "clinic", "name": "Shiv Shakti Clinic", "source": "Local Knowledge"}}, {"type": "node", "id": 7694895147, "lat": 27.7045916, "lon": 76.2013336, "tags": {"addr:district": "Jaipur", "addr:full": "Yadav Colony", "addr:postcode": "303108", "addr:state": "Rajasthan", "amenity": "clinic", "name": "Kavya Skin Clinic", "source": "Local Knowledge"}}, {"type": "node", "id": 7694895149, "lat": 27.7059308, "lon": 76.192136, "tags": {"addr:district": "Jaipur", "addr:full": "Kotputli", "addr:postcode": "303108", "addr:state": "Rajasthan", "amenity": "dentist", "name": "Mittal Smile Care", "source": "Local Knowledge"}}, {"type": "node", "id": 7694895153, "lat": 27.70871, "lon": 76.200304, "tags": {"addr:district": "Jaipur", "addr:full": "Kotputli", "addr:postcode": "303108", "addr:state": "Rajasthan", "amenity": "dentist", "name": "Gupta Dental Clinic", "source": "Local Knowledge"}}, {"type": "node", "id": 7694895167, "lat": 27.7093114, "lon": 76.1988076, "tags": {"addr:district": "Jaipur", "addr:full": "Kotputli", "addr:postcode": "303108", "addr:state": "Rajasthan", "amenity": "clinic", "name": "ECHS Polyclinic", "source": "Local Knowledge"}}, {"type": "node", "id": 7694895168, "lat": 27.6972542, "lon": 76.189864, "tags": {"addr:district": "Jaipur", "addr:full": "Kotputli", "addr:postcode": "303108", "addr:state": "Rajasthan", "amenity": "hospital", "name": "Krishna Hospital", "source": "Local Knowledge"}}]}