{"version": 0.6, "generator": "Overpass API 0.7.61.5 4133829e", "osm3s": {"timestamp_osm_base": "2024-02-25T09:11:15Z", "copyright": "The data included in this document is from www.openstreetmap.org. The data is made available under ODbL."}, "elements": [{"type": "node", "id": 1234846882, "lat": 23.1053991, "lon": 72.6308627, "tags": {"amenity": "fuel", "ele": "56.12", "source:ele": "gpx"}}, {"type": "node", "id": 1746677973, "lat": 23.0331106, "lon": 72.5139509, "tags": {"amenity": "fuel", "brand": "HP", "name": "HP Fuel Station", "operator": "HP"}}, {"type": "node", "id": 1746678859, "lat": 23.0323231, "lon": 72.511317, "tags": {"amenity": "bank", "atm": "yes", "brand:wikidata": "Q2003789", "brand:wikipedia": "en:Indian Bank", "name": "Indian Bank", "name:en": "Indian Bank", "website": "https://www.indianbank.in/"}}, {"type": "node", "id": 1779126826, "lat": 23.045849, "lon": 72.5523355, "tags": {"amenity": "bank", "atm": "yes", "brand": "State Bank of India", "brand:wikidata": "Q1340361", "brand:wikipedia": "en:State Bank of India", "drive_through": "no", "name": "State Bank of India, St. Xavier's School Road Branch", "short_name": "SBI"}}, {"type": "node", "id": 1781763048, "lat": 23.0047261, "lon": 72.5645714, "tags": {"amenity": "bank", "atm": "yes", "brand:wikidata": "Q2003789", "brand:wikipedia": "en:Indian Bank", "name": "Indian Bank", "name:en": "Indian Bank", "website": "https://www.indianbank.in/"}}, {"type": "node", "id": 1781763832, "lat": 23.0045263, "lon": 72.5644882, "tags": {"amenity": "fuel", "name": "Ansh Petrol Pump"}}, {"type": "node", "id": 1830548403, "lat": 23.0471515, "lon": 72.5527534, "tags": {"amenity": "bank", "brand": "Central Bank of India", "brand:wikidata": "Q2007090", "brand:wikipedia": "en:Central Bank of India", "name": "Central Bank of India", "name:en": "Central Bank of India", "website": "https://www.centralbankofindia.co.in"}}, {"type": "node", "id": 1830570013, "lat": 23.0453324, "lon": 72.5517832, "tags": {"amenity": "bank", "name": "Kalupur Commercial Co-operative Bank"}}, {"type": "node", "id": 1952553001, "lat": 23.0684998, "lon": 72.5619985, "tags": {"amenity": "fuel", "brand": "Hindustan Petroleum", "name": "Akhbarnagar petrol pump"}}, {"type": "node", "id": 2034596325, "lat": 23.0058514, "lon": 72.5910422, "tags": {"amenity": "bank", "atm": "yes", "brand:wikidata": "Q2003797", "brand:wikipedia": "en:Bank of Baroda", "name": "Bank of Baroda", "name:en": "Bank of Baroda", "short_name": "BoB", "website": "http://www.bankofbaroda.com"}}, {"type": "node", "id": 2377178512, "lat": 23.0263196, "lon": 72.5841287, "tags": {"amenity": "fuel"}}, {"type": "node", "id": 2516575068, "lat": 22.9963802, "lon": 72.5357429}, {"type": "node", "id": 2516575071, "lat": 22.9972095, "lon": 72.5369403}, {"type": "node", "id": 2516575073, "lat": 22.9969705, "lon": 72.5350898}, {"type": "node", "id": 2516575075, "lat": 22.9976268, "lon": 72.535161}, {"type": "node", "id": 2516575077, "lat": 22.9979351, "lon": 72.536501}, {"type": "node", "id": 3204931795, "lat": 23.0406536, "lon": 72.5713107, "tags": {"addr:city": "Ahmedabad", "addr:street": "Ashram Road", "amenity": "bank", "atm": "yes", "name": "Ahmedabad District Cooperative Bank", "opening_hours": "Mo-Sa 09:30-16:00", "operator": "Ahmedabad Distrcit Cooperative Bank Society"}}, {"type": "node", "id": 3221242025, "lat": 23.0574306, "lon": 72.5100253}, {"type": "node", "id": 3221242026, "lat": 23.0575674, "lon": 72.5103722}, {"type": "node", "id": 3221242027, "lat": 23.0572059, "lon": 72.5104005}, {"type": "node", "id": 3221242028, "lat": 23.0571734, "lon": 72.5100147}, {"type": "node", "id": 3235855839, "lat": 23.0245389, "lon": 72.579428, "tags": {"addr:city": "Ahmedabad", "amenity": "bank", "atm": "yes", "brand": "State Bank of India", "brand:wikidata": "Q1340361", "brand:wikipedia": "en:State Bank of India", "name": "The State Bank of India, Ahmedabad Office", "operator": "State Bank of India"}}, {"type": "node", "id": 3236392936, "lat": 23.025626, "lon": 72.5568925}, {"type": "node", "id": 3236392937, "lat": 23.0257377, "lon": 72.5566159}, {"type": "node", "id": 3236392938, "lat": 23.0258027, "lon": 72.5569631}, {"type": "node", "id": 3236392939, "lat": 23.0258624, "lon": 72.5568389}, {"type": "node", "id": 3236392940, "lat": 23.02593, "lon": 72.5567062}, {"type": "node", "id": 3237479210, "lat": 23.0219328, "lon": 72.5510536}, {"type": "node", "id": 3237479211, "lat": 23.0216944, "lon": 72.5508852}, {"type": "node", "id": 3237479212, "lat": 23.0216616, "lon": 72.5508722}, {"type": "node", "id": 3237479213, "lat": 23.0215633, "lon": 72.55106}, {"type": "node", "id": 3237479214, "lat": 23.0216527, "lon": 72.5511313}, {"type": "node", "id": 3237479215, "lat": 23.0217033, "lon": 72.5511669}, {"type": "node", "id": 3237479216, "lat": 23.0217153, "lon": 72.5512025}, {"type": "node", "id": 3237479217, "lat": 23.021757, "lon": 72.5512511}, {"type": "node", "id": 3237479218, "lat": 23.0218077, "lon": 72.5512997}, {"type": "node", "id": 3237489085, "lat": 23.0250605, "lon": 72.5563432}, {"type": "node", "id": 3237489086, "lat": 23.0249113, "lon": 72.5562883}, {"type": "node", "id": 3237489087, "lat": 23.0248582, "lon": 72.556457}, {"type": "node", "id": 3237489088, "lat": 23.0250091, "lon": 72.5565062}, {"type": "node", "id": 3237765741, "lat": 23.0275287, "lon": 72.5581158}, {"type": "node", "id": 3237765743, "lat": 23.0276244, "lon": 72.5580141}, {"type": "node", "id": 3237765745, "lat": 23.0276611, "lon": 72.5577508}, {"type": "node", "id": 3237765746, "lat": 23.0276814, "lon": 72.5580472}, {"type": "node", "id": 3237765747, "lat": 23.0277038, "lon": 72.5579764}, {"type": "node", "id": 3237765748, "lat": 23.0277161, "lon": 72.5577773}, {"type": "node", "id": 3237765749, "lat": 23.0277242, "lon": 72.5579853}, {"type": "node", "id": 3237765750, "lat": 23.0277323, "lon": 72.558211}, {"type": "node", "id": 3237765751, "lat": 23.0277853, "lon": 72.5578171}, {"type": "node", "id": 3237765752, "lat": 23.0278769, "lon": 72.557868}, {"type": "node", "id": 3242226331, "lat": 23.0337365, "lon": 72.5608865, "tags": {"addr:city": "Ahmedabad", "addr:postcode": "380009", "amenity": "bank", "name": "Citibank"}}, {"type": "node", "id": 3242226333, "lat": 23.0328329, "lon": 72.5598654, "tags": {"amenity": "bank", "atm": "yes", "brand": "The State bank of India", "brand:wikidata": "Q1340361", "name": "The State Bank of India, Ahmedabad Office", "opening_hours": "09:30-15:30", "operator": "The State Bank of India"}}, {"type": "node", "id": 3242235763, "lat": 23.0331142, "lon": 72.5599842, "tags": {"amenity": "bank", "atm": "yes", "brand:wikidata": "Q2040404", "brand:wikipedia": "en:Kotak Mahindra Bank", "name": "Kotak Mahindra Bank", "name:en": "Kotak Mahindra Bank", "website": "http://www.kotak.com"}}, {"type": "node", "id": 3247356212, "lat": 22.9964761, "lon": 72.5354837}, {"type": "node", "id": 3247356214, "lat": 22.9966146, "lon": 72.5353194}, {"type": "node", "id": 3247356217, "lat": 22.9974021, "lon": 72.5369191}, {"type": "node", "id": 3247356218, "lat": 22.9976201, "lon": 72.5368287}, {"type": "node", "id": 3247356219, "lat": 22.9971843, "lon": 72.535054}, {"type": "node", "id": 3247356220, "lat": 22.9980449, "lon": 72.5362708}, {"type": "node", "id": 3247356221, "lat": 22.9977866, "lon": 72.5352875}, {"type": "node", "id": 3289950704, "lat": 23.0525665, "lon": 72.590312}, {"type": "node", "id": 3289950706, "lat": 23.0526137, "lon": 72.5901818}, {"type": "node", "id": 3289950710, "lat": 23.0527644, "lon": 72.5903791}, {"type": "node", "id": 3289950711, "lat": 23.0528043, "lon": 72.5902351}, {"type": "node", "id": 3302227672, "lat": 23.0120486, "lon": 72.5638517, "tags": {"amenity": "fuel", "brand": "Hindustan Petroleum", "fuel:diesel": "yes", "fuel:octane_80": "yes", "name": "Hindustan Petroleum Station", "operator": "Hindustan Petroleum"}}, {"type": "node", "id": 3306683244, "lat": 23.0274353, "lon": 72.5809242, "tags": {"amenity": "bank", "atm": "yes", "brand": "Central Bank of India", "brand:wikidata": "Q2007090", "brand:wikipedia": "en:Central Bank of India", "name": "Central Bank of India", "name:en": "Central Bank of India", "website": "https://www.centralbankofindia.co.in"}}, {"type": "node", "id": 3306683248, "lat": 23.0137058, "lon": 72.559847, "tags": {"amenity": "bank", "atm": "yes", "name": "HDFC Bank Paldi Branch"}}, {"type": "node", "id": 3306683249, "lat": 23.026296, "lon": 72.5819103, "tags": {"amenity": "bank", "atm": "yes", "name": "HDFC Bank Relief Road Branch"}}, {"type": "node", "id": 3306683260, "lat": 23.0049181, "lon": 72.5529832, "tags": {"amenity": "fuel", "brand": "Indian Oil"}}, {"type": "node", "id": 3306683612, "lat": 23.0396523, "lon": 72.5955759, "tags": {"amenity": "fuel", "brand": "Indian Oil"}}, {"type": "node", "id": 3339285341, "lat": 23.0328853, "lon": 72.5695883}, {"type": "node", "id": 3339285342, "lat": 23.032893, "lon": 72.5697305}, {"type": "node", "id": 3339285343, "lat": 23.0332523, "lon": 72.5694256}, {"type": "node", "id": 3339285344, "lat": 23.0332584, "lon": 72.5695713}, {"type": "node", "id": 3393656497, "lat": 23.011445, "lon": 72.5864365, "tags": {"amenity": "fuel", "brand": "Adani", "name": "Adani CNG Gas Station", "operator": "Adani"}}, {"type": "node", "id": 3500459657, "lat": 23.0835179, "lon": 72.5909029, "tags": {"amenity": "bank", "atm": "yes", "brand": "HDFC", "brand:wikidata": "Q631047", "brand:wikipedia": "en:HDFC Bank", "name": "HDFC Bank", "short_name": "HDFC", "website": "https://www.hdfcbank.com"}}, {"type": "node", "id": 3500459659, "lat": 23.0834501, "lon": 72.5888148, "tags": {"amenity": "bank", "name": "Gol Bank"}}, {"type": "node", "id": 3500459666, "lat": 23.0825491, "lon": 72.5900739, "tags": {"amenity": "bank", "atm": "yes", "brand:wikidata": "Q2003797", "brand:wikipedia": "en:Bank of Baroda", "name": "Bank of Baroda", "name:en": "Bank of Baroda", "short_name": "BoB", "website": "http://www.bankofbaroda.com"}}, {"type": "node", "id": 3704110832, "lat": 23.0381807, "lon": 72.5133452}, {"type": "node", "id": 3704110833, "lat": 23.0382228, "lon": 72.5132509}, {"type": "node", "id": 3704110834, "lat": 23.0383988, "lon": 72.5134603}, {"type": "node", "id": 3704110835, "lat": 23.038441, "lon": 72.513366}, {"type": "node", "id": 3704471935, "lat": 23.0318707, "lon": 72.5246109}, {"type": "node", "id": 3704471936, "lat": 23.0319217, "lon": 72.5244411}, {"type": "node", "id": 3704471937, "lat": 23.0319317, "lon": 72.5242596}, {"type": "node", "id": 3704471938, "lat": 23.0319774, "lon": 72.5246763}, {"type": "node", "id": 3704471941, "lat": 23.0320453, "lon": 72.524462}, {"type": "node", "id": 3704471943, "lat": 23.0320568, "lon": 72.5242597}, {"type": "node", "id": 3706371932, "lat": 23.0265944, "lon": 72.5262018}, {"type": "node", "id": 3706371933, "lat": 23.0266018, "lon": 72.525898}, {"type": "node", "id": 3706371934, "lat": 23.026604, "lon": 72.5258784}, {"type": "node", "id": 3706371943, "lat": 23.0266286, "lon": 72.5259016}, {"type": "node", "id": 3706371950, "lat": 23.0266446, "lon": 72.5259062}, {"type": "node", "id": 3706371951, "lat": 23.0266471, "lon": 72.5258842}, {"type": "node", "id": 3706371958, "lat": 23.0266907, "lon": 72.5262147}, {"type": "node", "id": 3706371962, "lat": 23.0267081, "lon": 72.5260612}, {"type": "node", "id": 3706371970, "lat": 23.0267398, "lon": 72.5259189}, {"type": "node", "id": 3706371971, "lat": 23.0267423, "lon": 72.5258971}, {"type": "node", "id": 3706371976, "lat": 23.0267948, "lon": 72.5260728}, {"type": "node", "id": 3706371977, "lat": 23.0268137, "lon": 72.5259067}, {"type": "node", "id": 3706371984, "lat": 23.0268606, "lon": 72.5261781}, {"type": "node", "id": 3706371985, "lat": 23.0268817, "lon": 72.5259389}, {"type": "node", "id": 3706371988, "lat": 23.0270024, "lon": 72.5261929}, {"type": "node", "id": 3706371989, "lat": 23.0270236, "lon": 72.5259537}, {"type": "node", "id": 3715239995, "lat": 23.0128212, "lon": 72.5237394}, {"type": "node", "id": 3715240004, "lat": 23.0128444, "lon": 72.5239102}, {"type": "node", "id": 3715240013, "lat": 23.0128878, "lon": 72.5237288}, {"type": "node", "id": 3715240017, "lat": 23.0128996, "lon": 72.5238157}, {"type": "node", "id": 3715240028, "lat": 23.0129196, "lon": 72.5237227}, {"type": "node", "id": 3715240036, "lat": 23.0129315, "lon": 72.5238106}, {"type": "node", "id": 3715240043, "lat": 23.0129429, "lon": 72.5238945}, {"type": "node", "id": 3715240048, "lat": 23.0129537, "lon": 72.5239746}, {"type": "node", "id": 3715240079, "lat": 23.013054, "lon": 72.5237011}, {"type": "node", "id": 3715240087, "lat": 23.0130882, "lon": 72.5239531}, {"type": "node", "id": 3716686312, "lat": 23.011151, "lon": 72.5111654}, {"type": "node", "id": 3716686313, "lat": 23.0112311, "lon": 72.5115616}, {"type": "node", "id": 3716686511, "lat": 23.01167, "lon": 72.5114568}, {"type": "node", "id": 3716686624, "lat": 23.0117223, "lon": 72.511029}, {"type": "node", "id": 3716686654, "lat": 23.0117374, "lon": 72.5111039}, {"type": "node", "id": 3716686863, "lat": 23.0117919, "lon": 72.5113687}, {"type": "node", "id": 3716686865, "lat": 23.0117938, "lon": 72.5120688}, {"type": "node", "id": 3716686880, "lat": 23.0117991, "lon": 72.5110892}, {"type": "node", "id": 3716686967, "lat": 23.0118402, "lon": 72.5116077}, {"type": "node", "id": 3716686982, "lat": 23.0118526, "lon": 72.5113542}, {"type": "node", "id": 3716687046, "lat": 23.0118802, "lon": 72.5118799}, {"type": "node", "id": 3716687099, "lat": 23.0119096, "lon": 72.5115912}, {"type": "node", "id": 3716687106, "lat": 23.0119127, "lon": 72.5120404}, {"type": "node", "id": 3716687328, "lat": 23.011964, "lon": 72.5118598}, {"type": "node", "id": 3718138721, "lat": 23.019447, "lon": 72.529628}, {"type": "node", "id": 3718138722, "lat": 23.0194491, "lon": 72.5298689}, {"type": "node", "id": 3718138725, "lat": 23.0196263, "lon": 72.5296261}, {"type": "node", "id": 3718138726, "lat": 23.0196284, "lon": 72.5298671}, {"type": "node", "id": 3730404458, "lat": 22.9948464, "lon": 72.6047046}, {"type": "node", "id": 3730404460, "lat": 22.9948486, "lon": 72.6046485}, {"type": "node", "id": 3730404484, "lat": 22.9949034, "lon": 72.604651}, {"type": "node", "id": 3730404485, "lat": 22.9949088, "lon": 72.6045108}, {"type": "node", "id": 3730404512, "lat": 22.9949809, "lon": 72.6047107}, {"type": "node", "id": 3730404513, "lat": 22.9949885, "lon": 72.6045144}, {"type": "node", "id": 3732514762, "lat": 22.9953376, "lon": 72.6048838}, {"type": "node", "id": 3732514763, "lat": 22.9953391, "lon": 72.6048291}, {"type": "node", "id": 3732514772, "lat": 22.9954149, "lon": 72.6048864}, {"type": "node", "id": 3732514774, "lat": 22.9954165, "lon": 72.6048316}, {"type": "node", "id": 3774861432, "lat": 23.0140747, "lon": 72.5285852, "tags": {"amenity": "bank", "name": "saswat bank"}}, {"type": "node", "id": 3808256134, "lat": 23.0098902, "lon": 72.5465809, "tags": {"amenity": "bank", "brand": "HDFC", "brand:wikidata": "Q631047", "brand:wikipedia": "en:HDFC Bank", "name": "HDFC Bank", "short_name": "HDFC", "website": "https://www.hdfcbank.com"}}, {"type": "node", "id": 4127286289, "lat": 23.0526603, "lon": 72.5568708, "tags": {"addr:housenumber": "3", "addr:street": "shiv-sankalp soc. amikunj cross road", "amenity": "bank", "name": "canera bank"}}, {"type": "node", "id": 4254423389, "lat": 23.0121167, "lon": 72.5124778, "tags": {"addr:postcode": "380015", "addr:street": "100 Ft. Road", "amenity": "fuel", "name": "Shell"}}, {"type": "node", "id": 4254427889, "lat": 23.0119649, "lon": 72.5130175, "tags": {"addr:postcode": "380015", "addr:street": "100 Ft. Road", "amenity": "bank", "brand": "Yes Bank", "brand:wikidata": "Q2040394", "brand:wikipedia": "en:Yes Bank", "name": "Yes Bank", "name:en": "YES Bank", "website": "https://www.yesbank.in"}}, {"type": "node", "id": 4326504193, "lat": 23.0135186, "lon": 72.5644029, "tags": {"addr:street": "Ashram Road", "amenity": "fuel", "name": "CNG Adani"}}, {"type": "node", "id": 4341542319, "lat": 23.0462917, "lon": 72.6409003, "tags": {"addr:postcode": "382345", "addr:street": "Hirawadi", "amenity": "bank", "brand": "State Bank of India", "brand:wikidata": "Q1340361", "brand:wikipedia": "en:State Bank of India", "name": "State Bank of India", "short_name": "SBI"}}, {"type": "node", "id": 4358515492, "lat": 22.9713508, "lon": 72.6273272, "tags": {"addr:street": "Swami Bapa Smruti Mandir Road", "amenity": "bank", "brand:wikidata": "Q3595747", "brand:wikipedia": "en:Dena Bank", "name": "Dena Bank", "name:en": "Dena Bank", "website": "http://www.denabank.com"}}, {"type": "node", "id": 4358562490, "lat": 23.0384792, "lon": 72.5692563, "tags": {"addr:street": "Ashram Road", "amenity": "bank", "brand:wikidata": "Q2040404", "brand:wikipedia": "en:Kotak Mahindra Bank", "name": "Kotak Mahindra Bank", "name:en": "Kotak Mahindra Bank", "website": "http://www.kotak.com"}}, {"type": "node", "id": 4358631802, "lat": 23.0579511, "lon": 72.6431616, "tags": {"amenity": "fuel", "fuel:cng": "yes"}}, {"type": "node", "id": 4358646485, "lat": 23.0523451, "lon": 72.6319464, "tags": {"amenity": "fuel", "name": "Cng Petrol pump"}}, {"type": "node", "id": 4412725295, "lat": 23.0219685, "lon": 72.6508243, "tags": {"addr:street": "Odhav Road", "amenity": "fuel", "name": "Petrol CNG pump"}}, {"type": "node", "id": 4422048291, "lat": 22.9623509, "lon": 72.6326626, "tags": {"amenity": "bank", "brand": "HDFC", "brand:wikidata": "Q631047", "brand:wikipedia": "en:HDFC Bank", "name": "HDFC bank", "short_name": "HDFC", "website": "https://www.hdfcbank.com"}}, {"type": "node", "id": 4445025189, "lat": 23.0477016, "lon": 72.5324345, "tags": {"amenity": "fuel", "brand": "Indian Oil", "brand:wikidata": "Q1289348", "brand:wikipedia": "en:Indian Oil Corporation", "name": "Indian oil", "name:en": "Indian oil"}}, {"type": "node", "id": 4482323991, "lat": 23.039025, "lon": 72.580366, "tags": {"amenity": "fuel", "name": "cng", "name:en": "cng"}}, {"type": "node", "id": 4483242065, "lat": 23.0797088, "lon": 72.6678593, "tags": {"amenity": "fuel", "name": "Petrol pump Nava Naroda"}}, {"type": "node", "id": 4483474713, "lat": 23.0400891, "lon": 72.5781297, "tags": {"addr:street": "Kasturba Gandhi Road", "amenity": "fuel", "name": "CNG Bharat petroleum"}}, {"type": "node", "id": 4715930893, "lat": 23.072579, "lon": 72.5539414, "tags": {"addr:street": "Ghatlodia", "amenity": "bank"}}, {"type": "node", "id": 4794246528, "lat": 23.0804261, "lon": 72.5744422, "tags": {"amenity": "bank", "brand:wikidata": "Q1340361", "brand:wikipedia": "en:State Bank of India", "name": "State Bank of India", "name:en": "State Bank of India", "short_name": "SBI"}}, {"type": "node", "id": 4891804983, "lat": 23.076537, "lon": 72.5234735, "tags": {"amenity": "fuel", "name": "Bharat Petroleum"}}, {"type": "node", "id": 5123724010, "lat": 22.9969205, "lon": 72.5355418}, {"type": "node", "id": 5123724011, "lat": 22.9970861, "lon": 72.5354615}, {"type": "node", "id": 5123724012, "lat": 22.9975056, "lon": 72.5364816}, {"type": "node", "id": 5123724013, "lat": 22.9973576, "lon": 72.5365568}, {"type": "node", "id": 5123724014, "lat": 22.997267, "lon": 72.5354475}, {"type": "node", "id": 5123724015, "lat": 22.9974414, "lon": 72.5355016}, {"type": "node", "id": 5123724016, "lat": 22.9975883, "lon": 72.5356172}, {"type": "node", "id": 5123724017, "lat": 22.9976899, "lon": 72.5357804}, {"type": "node", "id": 5123724018, "lat": 22.9977339, "lon": 72.5359715}, {"type": "node", "id": 5123724019, "lat": 22.9977152, "lon": 72.5361674}, {"type": "node", "id": 5123724020, "lat": 22.9976359, "lon": 72.5363446}, {"type": "node", "id": 5123724021, "lat": 22.9971955, "lon": 72.5365787}, {"type": "node", "id": 5123724022, "lat": 22.9970351, "lon": 72.536545}, {"type": "node", "id": 5123724023, "lat": 22.9968921, "lon": 72.5364592}, {"type": "node", "id": 5123724024, "lat": 22.9967805, "lon": 72.5363295}, {"type": "node", "id": 5123724025, "lat": 22.9967113, "lon": 72.5361688}, {"type": "node", "id": 5123724026, "lat": 22.9966912, "lon": 72.5359926}, {"type": "node", "id": 5123724027, "lat": 22.9967222, "lon": 72.5358184}, {"type": "node", "id": 5123724028, "lat": 22.9968012, "lon": 72.535663}, {"type": "node", "id": 5123724029, "lat": 22.9980093, "lon": 72.5356144}, {"type": "node", "id": 5123724030, "lat": 22.9980747, "lon": 72.5360128}, {"type": "node", "id": 5123724031, "lat": 22.9966587, "lon": 72.5365557}, {"type": "node", "id": 5123724032, "lat": 22.9968002, "lon": 72.5366884}, {"type": "node", "id": 5123724033, "lat": 22.9964815, "lon": 72.535783}, {"type": "node", "id": 5165010877, "lat": 23.1282051, "lon": 72.5439614, "tags": {"amenity": "bank", "atm": "no", "name": "Kalupur Cooperative Commercial BANK"}}, {"type": "node", "id": 5286955825, "lat": 23.0846729, "lon": 72.6862592, "tags": {"addr:street": "Sardar Patel Ring Road", "amenity": "fuel", "name": "CNG gas station"}}, {"type": "node", "id": 5387295121, "lat": 23.0289447, "lon": 72.6734332, "tags": {"addr:street": "Sardar Patel Ring Road", "amenity": "fuel", "name": "Cng and petrol pump"}}, {"type": "node", "id": 5527662484, "lat": 23.0140063, "lon": 72.5658082, "tags": {"amenity": "fuel", "brand": "Bharat Petroleum"}}, {"type": "node", "id": 5588122960, "lat": 22.9911584, "lon": 72.61595}, {"type": "node", "id": 5588122961, "lat": 22.9911553, "lon": 72.6160458}, {"type": "node", "id": 5588122962, "lat": 22.9910593, "lon": 72.6160475}, {"type": "node", "id": 5588122963, "lat": 22.9910469, "lon": 72.61595}, {"type": "node", "id": 5588122989, "lat": 22.9925517, "lon": 72.6162581}, {"type": "node", "id": 5588122990, "lat": 22.9925486, "lon": 72.6164263}, {"type": "node", "id": 5588122991, "lat": 22.9924828, "lon": 72.6164238}, {"type": "node", "id": 5588122992, "lat": 22.9924704, "lon": 72.6162506}, {"type": "node", "id": 6263502085, "lat": 22.9950448, "lon": 72.6022845, "tags": {"addr:postcode": "380008", "addr:street": "Jhawarchowck, Maninagar", "amenity": "bank", "name": "Indusland Bank", "opening_hours": "Mo-Sa 09:00-18:00"}}, {"type": "node", "id": 6782649985, "lat": 23.0132724, "lon": 72.5298603, "tags": {"addr:postcode": "380015", "addr:street": "132 Ft. Ring Road", "amenity": "bank", "name": "SBI"}}, {"type": "node", "id": 6782650085, "lat": 23.013352, "lon": 72.5298603, "tags": {"addr:postcode": "380015", "amenity": "bank", "name": "Bank of Baroda"}}, {"type": "node", "id": 7044421804, "lat": 22.9969612, "lon": 72.6064746}, {"type": "node", "id": 7044421805, "lat": 22.9969564, "lon": 72.6066276}, {"type": "node", "id": 7044421806, "lat": 22.9970524, "lon": 72.6066293}, {"type": "node", "id": 7044421807, "lat": 22.9970524, "lon": 72.6064764}, {"type": "node", "id": 7843113586, "lat": 22.9992598, "lon": 72.6035412}, {"type": "node", "id": 7843113587, "lat": 22.9990078, "lon": 72.6035612}, {"type": "node", "id": 7843113588, "lat": 22.9990206, "lon": 72.6037072}, {"type": "node", "id": 7843113589, "lat": 22.9993093, "lon": 72.6037149}, {"type": "node", "id": 8694181658, "lat": 22.8655534, "lon": 72.7456444, "tags": {"amenity": "fuel"}}, {"type": "node", "id": 8815159955, "lat": 23.0457257, "lon": 72.5523509, "tags": {"amenity": "bank", "atm": "yes", "brand": "Axis Bank", "brand:wikidata": "Q2003549", "brand:wikipedia": "en:Axis Bank", "drive_through": "no", "name": "Axis Bank, Memnagar Branch"}}, {"type": "node", "id": 8960393555, "lat": 23.0188797, "lon": 72.5578256}, {"type": "node", "id": 8960393556, "lat": 23.0189067, "lon": 72.557951}, {"type": "node", "id": 8960393557, "lat": 23.0187643, "lon": 72.5579844}, {"type": "node", "id": 8960393558, "lat": 23.0187297, "lon": 72.5578632}, {"type": "node", "id": 10076563891, "lat": 22.9969029, "lon": 72.5367434}, {"type": "node", "id": 10076563892, "lat": 22.9970429, "lon": 72.5367914}, {"type": "node", "id": 10076563893, "lat": 22.9973848, "lon": 72.5367845}, {"type": "node", "id": 10076563894, "lat": 22.9975602, "lon": 72.5367078}, {"type": "node", "id": 10076563895, "lat": 22.9972022, "lon": 72.5368044}, {"type": "node", "id": 10076563896, "lat": 22.9979487, "lon": 72.5360157}, {"type": "node", "id": 10076563897, "lat": 22.9979298, "lon": 72.5358128}, {"type": "node", "id": 10076563898, "lat": 22.9978718, "lon": 72.5356511}, {"type": "node", "id": 10076563899, "lat": 22.9978011, "lon": 72.5355195}, {"type": "node", "id": 10076563900, "lat": 22.9976926, "lon": 72.5353825}, {"type": "node", "id": 10076563901, "lat": 22.9975614, "lon": 72.5352811}, {"type": "node", "id": 10076563902, "lat": 22.9973924, "lon": 72.5352153}, {"type": "node", "id": 10076563903, "lat": 22.997183, "lon": 72.5351933}, {"type": "node", "id": 10076563904, "lat": 22.9969912, "lon": 72.5352317}, {"type": "node", "id": 10076563905, "lat": 22.9968221, "lon": 72.535303}, {"type": "node", "id": 10076563906, "lat": 22.996696, "lon": 72.5354099}, {"type": "node", "id": 10076563907, "lat": 22.9965774, "lon": 72.5355483}, {"type": "node", "id": 10076563908, "lat": 22.9965724, "lon": 72.5366514}, {"type": "node", "id": 10076563909, "lat": 22.996695, "lon": 72.536774}, {"type": "node", "id": 10076563910, "lat": 22.9968224, "lon": 72.5368559}, {"type": "node", "id": 10076563911, "lat": 22.9969939, "lon": 72.5369185}, {"type": "node", "id": 10076563912, "lat": 22.9977885, "lon": 72.5367009}, {"type": "node", "id": 10076563913, "lat": 22.998056, "lon": 72.5357813}, {"type": "node", "id": 10076563914, "lat": 22.9979298, "lon": 72.5354647}, {"type": "node", "id": 10076563915, "lat": 22.9974201, "lon": 72.5350741}, {"type": "node", "id": 10076563916, "lat": 22.9967704, "lon": 72.5351796}, {"type": "node", "id": 10076616617, "lat": 22.9976989, "lon": 72.5366065}, {"type": "node", "id": 10076616618, "lat": 22.997826, "lon": 72.5364346}, {"type": "node", "id": 10076616619, "lat": 22.9979161, "lon": 72.5362284}, {"type": "node", "id": 10168672385, "lat": 23.1117546, "lon": 72.5025376}, {"type": "node", "id": 10168672386, "lat": 23.1119165, "lon": 72.5020272}, {"type": "node", "id": 10168672387, "lat": 23.1115367, "lon": 72.5018832}, {"type": "node", "id": 10168672388, "lat": 23.1113739, "lon": 72.5023873}, {"type": "node", "id": 10177874699, "lat": 22.9871408, "lon": 72.6269447, "tags": {"amenity": "fuel", "name": "Shell"}}, {"type": "way", "id": 244327265, "nodes": [10076563895, 10076563893, 10076563894, 10076616617, 10076616618, 10076616619, 10076563896, 10076563897, 10076563898, 10076563899, 10076563900, 10076563901, 10076563902, 10076563903, 10076563904, 10076563905, 10076563906, 10076563907, 5123724033, 2516575068, 3247356212, 3247356214, 10076563916, 2516575073, 3247356219, 10076563915, 2516575075, 3247356221, 10076563914, 5123724029, 10076563913, 5123724030, 3247356220, 2516575077, 10076563912, 3247356218, 3247356217, 2516575071, 10076563911, 10076563910, 10076563909, 10076563908, 5123724031, 5123724032, 10076563891, 10076563892, 10076563895], "tags": {"building": "retail", "name": "APMC Market"}}, {"type": "way", "id": 316004638, "nodes": [3221242025, 3221242026, 3221242027, 3221242028, 3221242025], "tags": {"addr:city": "Ahmedabad", "addr:postcode": "380059", "addr:street": "Hebatpur road", "amenity": "fuel", "name": "Shell Pump", "operator": "Shell"}}, {"type": "way", "id": 317385209, "nodes": [3236392937, 3236392940, 3236392939, 3236392938, 3236392936, 3236392937], "tags": {"addr:city": "Ahmedabad, Gujarat. India", "addr:postcode": "380009", "addr:street": "CG Road", "amenity": "fuel", "brand": "Indian Oil", "brand:wikidata": "Q1289348", "brand:wikipedia": "en:Indian Oil Corporation", "fuel:diesel": "yes", "fuel:octane_91": "yes", "name": "Associated Petrol Pump", "opening_hours": "08:30-23:30", "operator": "Indian Oil"}}, {"type": "way", "id": 317473584, "nodes": [3237479210, 3237479211, 3237479212, 3237479213, 3237479214, 3237479215, 3237479216, 3237479217, 3237479218, 3237479210], "tags": {"amenity": "fuel", "building": "commercial"}}, {"type": "way", "id": 317474315, "nodes": [3237489085, 3237489086, 3237489087, 3237489088, 3237489085], "tags": {"addr:city": "Ahmedabad, Gujarat. India", "addr:postcode": "380009", "addr:street": "CG Road", "amenity": "fuel", "brand": "Bharat Petroleum", "brand:wikidata": "Q854826", "brand:wikipedia": "en:Bharat Petroleum", "name": "Bharat Petroleum", "opening_hours": "Mo-Su 7:00 - 23:30", "operator": "Bharat Petroleum"}}, {"type": "way", "id": 317502587, "nodes": [3237765745, 3237765748, 3237765743, 3237765746, 3237765747, 3237765749, 3237765751, 3237765752, 3237765750, 3237765741, 3237765745], "tags": {"addr:city": "Ahmedabad, Gujarat. India", "addr:housename": "Ratnam Complex", "addr:street": "Chimanlal Girdharlal Road", "building": "retail", "building:levels": "4", "name": "Ratnam Complex"}}, {"type": "way", "id": 322221961, "nodes": [3289950704, 3289950706, 3289950711, 3289950710, 3289950704], "tags": {"amenity": "fuel", "brand": "Bharat Petroleum", "fuel:diesel": "yes", "fuel:octane_80": "yes", "fuel:octane_92": "no", "opening_hours": "Mo-Su 08:00-22:00", "operator": "Bharat Petroleum"}}, {"type": "way", "id": 327200043, "nodes": [3339285341, 3339285343, 3339285344, 3339285342, 3339285341], "tags": {"amenity": "bank", "building": "yes", "name": "The Reserve Bank of India", "operator": "Government of India"}}, {"type": "way", "id": 366427950, "nodes": [3704110835, 3704110834, 3704110832, 3704110833, 3704110835], "tags": {"amenity": "fuel", "brand": "Bharat Petroleum", "building": "yes", "name": "Bharat Petroleum"}}, {"type": "way", "id": 366469741, "nodes": [3704471937, 3704471943, 3704471941, 3704471938, 3704471935, 3704471936, 3704471937], "tags": {"amenity": "fuel", "brand": "Hindustan Petroleum", "brand:wikidata": "Q1619375", "name": "HP Petrol Pump", "official_name": "Hindustan Petroleum", "opening_hours": "24/7"}}, {"type": "way", "id": 366648662, "nodes": [3706371934, 3706371951, 3706371950, 3706371970, 3706371971, 3706371977, 3706371976, 3706371962, 3706371958, 3706371932, 3706371943, 3706371933, 3706371934], "tags": {"amenity": "fuel", "name": "CNG petrol pump"}}, {"type": "way", "id": 366648731, "nodes": [3706371989, 3706371988, 3706371984, 3706371985, 3706371989], "tags": {"amenity": "fuel", "name": "Petrol Pump -Indian Oil"}}, {"type": "way", "id": 367614747, "nodes": [3715240079, 3715240087, 3715240048, 3715240043, 3715240004, 3715239995, 3715240013, 3715240017, 3715240036, 3715240028, 3715240079], "tags": {"amenity": "fuel", "building": "yes"}}, {"type": "way", "id": 367789238, "nodes": [3716686312, 3716686624, 3716686654, 3716686880, 3716686982, 3716686863, 3716686967, 3716687099, 3716687328, 3716687046, 3716687106, 3716686865, 3716686511, 3716686313, 3716686312], "tags": {"addr:housename": "Venus Atlantis Corporate Park", "building": "retail", "building:levels": "11", "name": "Venus Atlantis", "roof:levels": "12"}}, {"type": "way", "id": 367948274, "nodes": [3718138725, 3718138726, 3718138722, 3718138721, 3718138725], "tags": {"addr:city": "Ahmedabad", "addr:postcode": "380015", "addr:street": "132 Ft. Ring Road", "amenity": "fuel", "brand": "Indian Oil Petrol Pump", "brand:wikidata": "Q1289348", "brand:wikipedia": "en:Indian Oil Corporation", "fuel:diesel": "yes", "fuel:petrol": "yes", "name": "Indian Oil Petrol Pump", "opening_hours": "24/7", "website": "https://www.iocl.com/"}}, {"type": "way", "id": 369231919, "nodes": [3730404513, 3730404512, 3730404458, 3730404460, 3730404484, 3730404485, 3730404513], "tags": {"addr:housename": "Swastik Square", "building": "retail", "building:levels": "5", "roof:levels": "6"}}, {"type": "way", "id": 369460587, "nodes": [3732514774, 3732514772, 3732514762, 3732514763, 3732514774], "tags": {"building": "retail"}}, {"type": "way", "id": 526965268, "nodes": [5123724021, 5123724022, 5123724023, 5123724024, 5123724025, 5123724026, 5123724027, 5123724028, 5123724010, 5123724011, 5123724014, 5123724015, 5123724016, 5123724017, 5123724018, 5123724019, 5123724020, 5123724012, 5123724013, 5123724021], "tags": {"building": "retail", "name": "APMC Market"}}, {"type": "way", "id": 584631609, "nodes": [5588122960, 5588122961, 5588122962, 5588122963, 5588122960], "tags": {"addr:city": "ahmedabad", "addr:postcode": "380008", "building": "retail", "name": "Shreeji Dairy", "smoking": "no"}}, {"type": "way", "id": 584631621, "nodes": [5588122989, 5588122990, 5588122991, 5588122992, 5588122989], "tags": {"area": "yes", "building": "civic", "name": "Government Library"}}, {"type": "way", "id": 754019042, "nodes": [7044421804, 7044421805, 7044421806, 7044421807, 7044421804], "tags": {"addr:city": "Ahmedabad", "addr:postcode": "380008", "addr:street": "Lala Lajpat Rai Marg, Maninagar Char Rasta", "amenity": "bank", "atm": "yes", "brand": "Bank of Baroda", "brand:wikidata": "Q2003797", "brand:wikipedia": "en:Bank of Baroda", "building": "commercial", "drive_through": "no", "email": "manina@bankofbaroda.com", "name": "Bank of Baroda", "website": "https://www.bankofbaroda.in/"}}, {"type": "way", "id": 840511410, "nodes": [7843113586, 7843113587, 7843113588, 7843113589, 7843113586], "tags": {"amenity": "fuel", "brand": "Adani", "fuel:cng": "yes", "fuel:compressed_biogas": "yes", "name": "Adani CNG Station", "operator": "Adani"}}, {"type": "way", "id": 968525629, "nodes": [8960393555, 8960393556, 8960393557, 8960393558, 8960393555], "tags": {"amenity": "bank", "brand": "ICICI Bank", "brand:wikidata": "Q1653258", "brand:wikipedia": "en:ICICI Bank", "building": "yes", "name": "ICICI Bank", "short_name": "ICICI"}}, {"type": "way", "id": 1111460672, "nodes": [10168672385, 10168672386, 10168672387, 10168672388, 10168672385], "tags": {"addr:city": "Ahmedabad", "addr:street": "S P Ring Road", "amenity": "fuel", "brand": "Nayara", "brand:wikidata": "Q1360409", "building": "commercial", "fuel:diesel": "yes", "fuel:petrol": "yes", "name": "Nayara", "self_service": "no"}}]}