{"version": 0.6, "generator": "Overpass API 0.7.61.5 4133829e", "osm3s": {"timestamp_osm_base": "2024-02-25T09:46:55Z", "copyright": "The data included in this document is from www.openstreetmap.org. The data is made available under ODbL."}, "elements": [{"type": "node", "id": 7040094579, "lat": 26.7949954, "lon": 75.8241633, "tags": {"addr:district": "Jaipur", "addr:full": "Sector-28, Khumba Marg,Pratap Nagar, Sanganager", "addr:postcode": "302033", "addr:state": "Rajasthan", "amenity": "hospital", "emergency": "yes", "healthcare": "hospital", "name": "Narayana Multispeciality Hospital", "source": "OpenGovernmentData"}}, {"type": "node", "id": 7040155139, "lat": 26.5646099, "lon": 75.5784555, "tags": {"addr:district": "Jaipur", "addr:full": "Ramkola, Railway road, Phagi", "addr:postcode": "302016", "addr:state": "Rajasthan", "amenity": "hospital", "name": "Saint Thomas Hospital", "source": "OpenGovernmentData"}}, {"type": "node", "id": 7694995573, "lat": 26.7093097, "lon": 75.8015023, "tags": {"addr:district": "Jaipur", "addr:full": "Bajdoli Road, Vatika", "addr:postcode": "303905", "addr:state": "Rajasthan", "amenity": "clinic", "name": "Ambika Clinic", "source": "Local Knowledge"}}, {"type": "node", "id": 7694995579, "lat": 26.712024, "lon": 75.802491, "tags": {"addr:district": "Jaipur", "addr:full": "Sanganair, Vatika", "addr:postcode": "303905", "addr:state": "Rajasthan", "amenity": "clinic", "name": "Tithi Clinic", "source": "Local Knowledge"}}, {"type": "node", "id": 7694995581, "lat": 26.7797811, "lon": 75.7628848, "tags": {"addr:district": "Jaipur", "addr:full": "Madrampur, Sanganer, Jaipur", "addr:postcode": "302006", "addr:state": "Rajasthan", "amenity": "hospital", "name": "Bagra Hospital", "source": "Local Knowledge"}}, {"type": "node", "id": 7694995601, "lat": 26.7904461, "lon": 75.8156187, "tags": {"addr:district": "Jaipur", "addr:full": "Govardhan Nagar, Jaipur", "addr:postcode": "302022", "addr:state": "Rajasthan", "amenity": "clinic", "name": "Balaji Clinic", "source": "Local Knowledge"}}, {"type": "node", "id": 7694995615, "lat": 26.7836258, "lon": 75.8161414, "tags": {"addr:district": "Jaipur", "addr:full": "Mahaveer Colony, Sanganer, Govardhan Nagar", "addr:postcode": "302022", "addr:state": "Rajasthan", "amenity": "clinic", "name": "Sai Baba Clinic", "source": "Local Knowledge"}}, {"type": "node", "id": 7694995620, "lat": 26.7841241, "lon": 75.815859, "tags": {"addr:district": "Jaipur", "addr:full": "Viman Vihar, Govardhan Nagar", "addr:postcode": "302022", "addr:state": "Rajasthan", "amenity": "hospital", "name": "Bhanu Hospital", "source": "Local Knowledge"}}, {"type": "node", "id": 7694995639, "lat": 26.7979793, "lon": 75.726554, "tags": {"addr:district": "Jaipur", "addr:full": "Muhana", "addr:postcode": "302029", "addr:state": "Rajasthan", "amenity": "hospital", "name": "Lucky Hospital", "source": "Local Knowledge"}}, {"type": "node", "id": 7694995644, "lat": 26.7892332, "lon": 75.8117096, "tags": {"addr:district": "Jaipur", "addr:full": "Krashi Nagar, Govardhan Nagar", "addr:postcode": "303906", "addr:state": "Rajasthan", "amenity": "clinic", "name": "Raj Clinic", "source": "Local Knowledge"}}, {"type": "node", "id": 7694995645, "lat": 26.769145, "lon": 75.767558, "tags": {"addr:district": "Jaipur", "addr:full": "Balaji Vihar, Jaipur", "addr:postcode": "303905", "addr:state": "Rajasthan", "amenity": "hospital", "name": "Janvi Hospital", "source": "Local Knowledge"}}, {"type": "node", "id": 7694995648, "lat": 26.7916353, "lon": 75.8171825, "tags": {"addr:district": "Jaipur", "addr:full": "Goverdhan Nagar, Tonk Road, Jaipur", "addr:postcode": "302018", "addr:state": "Rajasthan", "amenity": "clinic", "name": "Janta Clinics", "source": "Local Knowledge"}}, {"type": "node", "id": 7694995649, "lat": 26.7794303, "lon": 75.8017474, "tags": {"addr:district": "Jaipur", "addr:full": "Govind Pura, Shikarpura, Jaipur", "addr:postcode": "302029", "addr:state": "Rajasthan", "amenity": "hospital", "name": "Jaim Hospital", "source": "Local Knowledge"}}, {"type": "node", "id": 7694995662, "lat": 26.7854228, "lon": 75.8188922, "tags": {"addr:district": "Jaipur", "addr:full": "India Gate, Mahaveer Colony", "addr:postcode": "302017", "addr:state": "Rajasthan", "amenity": "clinic", "name": "Shree Om Laxmi Bangali Clinic", "source": "Local Knowledge"}}, {"type": "node", "id": 7694995672, "lat": 26.7954924, "lon": 75.6348612, "tags": {"addr:district": "Jaipur", "addr:full": "Kalwara", "addr:postcode": "302029", "addr:state": "Rajasthan", "amenity": "hospital", "name": "Rukmani Devi Memorial Hospital", "source": "Local Knowledge"}}, {"type": "node", "id": 7694995673, "lat": 26.7859707, "lon": 75.8164066, "tags": {"addr:district": "Jaipur", "addr:full": "Govindpura Road, Sanganer", "addr:postcode": "303906", "addr:state": "Rajasthan", "amenity": "clinic", "name": "Radhe Radhe Clinic", "source": "Local Knowledge"}}, {"type": "node", "id": 10727299094, "lat": 26.7951603, "lon": 75.8235351}, {"type": "node", "id": 10727299095, "lat": 26.7949373, "lon": 75.823506}, {"type": "node", "id": 10727299096, "lat": 26.7945613, "lon": 75.8235815}, {"type": "node", "id": 10727299097, "lat": 26.7945069, "lon": 75.8235961}, {"type": "node", "id": 10727299098, "lat": 26.7945457, "lon": 75.8257021}, {"type": "node", "id": 10727299099, "lat": 26.7945872, "lon": 75.8258822}, {"type": "node", "id": 10727299100, "lat": 26.7946676, "lon": 75.825888}, {"type": "node", "id": 10727299101, "lat": 26.7953755, "lon": 75.8258328}, {"type": "node", "id": 10727299102, "lat": 26.795251, "lon": 75.8243281}, {"type": "way", "id": 1153421452, "nodes": [10727299094, 10727299095, 10727299096, 10727299097, 10727299098, 10727299099, 10727299100, 10727299101, 10727299102, 10727299094], "tags": {"amenity": "hospital", "healthcare": "hospital", "name": "Narayana Multispeciality Hospital Blood bank"}}]}