{"version": 0.6, "generator": "Overpass API 0.7.61.5 4133829e", "osm3s": {"timestamp_osm_base": "2024-02-25T09:24:29Z", "copyright": "The data included in this document is from www.openstreetmap.org. The data is made available under ODbL."}, "elements": [{"type": "node", "id": 1083578788, "lat": 21.1157993, "lon": 79.0629807}, {"type": "node", "id": 1966830219, "lat": 21.1294212, "lon": 79.1140716, "tags": {"addr:city": "Nagpur", "addr:country": "IN", "addr:street": "Azamshah Layout", "amenity": "police", "name": "Sakkardara Police Station"}}, {"type": "node", "id": 2122322014, "lat": 21.1296621, "lon": 79.0492541}, {"type": "node", "id": 2536754099, "lat": 21.1426624, "lon": 79.1177263}, {"type": "node", "id": 2536754100, "lat": 21.1425388, "lon": 79.1181239}, {"type": "node", "id": 2536754102, "lat": 21.1424481, "lon": 79.1184685}, {"type": "node", "id": 2536754103, "lat": 21.1423987, "lon": 79.1188838}, {"type": "node", "id": 2536754105, "lat": 21.1411707, "lon": 79.1187424}, {"type": "node", "id": 2536754106, "lat": 21.1413438, "lon": 79.11785}, {"type": "node", "id": 2536754107, "lat": 21.1419454, "lon": 79.117797}, {"type": "node", "id": 2536754108, "lat": 21.1424646, "lon": 79.1176291}, {"type": "node", "id": 2536754109, "lat": 21.14258, "lon": 79.1175937}, {"type": "node", "id": 2536754111, "lat": 21.1426377, "lon": 79.1176379}, {"type": "node", "id": 2565942701, "lat": 21.1214702, "lon": 79.0577679}, {"type": "node", "id": 2565942702, "lat": 21.1190583, "lon": 79.0570849}, {"type": "node", "id": 2565942703, "lat": 21.1188004, "lon": 79.0572963}, {"type": "node", "id": 2565942704, "lat": 21.1167525, "lon": 79.0601421}, {"type": "node", "id": 2565942705, "lat": 21.1194527, "lon": 79.0640449}, {"type": "node", "id": 2565942706, "lat": 21.1201265, "lon": 79.0628877}, {"type": "node", "id": 2565942707, "lat": 21.1207421, "lon": 79.060012}, {"type": "node", "id": 2684840335, "lat": 21.1024123, "lon": 79.056333}, {"type": "node", "id": 2684840340, "lat": 21.1024895, "lon": 79.0561939}, {"type": "node", "id": 2684840361, "lat": 21.1029422, "lon": 79.0559155}, {"type": "node", "id": 2684840366, "lat": 21.1030038, "lon": 79.0558171}, {"type": "node", "id": 2684840369, "lat": 21.1032896, "lon": 79.0565625}, {"type": "node", "id": 2684840374, "lat": 21.103352, "lon": 79.0559699}, {"type": "node", "id": 2902128981, "lat": 21.1617741, "lon": 79.0714018, "tags": {"amenity": "police", "name": "Sadar Solan Police Station"}}, {"type": "node", "id": 3073148507, "lat": 21.1545937, "lon": 79.0725174, "tags": {"amenity": "police", "name": "Police Control Room Nagpur City"}}, {"type": "node", "id": 3141259553, "lat": 21.173675, "lon": 79.0609179, "tags": {"addr:city": "Nagpur", "addr:street": "Police LineTakli, Mankapur", "amenity": "police", "name": "Gittikhadan Police Station", "phone": "+91-712-2580127, +91-712-2566757"}}, {"type": "node", "id": 3143194649, "lat": 21.1485857, "lon": 79.0553787, "tags": {"addr:city": "Nagpur", "addr:postcode": "440001", "addr:street": "Ravi Nagar Square, Amravati Road,", "amenity": "police", "name": "Ambazari Police Station", "phone": "0712 256 1300", "website": "nagpurpolice.nic.in"}}, {"type": "node", "id": 3151963990, "lat": 21.1233991, "lon": 79.0854254, "tags": {"addr:city": "Nagpur", "addr:postcode": "440003", "addr:street": "Ajni Rd, Ajni", "amenity": "police", "name": "Police Station-Ajni", "phone": "0712 264 6643"}}, {"type": "node", "id": 3259492034, "lat": 21.0905381, "lon": 79.0643585, "tags": {"addr:city": "Nagpur", "addr:street": "1, Wardha Rd, Near Airport, Sonegaon, Nagpur, Mah*", "amenity": "police", "name": "Sonegao Police Station", "phone": "+91-712-2284110, +91-712-2566765"}}, {"type": "node", "id": 3259500254, "lat": 21.1304545, "lon": 79.1221017, "tags": {"addr:city": "Nagpur", "addr:postcode": "440009", "addr:street": "Nandanvan", "amenity": "police", "name": "Nandanvan Police Station"}}, {"type": "node", "id": 3259514169, "lat": 21.147774, "lon": 79.1128324, "tags": {"addr:city": "Nagpur", "addr:street": "Ayachit Rd, Lakdapul Mandir, Mahal", "amenity": "police", "name": "Lakdapul Police Station"}}, {"type": "node", "id": 3259514751, "lat": 21.1427057, "lon": 79.1007956, "tags": {"addr:city": "Nagpur", "addr:postcode": "440018", "addr:street": "Ganeshpeth", "amenity": "police", "name": "Ganeshpeth Police Station"}}, {"type": "node", "id": 3259517632, "lat": 21.1373887, "lon": 79.0853548, "tags": {"addr:city": "Nagpur", "addr:street": "Humpyard Rd, Congress Nagar, Dhantoli", "amenity": "police", "name": "Police Station Dhantoli"}}, {"type": "node", "id": 3259519221, "lat": 21.144064, "lon": 79.0835593, "tags": {"addr:street": "Veriety Chowk, Over Bridge, Sitabuldi", "amenity": "police", "name": "Police Station"}}, {"type": "node", "id": 3259520861, "lat": 21.1442992, "lon": 79.0803378, "tags": {"addr:city": "Nagpur", "addr:street": "Wardha Road, Amravati Road, Sitabuldi Variety Squ", "amenity": "police", "name": "Sitabuldi Police Station"}}, {"type": "node", "id": 3259541624, "lat": 21.1632235, "lon": 79.0766871, "tags": {"addr:city": "Nagpur", "addr:postcode": "440001", "addr:street": "Golchha Marg, Sadar", "amenity": "police", "name": "Golchha Marg Police Chowky"}}, {"type": "node", "id": 3259546111, "lat": 21.164244, "lon": 79.1027926, "tags": {"amenity": "police", "name": "Police Station Pachpaoli"}}, {"type": "node", "id": 3259548870, "lat": 21.1886888, "lon": 79.0918769, "tags": {"addr:city": "Nagpur", "addr:street": "hindwara By Pass Road, Jaripatka", "amenity": "police", "name": "Jaripatka Police Station", "phone": "+91-712-2640404"}}, {"type": "node", "id": 3259551325, "lat": 21.1473628, "lon": 78.9914947, "tags": {"addr:city": "Nagpur", "addr:street": "Amravati Road Datta Wadi", "amenity": "police", "name": "Wadi Police Station", "phone": "+91-7104-220928, +91-7104-2566765"}}, {"type": "node", "id": 3261284228, "lat": 21.1155372, "lon": 79.0398337, "tags": {"addr:city": "Nagpur", "addr:street": "Plot no - 61 Bhamti, Trimurti Nagar Road", "amenity": "police", "name": "RanaPratapnagar Police Station", "phone": "91-712-2222688, 2566826"}}, {"type": "node", "id": 3261287758, "lat": 21.1247647, "lon": 79.011034, "tags": {"addr:city": "Nagpur", "addr:street": "Opp. Coca Cola Factory, MIDC", "amenity": "police", "name": "MIDC Police Station", "phone": "+91-7104-237885, +91-7104-237935"}}, {"type": "node", "id": 3261307992, "lat": 21.1813328, "lon": 79.1255862, "tags": {"addr:city": "Nagpur", "addr:street": "Yashodhara Nagar,", "amenity": "police", "name": "Yashodhara Nagar Police Station", "phone": "+91-712-2633575, +91-712-2633574"}}, {"type": "node", "id": 3261311871, "lat": 21.1627994, "lon": 79.1455904, "tags": {"addr:street": "Kalumana Market, Bhandara Road", "amenity": "police", "name": "Kalamana Police Station", "phone": "+91-712-2790021, +91-712-2790022"}}, {"type": "node", "id": 3261314468, "lat": 21.105796, "lon": 79.1171854, "tags": {"addr:street": "Near Dhage Bunglow, Pipla road", "amenity": "police", "name": "Hudkeshwar Police Station", "phone": "+91-712-2702306, +91-712-2702307"}}, {"type": "node", "id": 3906194044, "lat": 21.1285225, "lon": 79.0680242}, {"type": "node", "id": 3906194054, "lat": 21.1284265, "lon": 79.067907}, {"type": "node", "id": 3906194902, "lat": 21.1284539, "lon": 79.0680404}, {"type": "node", "id": 3906194983, "lat": 21.1284952, "lon": 79.0678908}, {"type": "node", "id": 3910209290, "lat": 21.1195055, "lon": 79.1143268}, {"type": "node", "id": 3910209291, "lat": 21.1195936, "lon": 79.1145885}, {"type": "node", "id": 3910209292, "lat": 21.1196311, "lon": 79.1141541}, {"type": "node", "id": 3910209294, "lat": 21.1197835, "lon": 79.1146466}, {"type": "node", "id": 3910209296, "lat": 21.119936, "lon": 79.1141641}, {"type": "node", "id": 3910209297, "lat": 21.1199679, "lon": 79.1146328}, {"type": "node", "id": 3973293444, "lat": 21.1032231, "lon": 79.1038183}, {"type": "node", "id": 3973293445, "lat": 21.1033163, "lon": 79.1038029}, {"type": "node", "id": 3973293446, "lat": 21.1033713, "lon": 79.103703}, {"type": "node", "id": 3973293447, "lat": 21.1034645, "lon": 79.1038208}, {"type": "node", "id": 3973293448, "lat": 21.1035793, "lon": 79.1038952}, {"type": "node", "id": 3973293449, "lat": 21.1036103, "lon": 79.1035646}, {"type": "node", "id": 3973293450, "lat": 21.1037944, "lon": 79.1034775}, {"type": "node", "id": 3973293451, "lat": 21.1038087, "lon": 79.1040463}, {"type": "node", "id": 3973293452, "lat": 21.1039617, "lon": 79.1033417}, {"type": "node", "id": 3973293453, "lat": 21.1041231, "lon": 79.1030976}, {"type": "node", "id": 3973293454, "lat": 21.1041434, "lon": 79.1042231}, {"type": "node", "id": 3973293455, "lat": 21.1041506, "lon": 79.1034775}, {"type": "node", "id": 3973293456, "lat": 21.1042972, "lon": 79.1028131}, {"type": "node", "id": 3973293558, "lat": 21.1043647, "lon": 79.1028617}, {"type": "node", "id": 3973293559, "lat": 21.1044303, "lon": 79.1039515}, {"type": "node", "id": 3973293560, "lat": 21.1044423, "lon": 79.1043795}, {"type": "node", "id": 3973293563, "lat": 21.1044829, "lon": 79.1041565}, {"type": "node", "id": 4435465746, "lat": 21.1230263, "lon": 79.0974758, "tags": {"amenity": "police", "name": "Ajni Police Station"}}, {"type": "node", "id": 4586545499, "lat": 21.0952869, "lon": 79.0478666}, {"type": "node", "id": 4586545500, "lat": 21.095191, "lon": 79.0483212}, {"type": "node", "id": 4586545501, "lat": 21.0953111, "lon": 79.0484912}, {"type": "node", "id": 4586545502, "lat": 21.095829, "lon": 79.0480711}, {"type": "node", "id": 4586545503, "lat": 21.0957089, "lon": 79.0479011}, {"type": "node", "id": 4586545504, "lat": 21.0948915, "lon": 79.0481873}, {"type": "node", "id": 4586545505, "lat": 21.0952743, "lon": 79.0487295}, {"type": "node", "id": 4586545506, "lat": 21.0960747, "lon": 79.0480802}, {"type": "node", "id": 4586545507, "lat": 21.095692, "lon": 79.0475381}, {"type": "node", "id": 4586617576, "lat": 21.0949402, "lon": 79.0482563}, {"type": "node", "id": 4586671141, "lat": 21.0960308, "lon": 79.0480181}, {"type": "node", "id": 4631653839, "lat": 21.1295919, "lon": 79.0492302}, {"type": "node", "id": 4631653840, "lat": 21.1295263, "lon": 79.049241}, {"type": "node", "id": 4631653841, "lat": 21.1294556, "lon": 79.0492302}, {"type": "node", "id": 4631653842, "lat": 21.1294304, "lon": 79.0491869}, {"type": "node", "id": 4631653843, "lat": 21.1293951, "lon": 79.0490571}, {"type": "node", "id": 4631653844, "lat": 21.1293244, "lon": 79.0489705}, {"type": "node", "id": 4631653845, "lat": 21.129274, "lon": 79.0489218}, {"type": "node", "id": 4631653846, "lat": 21.1292033, "lon": 79.0488677}, {"type": "node", "id": 4631653847, "lat": 21.1291175, "lon": 79.0488082}, {"type": "node", "id": 4631653848, "lat": 21.1290519, "lon": 79.0487216}, {"type": "node", "id": 4631653849, "lat": 21.1289005, "lon": 79.0486837}, {"type": "node", "id": 4631653850, "lat": 21.1287945, "lon": 79.0486783}, {"type": "node", "id": 4631653851, "lat": 21.1287844, "lon": 79.0487541}, {"type": "node", "id": 4631653852, "lat": 21.1287491, "lon": 79.0488569}, {"type": "node", "id": 4631653853, "lat": 21.1287188, "lon": 79.0489651}, {"type": "node", "id": 4631653854, "lat": 21.1286784, "lon": 79.0491058}, {"type": "node", "id": 4631653855, "lat": 21.1286683, "lon": 79.0492464}, {"type": "node", "id": 4631653856, "lat": 21.128744, "lon": 79.0492897}, {"type": "node", "id": 4631653857, "lat": 21.1287491, "lon": 79.0493871}, {"type": "node", "id": 4631653858, "lat": 21.1287996, "lon": 79.0494466}, {"type": "node", "id": 4631653859, "lat": 21.1289863, "lon": 79.0495332}, {"type": "node", "id": 4631653860, "lat": 21.1290872, "lon": 79.0495711}, {"type": "node", "id": 4631653861, "lat": 21.1291932, "lon": 79.0496089}, {"type": "node", "id": 4631653862, "lat": 21.129279, "lon": 79.0495765}, {"type": "node", "id": 4631653863, "lat": 21.1293295, "lon": 79.0495115}, {"type": "node", "id": 4631653864, "lat": 21.1293547, "lon": 79.0493979}, {"type": "node", "id": 4631653865, "lat": 21.1294556, "lon": 79.0493925}, {"type": "node", "id": 4631653866, "lat": 21.1295212, "lon": 79.049333}, {"type": "node", "id": 4631653867, "lat": 21.1295868, "lon": 79.0492843}, {"type": "node", "id": 4764638215, "lat": 21.1398412, "lon": 79.0878555}, {"type": "node", "id": 4764638216, "lat": 21.139684, "lon": 79.0891495}, {"type": "node", "id": 4764638217, "lat": 21.1387409, "lon": 79.0890773}, {"type": "node", "id": 4764638218, "lat": 21.1382357, "lon": 79.0890171}, {"type": "node", "id": 4764638219, "lat": 21.1376126, "lon": 79.0887222}, {"type": "node", "id": 4764638220, "lat": 21.1380224, "lon": 79.0875847}, {"type": "node", "id": 4764641121, "lat": 21.139044, "lon": 79.0877231}, {"type": "node", "id": 4984615984, "lat": 21.107275, "lon": 79.0803362, "tags": {"amenity": "fire_station", "name": "Fire station"}}, {"type": "node", "id": 5396699407, "lat": 21.105797, "lon": 79.0802185}, {"type": "node", "id": 5396699408, "lat": 21.105855, "lon": 79.0802316}, {"type": "node", "id": 5396699409, "lat": 21.105836, "lon": 79.0803477}, {"type": "node", "id": 5396699410, "lat": 21.1057724, "lon": 79.0803346}, {"type": "node", "id": 6960441934, "lat": 21.1259921, "lon": 79.0686942}, {"type": "node", "id": 6960441935, "lat": 21.1260071, "lon": 79.0687908}, {"type": "node", "id": 6960441936, "lat": 21.1257494, "lon": 79.0688444}, {"type": "node", "id": 6960441937, "lat": 21.1257294, "lon": 79.0687505}, {"type": "node", "id": 6983064785, "lat": 21.1071167, "lon": 79.0806817, "tags": {"amenity": "fire_station", "name": "Narendra Nagar Fire Station", "survey:date": "2019-11-16"}}, {"type": "node", "id": 7215516315, "lat": 21.1912069, "lon": 79.1414084}, {"type": "node", "id": 7215516316, "lat": 21.1901903, "lon": 79.1415262}, {"type": "node", "id": 7215516317, "lat": 21.1903925, "lon": 79.1408857}, {"type": "node", "id": 7215516318, "lat": 21.1912221, "lon": 79.1420677}, {"type": "node", "id": 7908231910, "lat": 21.136913, "lon": 79.1220575, "tags": {"amenity": "police", "name": "Nandanvan Police Station", "operator": "Maharashtra Police"}}, {"type": "node", "id": 9350882296, "lat": 21.1592242, "lon": 79.0973628}, {"type": "node", "id": 9350882297, "lat": 21.1600485, "lon": 79.0970522}, {"type": "node", "id": 9350882298, "lat": 21.1600962, "lon": 79.0975614}, {"type": "node", "id": 9350882299, "lat": 21.1603142, "lon": 79.0974973}, {"type": "node", "id": 9350882300, "lat": 21.1602485, "lon": 79.0983651}, {"type": "node", "id": 9350882301, "lat": 21.1616043, "lon": 79.0987814}, {"type": "node", "id": 9350882302, "lat": 21.1616043, "lon": 79.0982915}, {"type": "node", "id": 9350882303, "lat": 21.1614132, "lon": 79.0974525}, {"type": "node", "id": 9350882304, "lat": 21.1610309, "lon": 79.0963926}, {"type": "node", "id": 9350882305, "lat": 21.1604785, "lon": 79.0951309}, {"type": "node", "id": 9350882306, "lat": 21.1600365, "lon": 79.095259}, {"type": "node", "id": 9350882307, "lat": 21.1596095, "lon": 79.095512}, {"type": "node", "id": 9350882308, "lat": 21.1594572, "lon": 79.0957233}, {"type": "node", "id": 9350882309, "lat": 21.1592989, "lon": 79.0965335}, {"type": "node", "id": 11019832297, "lat": 21.2495332, "lon": 79.0817629, "tags": {"amenity": "fire_station", "name": "Mahadula Fire Station"}}, {"type": "way", "id": 246666451, "nodes": [2536754099, 2536754100, 2536754102, 2536754103, 2536754105, 2536754106, 2536754107, 2536754108, 2536754109, 2536754111, 2536754099], "tags": {"amenity": "crematorium", "area": "yes", "name": "Gangabai Ghat"}}, {"type": "way", "id": 250080497, "nodes": [2565942701, 2565942702, 2565942703, 2565942704, 1083578788, 2565942705, 2565942706, 2565942707, 2565942701], "tags": {"amenity": "police", "name": "Regional Police Training School"}}, {"type": "way", "id": 262828285, "nodes": [2684840374, 2684840369, 2684840335, 2684840340, 2684840361, 2684840366, 2684840374], "tags": {"amenity": "grave_yard", "name": "Sahakar Nagar Ghat", "religion": "hindu;buddhist"}}, {"type": "way", "id": 387319559, "nodes": [3906194983, 3906194044, 3906194902, 3906194054, 3906194983], "tags": {"amenity": "police"}}, {"type": "way", "id": 387788295, "nodes": [3910209296, 3910209292, 3910209290, 3910209291, 3910209294, 3910209297, 3910209296], "tags": {"amenity": "fire_station", "contact:phone": "0712-2703829 ; 0712-2703852", "name": "Fire Brigade and Emergency Services, Sakkardara"}}, {"type": "way", "id": 394314845, "nodes": [3973293455, 3973293559, 3973293563, 3973293560, 3973293454, 3973293451, 3973293448, 3973293447, 3973293445, 3973293444, 3973293446, 3973293449, 3973293450, 3973293452, 3973293453, 3973293456, 3973293558, 3973293455], "tags": {"amenity": "crematorium", "name": "Manewada Dahan Ghat"}}, {"type": "way", "id": 463386324, "nodes": [4586545503, 4586545502, 4586545501, 4586545500, 4586545503], "tags": {"amenity": "fire_station", "building": "yes"}}, {"type": "way", "id": 463386325, "nodes": [4586545507, 4586671141, 4586545506, 4586545505, 4586617576, 4586545504, 4586545499, 4586545507], "tags": {"aeroway": "apron", "amenity": "fire_station"}}, {"type": "way", "id": 468679979, "nodes": [2122322014, 4631653839, 4631653840, 4631653841, 4631653842, 4631653843, 4631653844, 4631653845, 4631653846, 4631653847, 4631653848, 4631653849, 4631653850, 4631653851, 4631653852, 4631653853, 4631653854, 4631653855, 4631653856, 4631653857, 4631653858, 4631653859, 4631653860, 4631653861, 4631653862, 4631653863, 4631653864, 4631653865, 4631653866, 4631653867, 2122322014], "tags": {"amenity": "crematorium", "name": "Ambazari Crematorium"}}, {"type": "way", "id": 483722891, "nodes": [4764638215, 4764638216, 4764638217, 4764638218, 4764638219, 4764638220, 4764641121, 4764638215], "tags": {"amenity": "crematorium", "name": "Mokshadham"}}, {"type": "way", "id": 559542273, "nodes": [5396699407, 5396699408, 5396699409, 5396699410, 5396699407], "tags": {"addr:city": "Nagpur", "addr:postcode": "440015", "building": "post_office", "name": "Narendranagar Post Office"}}, {"type": "way", "id": 743687195, "nodes": [6960441934, 6960441935, 6960441936, 6960441937, 6960441934], "tags": {"amenity": "police", "building": "yes", "name": "Bajajnagar Police Station"}}, {"type": "way", "id": 772824216, "nodes": [7215516317, 7215516315, 7215516318, 7215516316, 7215516317], "tags": {"amenity": "crematorium", "name": "Bhilgaon Crematorium"}}, {"type": "way", "id": 1013532381, "nodes": [9350882296, 9350882297, 9350882298, 9350882299, 9350882300, 9350882301, 9350882302, 9350882303, 9350882304, 9350882305, 9350882306, 9350882307, 9350882308, 9350882309, 9350882296], "tags": {"amenity": "grave_yard", "name": "Muslim Kabrastan", "religion": "muslim"}}]}