{"version": 0.6, "generator": "Overpass API 0.7.61.5 4133829e", "osm3s": {"timestamp_osm_base": "2024-02-25T09:23:29Z", "copyright": "The data included in this document is from www.openstreetmap.org. The data is made available under ODbL."}, "elements": [{"type": "node", "id": 3259566719, "lat": 20.9336106, "lon": 79.0044599, "tags": {"addr:city": "Nagpur", "addr:street": "P-28, M I D C, Industrial Area, Wardha Road, Butibori", "amenity": "hospital", "name": "Rachana Hospital & Research Centre"}}, {"type": "node", "id": 7628156079, "lat": 20.918144, "lon": 79.008564, "tags": {"addr:district": "Nagpur", "addr:full": "Butibori", "addr:postcode": "441108", "addr:state": "Maharastra", "amenity": "clinic", "name": "Chaitanya Clinic", "source": "Local Knowledge"}}, {"type": "node", "id": 7628156105, "lat": 20.9302153, "lon": 79.002202, "tags": {"addr:district": "Nagpur", "addr:full": "MIDC, Buti Bori, Opp State Bank of India, Nagpur", "addr:postcode": "441108", "addr:state": "Maharastra", "amenity": "hospital", "name": "Maya Hospital", "source": "Local Knowledge"}}, {"type": "node", "id": 7628156126, "lat": 20.9287218, "lon": 79.000016, "tags": {"addr:district": "Nagpur", "addr:full": "Plot No. P26, MIDC Butibori", "addr:postcode": "441122", "addr:state": "Maharastra", "amenity": "hospital", "name": "Rachana Hospital & Research Centre", "source": "Local Knowledge"}}, {"type": "node", "id": 7628156136, "lat": 20.9211647, "lon": 79.0078767, "tags": {"addr:district": "Nagpur", "addr:full": "Railway Station Road, Butibori, Near Krushi Dev Fertilizer, Nagpur", "addr:postcode": "441108", "addr:state": "Maharastra", "amenity": "hospital", "name": "Om Sai Hospital", "source": "Local Knowledge"}}]}