{"version": 0.6, "generator": "Overpass API 0.7.61.5 4133829e", "osm3s": {"timestamp_osm_base": "2024-02-25T09:11:15Z", "copyright": "The data included in this document is from www.openstreetmap.org. The data is made available under ODbL."}, "elements": [{"type": "node", "id": 4292013895, "lat": 23.241203, "lon": 72.4875858, "tags": {"amenity": "fast_food", "name": "MD masala"}}, {"type": "node", "id": 4301914793, "lat": 23.2456191, "lon": 72.4978359, "tags": {"addr:street": "Siddheshwari Society Road", "amenity": "fast_food", "name": "lucky tea center"}}, {"type": "node", "id": 4303548191, "lat": 23.2848545, "lon": 72.4400144, "tags": {"addr:postcode": "382729", "amenity": "fast_food", "name": "Karnavati fastfood"}}, {"type": "node", "id": 4305633595, "lat": 23.2529063, "lon": 72.483675, "tags": {"addr:street": "Ahmedabad -Mehsana highway", "amenity": "fast_food", "name": "Jay bhavani vadapav", "phone": "8000266665"}}, {"type": "node", "id": 4477740673, "lat": 23.2370307, "lon": 72.4938701, "tags": {"amenity": "fast_food", "name": "Shreeeji Milk Palace"}}, {"type": "node", "id": 4483440390, "lat": 23.2820159, "lon": 72.441546, "tags": {"amenity": "fast_food", "name": "Cremos", "name:en": "Cremos"}}]}