{"version": 0.6, "generator": "Overpass API 0.7.61.5 4133829e", "osm3s": {"timestamp_osm_base": "2024-02-25T09:23:29Z", "copyright": "The data included in this document is from www.openstreetmap.org. The data is made available under ODbL."}, "elements": [{"type": "node", "id": 7073438373, "lat": 21.1577511, "lon": 78.6151164, "tags": {"addr:district": "Kondhali", "addr:full": "Nagpur Amravati Highway, Near HP Petrol Pump, Kondhali", "addr:postcode": "441103", "addr:state": "Maharashtra", "amenity": "hospital", "name": "Madhavbaug Ayurvedic Cardiac Rehabilitation Centre", "source": "OpenGovernmentData"}}, {"type": "node", "id": 7226989794, "lat": 21.2614637, "lon": 78.5891157, "tags": {"addr:district": "Nagpur", "addr:full": "Near Market, Katol", "addr:postcode": "441302", "addr:state": "Maharashtra", "addr:subdistrict": "Katol", "amenity": "hospital", "name": "Rural Hospital Katol", "source": "OpenGovernmentData"}}, {"type": "node", "id": 7628156059, "lat": 21.3210095, "lon": 78.5160098, "tags": {"addr:district": "Nagpur", "addr:full": "Beside State Bank Of India, Paradshinga", "addr:postcode": "441305", "addr:state": "Maharastra", "amenity": "hospital", "name": "Niraj Hospital", "source": "Local Knowledge"}}, {"type": "node", "id": 7628156066, "lat": 21.2705462, "lon": 78.5940094, "tags": {"addr:district": "Nagpur", "addr:full": "Katol", "addr:postcode": "441302", "addr:state": "Maharastra", "amenity": "hospital", "name": "Sub District Hospital", "source": "Local Knowledge"}}, {"type": "node", "id": 7628156075, "lat": 21.2672315, "lon": 78.5887533, "tags": {"addr:district": "Nagpur", "addr:full": "Orange Plaza, Nagpur, SH-247, Katol Sawargaon Road, Katol", "addr:postcode": "441302", "addr:state": "Maharastra", "amenity": "hospital", "name": "Ambedkar Hospital", "source": "Local Knowledge"}}, {"type": "node", "id": 7628156082, "lat": 21.2709537, "lon": 78.5858095, "tags": {"addr:district": "Nagpur", "addr:full": "Nagpur, SH-247, Katol Sawargaon Road, Katol", "addr:postcode": "441302", "addr:state": "Maharastra", "amenity": "clinic", "name": "Dr. D V Chandak Clinic", "source": "Local Knowledge"}}, {"type": "node", "id": 7628156099, "lat": 21.2663302, "lon": 78.589622, "tags": {"addr:district": "Nagpur", "addr:full": "Opp Rest House, Saraswati Nagar, Laxmi Nagar, Katol", "addr:postcode": "441302", "addr:state": "Maharastra", "amenity": "hospital", "name": "Kalvit Hospital", "source": "Local Knowledge"}}, {"type": "node", "id": 7628156108, "lat": 21.266131, "lon": 78.5898164, "tags": {"addr:district": "Nagpur", "addr:full": "Saraswati Nagar, Laxmi Nagar, Katol", "addr:postcode": "441302", "addr:state": "Maharastra", "amenity": "hospital", "name": "Panbude Hospital", "source": "Local Knowledge"}}, {"type": "node", "id": 7628156115, "lat": 21.2710565, "lon": 78.58585, "tags": {"addr:district": "Nagpur", "addr:full": "Nagpur, SH-247, Katol Sawargaon Road, Katol", "addr:postcode": "441302", "addr:state": "Maharastra", "amenity": "hospital", "name": "Tavari Hospital", "source": "Local Knowledge"}}, {"type": "node", "id": 7628156135, "lat": 21.2752355, "lon": 78.5852294, "tags": {"addr:district": "Nagpur", "addr:full": "Nagpur, SH-247, Katol Sawargaon Road, Katol", "addr:postcode": "441302", "addr:state": "Maharastra", "amenity": "hospital", "name": "Nakade Hospital", "source": "Local Knowledge"}}, {"type": "node", "id": 7628156147, "lat": 21.2671297, "lon": 78.58972, "tags": {"addr:district": "Nagpur", "addr:full": "Jagdamba Layout, Behind Orange Plaza, Katol", "addr:postcode": "441302", "addr:state": "Maharastra", "amenity": "hospital", "name": "Dhanwantari Hospital", "source": "Local Knowledge"}}]}