{"version": 0.6, "generator": "Overpass API 0.7.61.5 4133829e", "osm3s": {"timestamp_osm_base": "2024-02-25T09:34:44Z", "copyright": "The data included in this document is from www.openstreetmap.org. The data is made available under ODbL."}, "elements": [{"type": "node", "id": 535121349, "lat": 26.8605833, "lon": 81.0029055, "tags": {"name": "Gomati Nagar", "operator": "NER", "railway": "station", "ref": "GTNR", "wikidata": "Q24949486", "wikipedia": "en:Gomti Nagar railway station"}}, {"type": "node", "id": 564716972, "lat": 26.8753418, "lon": 80.9275723, "tags": {"name": "Daliganj", "network": "IR", "operator": "NER", "public_transport": "station", "railway": "station", "ref": "DAL", "wikidata": "Q27962020", "wikipedia": "en:Daliganj Junction railway station"}}, {"type": "node", "id": 564718469, "lat": 26.8593065, "lon": 80.9180893, "tags": {"name": "Lucknow City", "network": "IR", "operator": "NER", "public_transport": "station", "railway": "station", "ref": "LC", "wikidata": "Q12450935"}}, {"type": "node", "id": 1168601675, "lat": 26.8286188, "lon": 80.9109622}, {"type": "node", "id": 1168601772, "lat": 26.8283789, "lon": 80.9185338}, {"type": "node", "id": 1168601802, "lat": 26.8292954, "lon": 80.9104242}, {"type": "node", "id": 1168601812, "lat": 26.8323999, "lon": 80.9272557}, {"type": "node", "id": 1168601967, "lat": 26.8279953, "lon": 80.92306}, {"type": "node", "id": 1168601979, "lat": 26.831121, "lon": 80.9194299}, {"type": "node", "id": 1168602004, "lat": 26.829817, "lon": 80.9322387}, {"type": "node", "id": 1168602009, "lat": 26.8292146, "lon": 80.909949}, {"type": "node", "id": 1168602052, "lat": 26.8280719, "lon": 80.9134382}, {"type": "node", "id": 1168602201, "lat": 26.8282495, "lon": 80.9186477}, {"type": "node", "id": 1168602244, "lat": 26.8302444, "lon": 80.9315848}, {"type": "node", "id": 1168602314, "lat": 26.8322088, "lon": 80.9228196}, {"type": "node", "id": 1168602416, "lat": 26.8285858, "lon": 80.9198457}, {"type": "node", "id": 1168602447, "lat": 26.8302098, "lon": 80.9321933}, {"type": "node", "id": 1168602645, "lat": 26.8284667, "lon": 80.91915}, {"type": "node", "id": 1168602670, "lat": 26.8280692, "lon": 80.9249554}, {"type": "node", "id": 1168602697, "lat": 26.8304004, "lon": 80.9309181}, {"type": "node", "id": 1168602824, "lat": 26.8286426, "lon": 80.9214684}, {"type": "node", "id": 1168602856, "lat": 26.8288918, "lon": 80.9250932}, {"type": "node", "id": 1168603091, "lat": 26.8282258, "lon": 80.925114}, {"type": "node", "id": 1168603099, "lat": 26.8311442, "lon": 80.9179241}, {"type": "node", "id": 1168603116, "lat": 26.8306372, "lon": 80.9303808}, {"type": "node", "id": 1168603217, "lat": 26.8285637, "lon": 80.922045}, {"type": "node", "id": 1168603230, "lat": 26.8291067, "lon": 80.9250731}, {"type": "node", "id": 1168603247, "lat": 26.831113, "lon": 80.9148139}, {"type": "node", "id": 1168603252, "lat": 26.8312488, "lon": 80.928921}, {"type": "node", "id": 1168603368, "lat": 26.8281801, "lon": 80.9229927}, {"type": "node", "id": 1168603373, "lat": 26.8310864, "lon": 80.9165087}, {"type": "node", "id": 1168603376, "lat": 26.831134, "lon": 80.9294551}, {"type": "node", "id": 1168603416, "lat": 26.8286372, "lon": 80.9099754}, {"type": "node", "id": 1168603484, "lat": 26.8284112, "lon": 80.922972}, {"type": "node", "id": 1168603491, "lat": 26.8292508, "lon": 80.9261212}, {"type": "node", "id": 1168603497, "lat": 26.8309826, "lon": 80.913961}, {"type": "node", "id": 1168603504, "lat": 26.8314626, "lon": 80.9280459}, {"type": "node", "id": 1168603693, "lat": 26.8281663, "lon": 80.9228321}, {"type": "node", "id": 1168603701, "lat": 26.8312567, "lon": 80.9228781}, {"type": "node", "id": 1168603739, "lat": 26.8295917, "lon": 80.9308533}, {"type": "node", "id": 1168603803, "lat": 26.8286712, "lon": 80.9104577}, {"type": "node", "id": 1168603871, "lat": 26.8282679, "lon": 80.9173842}, {"type": "node", "id": 1168603881, "lat": 26.8294819, "lon": 80.9305685}, {"type": "node", "id": 1168603886, "lat": 26.8305984, "lon": 80.9130633}, {"type": "node", "id": 1168603906, "lat": 26.8314431, "lon": 80.9272892}, {"type": "node", "id": 1168604075, "lat": 26.8279953, "lon": 80.9228373}, {"type": "node", "id": 1168604089, "lat": 26.8298054, "lon": 80.9318632}, {"type": "node", "id": 1168604092, "lat": 26.8292533, "lon": 80.9102885}, {"type": "node", "id": 2196307328, "lat": 26.8297743, "lon": 80.9115321}, {"type": "node", "id": 2196408596, "lat": 26.8281226, "lon": 80.9130754}, {"type": "node", "id": 2196516755, "lat": 26.8323006, "lon": 80.9249005}, {"type": "node", "id": 2196598017, "lat": 26.8536826, "lon": 81.040798, "tags": {"name": "Malhaur", "network": "IR", "operator": "NR", "public_transport": "station", "railway": "station", "ref": "ML", "wikidata": "Q63370017"}}, {"type": "node", "id": 2207519327, "lat": 26.8526458, "lon": 80.9280272}, {"type": "node", "id": 2207519328, "lat": 26.8526492, "lon": 80.9281967}, {"type": "node", "id": 2207519330, "lat": 26.8527064, "lon": 80.9283569}, {"type": "node", "id": 2207519356, "lat": 26.8532796, "lon": 80.9290164}, {"type": "node", "id": 2207519379, "lat": 26.8535116, "lon": 80.9278764}, {"type": "node", "id": 2207519394, "lat": 26.8538596, "lon": 80.9281232}, {"type": "node", "id": 2213443829, "lat": 26.8689884, "lon": 80.9614569, "tags": {"name": "Badshahnagar", "network": "IR", "operator": "NER", "public_transport": "station", "railway": "station", "ref": "BNZ", "wikidata": "Q12441382", "wikipedia": "en:Badshahnagar railway station"}}, {"type": "node", "id": 2213444018, "lat": 26.8532581, "lon": 80.9164529, "tags": {"operator": "NER", "railway": "station"}}, {"type": "node", "id": 2214987295, "lat": 26.8516041, "lon": 81.0253398}, {"type": "node", "id": 2214987297, "lat": 26.8516128, "lon": 81.025939}, {"type": "node", "id": 2214987341, "lat": 26.8520797, "lon": 81.0261043}, {"type": "node", "id": 2214987407, "lat": 26.8523487, "lon": 81.0253262}, {"type": "node", "id": 2219662699, "lat": 26.9096328, "lon": 80.9395109, "tags": {"name": "Mohibullapur", "network": "IR", "operator": "NER", "public_transport": "station", "railway": "station", "ref": "MBP", "wikidata": "Q63357514"}}, {"type": "node", "id": 2229833692, "lat": 26.8315969, "lon": 80.9273153}, {"type": "node", "id": 2229833765, "lat": 26.8322853, "lon": 80.9193063}, {"type": "node", "id": 2229833771, "lat": 26.8322724, "lon": 80.919103}, {"type": "node", "id": 2229833781, "lat": 26.8323543, "lon": 80.9261731}, {"type": "node", "id": 2229833785, "lat": 26.8323645, "lon": 80.92135}, {"type": "node", "id": 2229833837, "lat": 26.8327387, "lon": 80.9203241}, {"type": "node", "id": 2229833863, "lat": 26.8331081, "lon": 80.9212923}, {"type": "node", "id": 2240232329, "lat": 26.986801, "lon": 80.9216781, "tags": {"name": "Bakshi Ka Talab", "network": "IR", "operator": "NER", "public_transport": "station", "railway": "station", "ref": "BKT", "wikidata": "Q63355850"}}, {"type": "node", "id": 2240232330, "lat": 27.0777934, "lon": 80.8929942, "tags": {"name": "Itaunja", "operator": "NER", "railway": "station", "ref": "IJ", "wikidata": "Q63354659"}}, {"type": "node", "id": 2242712145, "lat": 26.8815593, "lon": 81.0888944, "tags": {"name": "Jugaur", "network": "IR", "operator": "NR", "public_transport": "station", "railway": "station", "ref": "JRR", "wikidata": "Q63370018"}}, {"type": "node", "id": 2242713833, "lat": 26.8980333, "lon": 81.1167756, "tags": {"name": "Safedabad", "network": "IR", "operator": "NR", "public_transport": "station", "railway": "station", "ref": "SFH", "wikidata": "Q63370019"}}, {"type": "node", "id": 3283339862, "lat": 26.8323167, "lon": 80.9205083}, {"type": "node", "id": 4170031601, "lat": 26.8315101, "lon": 80.9222977, "tags": {"addr:city": "Lucknow", "ele": "126", "name": "Lucknow Junction", "name:de": "Lakhnau Junction", "name:hi": "\u0932\u0916\u0928\u090a \u091c\u0902\u0915\u094d\u0936\u0928", "name:ur": "\u0644\u06a9\u06be\u0646\u0624 \u062c\u0646\u06a9\u0634\u0646", "operator": "NR", "public_transport": "station", "railway": "station", "ref": "LJN", "train": "yes", "wikidata": "Q17151999", "wikipedia": "en:Lucknow Junction railway station"}}, {"type": "node", "id": 4244207702, "lat": 26.8324023, "lon": 80.9231133, "tags": {"name": "Charbagh Railway Station", "name:hi": "\u091a\u093e\u0930\u092c\u093e\u0917\u093c \u0930\u0947\u0932\u0935\u0947 \u0938\u094d\u091f\u0947\u0936\u0928", "name:ur": "\u0644\u06a9\u06be\u0646\u0624 \u0686\u0627\u0631\u0628\u0627\u063a \u0627\u0633\u0679\u06cc\u0634\u0646", "network": "Lucknow Metro", "note": "Contributors are requested to not edit the \"network\" and the \"operator\" tags. (2023/11/08)", "operator": "Lucknow Metro Rail Corporation Limited", "public_transport": "station", "railway": "station", "station": "subway", "subway": "yes"}}, {"type": "node", "id": 4244207703, "lat": 26.8320029, "lon": 80.9154077, "tags": {"name": "Durgapuri", "name:hi": "\u0926\u0941\u0930\u094d\u0917\u093e\u092a\u0941\u0930\u0940", "network": "Lucknow Metro", "note": "Contributors are requested to not edit the \"network\" and the \"operator\" tags. (2023/11/08)", "operator": "Lucknow Metro Rail Corporation Limited", "public_transport": "station", "railway": "station", "ref": "DGPI", "station": "subway", "subway": "yes"}}, {"type": "node", "id": 4244207745, "lat": 26.8415965, "lon": 80.9399056, "tags": {"name": "Sachivalaya", "name:hi": "\u0938\u091a\u093f\u0935\u093e\u0932\u092f", "network": "Lucknow Metro", "note": "Contributors are requested to not edit the \"network\" and the \"operator\" tags. (2023/11/08)", "operator": "Lucknow Metro Rail Corporation Limited", "public_transport": "station", "railway": "station", "station": "subway", "subway": "yes"}}, {"type": "node", "id": 6445132137, "lat": 26.8384284, "lon": 80.93433, "tags": {"name": "Hussainganj", "name:hi": "\u0939\u0941\u0938\u0948\u0928\u0917\u0902\u091c", "network": "Lucknow Metro", "note": "Contributors are requested to not edit the \"network\" and the \"operator\" tags. (2023/11/08)", "operator": "Lucknow Metro Rail Corporation Limited", "public_transport": "station", "railway": "station", "station": "subway", "subway": "yes"}}, {"type": "node", "id": 7605969608, "lat": 26.837359, "lon": 80.9097954, "tags": {"name": "Aishbagh", "name:hi": "\u0910\u0936\u092c\u093e\u0917", "network": "IR", "operator": "NER", "public_transport": "station", "railway": "station", "ref": "ASH", "train": "yes", "wikidata": "Q15645574", "wikipedia": "en:Aishbagh railway station"}}, {"type": "node", "id": 8386242217, "lat": 26.849451, "lon": 80.9426039, "tags": {"addr:street": "Shahnajaf Road", "amenity": "bus_station", "name:en": "Hazratganj Metro Station"}}, {"type": "node", "id": 9655708793, "lat": 26.8709686, "lon": 80.9738961, "tags": {"name": "Lekhraj Market", "name:hi": "\u0932\u0947\u0916\u0930\u093e\u091c \u092e\u093e\u0930\u094d\u0915\u0947\u091f", "network": "Lucknow Metro", "note": "Contributors are requested to not edit the \"network\" and the \"operator\" tags. (2023/11/08)", "operator": "Lucknow Metro Rail Corporation Limited", "public_transport": "station", "railway": "station", "station": "subway", "subway": "yes"}}, {"type": "node", "id": 9655708794, "lat": 26.8879654, "lon": 80.9959863, "tags": {"name": "Munshipulia", "name:hi": "\u092e\u0941\u0902\u0936\u0940 \u092a\u0941\u0932\u093f\u092f\u093e", "network": "Lucknow Metro", "note": "Contributors are requested to not edit the \"network\" and the \"operator\" tags. (2023/11/08)", "operator": "Lucknow Metro Rail Corporation Limited", "public_transport": "station", "railway": "station", "station": "subway", "subway": "yes"}}, {"type": "node", "id": 9655708795, "lat": 26.8727659, "lon": 80.9909732, "tags": {"name": "Indira Nagar", "name:hi": "\u0907\u0902\u0926\u093f\u0930\u093e \u0928\u0917\u0930", "network": "Lucknow Metro", "note": "Contributors are requested to not edit the \"network\" and the \"operator\" tags. (2023/11/08)", "operator": "Lucknow Metro Rail Corporation Limited", "public_transport": "station", "railway": "station", "station": "subway", "subway": "yes"}}, {"type": "node", "id": 9655708796, "lat": 26.8722368, "lon": 80.9823474, "tags": {"name": "Bhootnath Market", "name:hi": "\u092d\u0942\u0924\u0928\u093e\u0925 \u092e\u093e\u0930\u094d\u0915\u0947\u091f", "network": "Lucknow Metro", "note": "Contributors are requested to not edit the \"network\" and the \"operator\" tags. (2023/11/08)", "operator": "Lucknow Metro Rail Corporation Limited", "public_transport": "station", "railway": "station", "station": "subway", "subway": "yes"}}, {"type": "node", "id": 9655708797, "lat": 26.8706977, "lon": 80.9610133, "tags": {"name": "Badshah Nagar", "name:hi": "\u092c\u093e\u0926\u0936\u093e\u0939 \u0928\u0917\u0930", "network": "Lucknow Metro", "note": "Contributors are requested to not edit the \"network\" and the \"operator\" tags. (2023/11/08)", "operator": "Lucknow Metro Rail Corporation Limited", "public_transport": "station", "railway": "station", "station": "subway", "subway": "yes"}}, {"type": "node", "id": 9655708798, "lat": 26.8710268, "lon": 80.9456475, "tags": {"name": "IT College", "name:hi": "\u0906\u0908\u091f\u0940 \u0915\u0949\u0932\u0947\u091c", "network": "Lucknow Metro", "note": "Contributors are requested to not edit the \"network\" and the \"operator\" tags. (2023/11/08)", "operator": "Lucknow Metro Rail Corporation Limited", "public_transport": "station", "railway": "station", "station": "subway", "subway": "yes"}}, {"type": "node", "id": 9655708799, "lat": 26.865529, "lon": 80.9395458, "tags": {"name": "Lucknow University", "name:hi": "\u0932\u0916\u0928\u090a \u0935\u093f\u0936\u094d\u0935\u0935\u093f\u0926\u094d\u092f\u093e\u0932\u092f", "network": "Lucknow Metro", "note": "Contributors are requested to not edit the \"network\" and the \"operator\" tags. (2023/11/08)", "operator": "Lucknow Metro Rail Corporation Limited", "public_transport": "station", "railway": "station", "station": "subway", "subway": "yes"}}, {"type": "node", "id": 9655708800, "lat": 26.8539449, "lon": 80.9368084, "tags": {"name": "KD Singh Babu Stadium", "name:hi": "\u0915\u0947\u0921\u0940 \u0938\u093f\u0902\u0939 \u092c\u093e\u092c\u0942 \u0938\u094d\u091f\u0947\u0921\u093f\u092f\u092e", "network": "Lucknow Metro", "note": "Contributors are requested to not edit the \"network\" and the \"operator\" tags. (2023/11/08)", "operator": "Lucknow Metro Rail Corporation Limited", "public_transport": "station", "railway": "station", "station": "subway", "subway": "yes"}}, {"type": "node", "id": 9655708801, "lat": 26.8500335, "lon": 80.9415944, "tags": {"name": "Hazratganj", "name:hi": "\u0939\u091c\u093c\u0930\u0924\u0917\u0902\u091c", "network": "Lucknow Metro", "note": "Contributors are requested to not edit the \"network\" and the \"operator\" tags. (2023/11/08)", "operator": "Lucknow Metro Rail Corporation Limited", "public_transport": "station", "railway": "station", "station": "subway", "subway": "yes"}}, {"type": "node", "id": 9776724720, "lat": 26.8478639, "lon": 80.9353989, "tags": {"amenity": "bus_station", "name:en": "Lalbagh Chowk"}}, {"type": "way", "id": 101225513, "nodes": [1168602009, 1168603416, 1168603803, 1168601675, 2196408596, 1168602052, 1168603871, 1168601772, 1168602201, 1168602645, 1168602416, 1168602824, 1168603217, 1168603484, 1168603368, 1168603693, 1168604075, 1168601967, 1168602670, 1168603091, 1168602856, 1168603230, 1168603491, 1168603881, 1168603739, 1168604089, 1168602004, 1168602447, 1168602244, 1168602697, 1168603116, 1168603376, 1168603252, 1168603504, 1168603906, 2229833692, 1168601812, 2229833781, 2196516755, 1168602314, 1168603701, 1168601979, 1168603099, 1168603373, 1168603247, 1168603497, 1168603886, 2196307328, 1168601802, 1168604092, 1168602009], "tags": {"name": "Lucknow Charbagh Railway station", "name:en": "Lucknow Charbagh", "public_transport": "station", "railway": "station", "ref": "LKO", "train": "yes", "wikimedia_commons": "File:Lucknow Charbagh Railway Station 3.jpg"}}, {"type": "way", "id": 210669885, "nodes": [2207519327, 2207519379, 2207519394, 2207519356, 2207519330, 2207519328, 2207519327], "tags": {"amenity": "bus_station", "name": "Kaiserbagh Bus Station"}}, {"type": "way", "id": 211490206, "nodes": [2214987295, 2214987407, 2214987341, 2214987297, 2214987295], "tags": {"area": "yes", "public_transport": "station"}}, {"type": "way", "id": 213249437, "nodes": [2229833771, 2229833837, 2229833863, 2229833785, 3283339862, 2229833765, 2229833771], "tags": {"amenity": "bus_station", "name": "Charbagh Bus Station", "name:ur": "\u0644\u06a9\u06be\u0646\u0624 \u0686\u0627\u0631\u0628\u0627\u063a \u0628\u0633 \u0627\u0633\u0679\u06cc\u0634\u0646"}}]}