{"version": 0.6, "generator": "Overpass API 0.7.61.5 4133829e", "osm3s": {"timestamp_osm_base": "2024-02-25T09:38:46Z", "copyright": "The data included in this document is from www.openstreetmap.org. The data is made available under ODbL."}, "elements": [{"type": "node", "id": 266599712, "lat": 28.4652878, "lon": 77.0310883}, {"type": "node", "id": 266599713, "lat": 28.4659593, "lon": 77.0324272}, {"type": "node", "id": 266599714, "lat": 28.4653029, "lon": 77.0333456}, {"type": "node", "id": 266599716, "lat": 28.464986, "lon": 77.0327448}, {"type": "node", "id": 266599717, "lat": 28.4644804, "lon": 77.0317406}, {"type": "node", "id": 535297593, "lat": 28.4812716, "lon": 77.0930017, "tags": {"name": "Sikanderpur", "name:hi": "\u0938\u093f\u0915\u0902\u0926\u0930\u092a\u0941\u0930", "network": "Delhi Metro", "note": "Contributors are requested to not edit the \"network\" and the \"operator\" tags. (2023/06/23)", "operator": "Delhi Metro Rail Corporation Limited", "public_transport": "station", "railway": "station", "ref": "SKRP", "station": "subway", "subway": "yes", "wheelchair": "yes", "wikidata": "Q11307061", "wikipedia": "en:Sikanderpur metro station"}}, {"type": "node", "id": 1774430929, "lat": 28.4891009, "lon": 77.0111934, "tags": {"internet_access": "yes", "name": "Gurgaon", "name:ja": "\u30b0\u30eb\u30ac\u30fc\u30aa\u30f3", "network": "IR", "operator": "NR", "public_transport": "station", "railway": "station", "ref": "GGN", "train": "yes", "wikidata": "Q24949160", "wikipedia": "en:Gurgaon railway station"}}, {"type": "node", "id": 1811444172, "lat": 28.3200927, "lon": 76.7188545, "tags": {"internet_access": "no", "name": "Inchhapuri", "network": "IR", "operator": "NR", "public_transport": "station", "railway": "station", "ref": "IHP", "train": "yes", "wikidata": "Q31296810"}}, {"type": "node", "id": 1988848864, "lat": 28.4917023, "lon": 77.0881318, "tags": {"legal_entity": "Rapid Metrorail Gurgaon Limited", "name": "Belvedere Towers Station", "network": "Rapid Metro Gurgaon", "note": "Contributors are requested to not edit the \"network\" and the \"operator\" tags. (2023/06/23)", "operator": "Haryana Mass Rapid Transport Corporation Limited", "public_transport": "stop_position", "railway": "station", "start_date": "2013-11-14", "station": "subway", "subway": "yes", "wikidata": "Q16999809", "wikipedia": "en:Belvedere Towers metro station"}}, {"type": "node", "id": 1988848882, "lat": 28.4875596, "lon": 77.0929909, "tags": {"legal_entity": "Rapid Metrorail Gurgaon Limited", "name": "DLF Phase 2", "network": "Rapid Metro Gurgaon", "note": "Contributors are requested to not edit the \"network\" and the \"operator\" tags. (2023/06/23)", "operator": "Haryana Mass Rapid Transport Corporation Limited", "public_transport": "station", "railway": "station", "station": "subway", "subway": "yes", "wheelchair": "yes"}}, {"type": "node", "id": 1988848900, "lat": 28.4809969, "lon": 77.0944367, "tags": {"legal_entity": "Rapid Metrorail Gurgaon Limited", "name": "Sikanderpur RMRG Station", "name:hi": "\u0938\u093f\u0915\u0902\u0926\u0930\u092a\u0941\u0930 \u0906\u0930.\u090f\u092e.\u0906\u0930.\u091c\u0940. \u0938\u094d\u091f\u0947\u0936\u0928", "network": "Rapid Metro Gurgaon", "note": "Contributors are requested to not edit the \"network\" and the \"operator\" tags. (2023/06/23)", "operator": "Haryana Mass Rapid Transport Corporation Limited", "public_transport": "station", "railway": "station", "ref": "SKRP", "station": "subway", "subway": "yes", "wheelchair": "yes"}}, {"type": "node", "id": 2410174120, "lat": 28.4382985, "lon": 76.9307249, "tags": {"internet_access": "no", "name": "Garhi Harsaru Junction", "name:ur": "\u06af\u0691\u06be\u06cc \u06c1\u0631\u0633\u0631\u0648 \u062c\u0646\u06a9\u0634\u0646", "network": "IR", "operator": "NR", "public_transport": "station", "railway": "station", "ref": "GHH", "train": "yes", "wikidata": "Q24949403", "wikipedia": "en:Garhi Harsaru Junction railway station"}}, {"type": "node", "id": 2511127144, "lat": 28.4980613, "lon": 77.0891604, "tags": {"alt_name": "Gateway Towers station", "legal_entity": "Rapid Metrorail Gurgaon Limited", "level": "2", "name": "Cyber City Station", "network": "Rapid Metro Gurgaon", "note": "Contributors are requested to not edit the \"network\" and the \"operator\" tags. (2023/06/23)", "operator": "Haryana Mass Rapid Transport Corporation Limited", "public_transport": "stop_position", "railway": "station", "start_date": "2014-05-07", "station": "subway", "subway": "yes", "wheelchair": "yes", "wikidata": "Q17026075", "wikipedia": "en:Cyber City metro station"}}, {"type": "node", "id": 2533456421, "lat": 28.5007775, "lon": 77.0946306, "tags": {"legal_entity": "Rapid Metrorail Gurgaon Limited", "level": "2", "name": "Moulsari Avenue Station", "network": "Rapid Metro Gurgaon", "note": "Contributors are requested to not edit the \"network\" and the \"operator\" tags. (2023/06/23)", "operator": "Haryana Mass Rapid Transport Corporation Limited", "public_transport": "stop_position", "railway": "station", "station": "subway", "subway": "yes", "wheelchair": "yes"}}, {"type": "node", "id": 2533456422, "lat": 28.4935677, "lon": 77.093661, "tags": {"legal_entity": "Rapid Metrorail Gurgaon Limited", "name": "Phase 3 Station", "network": "Rapid Metro Gurgaon", "note": "Contributors are requested to not edit the \"network\" and the \"operator\" tags. (2023/06/23)", "operator": "Haryana Mass Rapid Transport Corporation Limited", "public_transport": "stop_position", "railway": "station", "start_date": "2013-11-14", "station": "subway", "subway": "yes", "wheelchair": "yes", "wikidata": "Q16999711", "wikipedia": "en:Phase 3 metro station"}}, {"type": "node", "id": 3181132316, "lat": 28.4329768, "lon": 77.1048971, "tags": {"internet_access": "no", "legal_entity": "Rapid Metrorail Gurgaon South Limited", "name": "Sector 54 Chowk", "network": "Rapid Metro Gurgaon", "note": "Contributors are requested to not edit the \"network\" and the \"operator\" tags. (2023/06/23)", "operator": "Haryana Mass Rapid Transport Corporation Limited", "public_transport": "station", "railway": "station", "station": "subway", "subway": "yes", "wheelchair": "yes"}}, {"type": "node", "id": 3181132336, "lat": 28.4463829, "lon": 77.1004632, "tags": {"internet_access": "no", "legal_entity": "Rapid Metrorail Gurgaon South Limited", "name": "Sector 53-54", "network": "Rapid Metro Gurgaon", "note": "Contributors are requested to not edit the \"network\" and the \"operator\" tags. (2023/06/23)", "operator": "Haryana Mass Rapid Transport Corporation Limited", "public_transport": "station", "railway": "station", "station": "subway", "subway": "yes", "wheelchair": "yes"}}, {"type": "node", "id": 3181132346, "lat": 28.4574254, "lon": 77.0969529, "tags": {"alt_name": "Sushant Lok", "legal_entity": "Rapid Metrorail Gurgaon South Limited", "name": "Sector 42-43", "network": "Rapid Metro Gurgaon", "note": "Contributors are requested to not edit the \"network\" and the \"operator\" tags. (2023/06/23)", "operator": "Haryana Mass Rapid Transport Corporation Limited", "public_transport": "station", "railway": "station", "station": "subway", "subway": "yes"}}, {"type": "node", "id": 3735985541, "lat": 28.467225, "lon": 76.8253658, "tags": {"internet_access": "no", "name": "Farrukhnagar", "network": "IR", "operator": "NR", "public_transport": "station", "railway": "station", "ref": "FN", "train": "yes", "wikidata": "Q24949356"}}, {"type": "node", "id": 3953773571, "lat": 28.4714258, "lon": 77.0939606, "tags": {"legal_entity": "Rapid Metrorail Gurgaon South Limited", "name": "DLF Phase 1", "network": "Rapid Metro Gurgaon", "note": "Contributors are requested to not edit the \"network\" and the \"operator\" tags. (2023/06/23)", "operator": "Haryana Mass Rapid Transport Corporation Limited", "public_transport": "station", "railway": "station", "station": "subway", "subway": "yes", "wheelchair": "yes"}}, {"type": "node", "id": 3953773598, "lat": 28.4233556, "lon": 77.1051327, "tags": {"legal_entity": "Rapid Metrorail Gurgaon South Limited", "name": "Sector 55\u201356", "network": "Rapid Metro Gurgaon", "note": "Contributors are requested to not edit the \"network\" and the \"operator\" tags. (2023/06/23)", "operator": "Haryana Mass Rapid Transport Corporation Limited", "public_transport": "station", "railway": "station", "station": "subway", "subway": "yes"}}, {"type": "node", "id": 4208839695, "lat": 28.4648524, "lon": 77.0332467}, {"type": "node", "id": 4252843394, "lat": 28.4972412, "lon": 77.0959238}, {"type": "node", "id": 4252843395, "lat": 28.497187, "lon": 77.0960472}, {"type": "node", "id": 4252843396, "lat": 28.4979602, "lon": 77.0965434}, {"type": "node", "id": 4252843397, "lat": 28.4983161, "lon": 77.0967687}, {"type": "node", "id": 4252843398, "lat": 28.4984363, "lon": 77.0965568}, {"type": "node", "id": 4252843399, "lat": 28.4981959, "lon": 77.0964469}, {"type": "node", "id": 4252843400, "lat": 28.4978093, "lon": 77.0962377}, {"type": "node", "id": 4252843401, "lat": 28.4974911, "lon": 77.0960526}, {"type": "node", "id": 5698863055, "lat": 28.4645841, "lon": 76.9828171, "tags": {"internet_access": "no", "name": "Basai Dhankot", "network": "IR", "operator": "NR", "public_transport": "station", "railway": "station", "ref": "BDXT", "train": "yes", "wikidata": "Q63355795"}}, {"type": "node", "id": 5698863060, "lat": 28.347879, "lon": 76.7522376, "tags": {"internet_access": "no", "name": "Pataudi Road", "network": "IR", "operator": "NR", "public_transport": "station", "railway": "station", "ref": "PTRD", "train": "yes", "wikidata": "Q24949161", "wikipedia": "en:Pataudi Road railway station"}}, {"type": "node", "id": 6263258205, "lat": 28.2753229, "lon": 76.6783583, "tags": {"internet_access": "no", "name": "Khalilpur", "network": "IR", "operator": "NR", "public_transport": "station", "railway": "station", "ref": "KIP", "train": "yes", "wikidata": "Q63357455"}}, {"type": "node", "id": 6388592702, "lat": 28.4010774, "lon": 76.857079, "tags": {"internet_access": "no", "name": "Patli", "network": "IR", "operator": "NR", "public_transport": "station", "railway": "station", "ref": "PT", "train": "yes", "wikidata": "Q63356927"}}, {"type": "node", "id": 6388606320, "lat": 28.3728138, "lon": 76.7994236, "tags": {"internet_access": "no", "name": "Jataula Jauri Sampka", "network": "IR", "operator": "NR", "public_transport": "station", "railway": "station", "ref": "JSKA", "train": "yes", "wikidata": "Q31297545"}}, {"type": "node", "id": 7018301879, "lat": 28.4820212, "lon": 77.1022685, "tags": {"name": "Guru Dronacharya", "name:hi": "\u0917\u0941\u0930\u0941 \u0926\u094d\u0930\u094b\u0923\u093e\u091a\u093e\u0930\u094d\u092f", "network": "Delhi Metro", "note": "Contributors are requested to not edit the \"network\" and the \"operator\" tags. (2023/06/23)", "operator": "Delhi Metro Rail Corporation Limited", "payment:cards": "yes", "payment:cash": "yes", "payment:coins": "yes", "payment:contactless": "yes", "payment:electronic_purses": "yes", "public_transport": "station", "railway": "station", "station": "subway", "subway": "yes"}}, {"type": "node", "id": 7018301881, "lat": 28.4795543, "lon": 77.0798926, "tags": {"name": "MG Road", "name:hi": "\u090f\u092e \u091c\u0940 \u0930\u094b\u0921", "network": "Delhi Metro", "note": "Contributors are requested to not edit the \"network\" and the \"operator\" tags. (2023/06/23)", "operator": "Delhi Metro Rail Corporation Limited", "payment:cards": "yes", "payment:cash": "yes", "payment:coins": "yes", "payment:contactless": "yes", "payment:electronic_purses": "yes", "public_transport": "station", "railway": "station", "station": "subway", "subway": "yes", "wheelchair": "yes"}}, {"type": "node", "id": 7018301882, "lat": 28.4723277, "lon": 77.0724222, "tags": {"name": "IFFCO Chowk", "name:hi": "\u0907\u092b\u0915\u094b \u091a\u094c\u0915", "network": "Delhi Metro", "note": "Contributors are requested to not edit the \"network\" and the \"operator\" tags. (2023/06/23)", "operator": "Delhi Metro Rail Corporation Limited", "payment:cards": "yes", "payment:cash": "yes", "payment:coins": "yes", "payment:contactless": "yes", "payment:electronic_purses": "yes", "public_transport": "station", "railway": "station", "ref": "IFOC", "station": "subway", "subway": "yes", "wheelchair": "limited", "wikidata": "Q5970668", "wikipedia": "en:IFFCO Chowk metro station"}}, {"type": "node", "id": 7018316590, "lat": 28.4593429, "lon": 77.0726571, "tags": {"name": "Millennium City Centre Gurugram", "name:hi": "\u092e\u093f\u0932\u0947\u0928\u093f\u092f\u092e \u0938\u093f\u091f\u0940 \u0938\u0947\u0902\u091f\u0930 \u0917\u0941\u0930\u0942\u0917\u094d\u0930\u093e\u092e", "network": "Delhi Metro", "note": "Contributors are requested to not edit the \"network\" and the \"operator\" tags. (2023/06/23)", "old_name": "HUDA City Centre", "operator": "Delhi Metro Rail Corporation Limited", "payment:cards": "yes", "payment:cash": "yes", "payment:coins": "yes", "payment:contactless": "yes", "payment:electronic_purses": "yes", "public_transport": "station", "railway": "station", "station": "subway", "subway": "yes", "wheelchair": "yes", "wikidata": "Q888667", "wikipedia": "en:Millennium City Centre metro station"}}, {"type": "node", "id": 7702755660, "lat": 28.3327247, "lon": 76.7735848}, {"type": "node", "id": 7702755662, "lat": 28.3335179, "lon": 76.7744136}, {"type": "node", "id": 7702755663, "lat": 28.3329899, "lon": 76.7749277}, {"type": "node", "id": 7702755670, "lat": 28.3322076, "lon": 76.7740703}, {"type": "node", "id": 9383352988, "lat": 28.4514357, "lon": 76.995673}, {"type": "node", "id": 9383352989, "lat": 28.4493855, "lon": 76.9968063}, {"type": "node", "id": 9383352990, "lat": 28.4494714, "lon": 76.9981872}, {"type": "node", "id": 9383352991, "lat": 28.4510291, "lon": 76.9981741}, {"type": "node", "id": 9383352992, "lat": 28.4510462, "lon": 76.998617}, {"type": "node", "id": 9383352993, "lat": 28.4513498, "lon": 76.9981285}, {"type": "node", "id": 9383352994, "lat": 28.4516304, "lon": 76.9979722}, {"type": "node", "id": 9383352995, "lat": 28.4516647, "lon": 76.9962136}, {"type": "node", "id": 9545722576, "lat": 28.246764, "lon": 77.0707426}, {"type": "node", "id": 9545722577, "lat": 28.245879, "lon": 77.0706743}, {"type": "node", "id": 9545722578, "lat": 28.2456522, "lon": 77.0720476}, {"type": "node", "id": 9545722579, "lat": 28.2462618, "lon": 77.0720637}, {"type": "node", "id": 9545722584, "lat": 28.246706, "lon": 77.07201}, {"type": "node", "id": 9545722585, "lat": 28.2466966, "lon": 77.0712966}, {"type": "way", "id": 24515754, "nodes": [266599712, 266599713, 266599714, 4208839695, 266599716, 266599717, 266599712], "tags": {"amenity": "bus_station", "bus": "yes", "name": "Gurugram", "old_name": "Gurgaon", "public_transport": "station"}}, {"type": "way", "id": 425953618, "nodes": [4252843394, 4252843395, 4252843396, 4252843397, 4252843398, 4252843399, 4252843400, 4252843401, 4252843394], "tags": {"area": "yes", "landuse": "depot", "name": "DLF Cyber City Metro Rail Depot", "operator": "Rapid Metro Gurgaon Limited"}}, {"type": "way", "id": 824913104, "nodes": [7702755662, 7702755660, 7702755670, 7702755663, 7702755662], "tags": {"amenity": "bus_station"}}, {"type": "way", "id": 1017312890, "nodes": [9383352988, 9383352989, 9383352990, 9383352991, 9383352992, 9383352993, 9383352994, 9383352995, 9383352988], "tags": {"area": "yes", "landuse": "depot", "name": "Bus Depot \u2014 Sector 10 Gurgaon"}}, {"type": "way", "id": 1036072595, "nodes": [9545722584, 9545722579, 9545722578, 9545722577, 9545722576, 9545722585, 9545722584], "tags": {"amenity": "bus_station"}}]}