{"version": 0.6, "generator": "Overpass API 0.7.61.5 4133829e", "osm3s": {"timestamp_osm_base": "2024-02-25T09:11:15Z", "copyright": "The data included in this document is from www.openstreetmap.org. The data is made available under ODbL."}, "elements": [{"type": "node", "id": 2501401229, "lat": 23.4050091, "lon": 72.2415164, "tags": {"amenity": "hospital", "name": "Arogya Vardhak Hospital"}}, {"type": "node", "id": 2527533282, "lat": 23.2945874, "lon": 72.3273082, "tags": {"addr:district": "Mahesana", "addr:full": "Station Road, Kadi", "addr:postcode": "382715", "addr:state": "Gujarat", "amenity": "hospital", "name": "Bhagyoday General Hospital", "source": "OpenGovernmentData"}}, {"type": "node", "id": 4302039090, "lat": 23.2511516, "lon": 72.4905066, "tags": {"amenity": "hospital", "name": "nure mohmad General hospital"}}, {"type": "node", "id": 4579883764, "lat": 23.2409291, "lon": 72.4893666}, {"type": "node", "id": 4579883765, "lat": 23.2412676, "lon": 72.489327}, {"type": "node", "id": 4579883766, "lat": 23.2413682, "lon": 72.4892617}, {"type": "node", "id": 4579883767, "lat": 23.2415675, "lon": 72.4896184}, {"type": "node", "id": 4579883768, "lat": 23.240974, "lon": 72.4896488}, {"type": "node", "id": 6970448519, "lat": 23.2979226, "lon": 72.337718, "tags": {"addr:district": "Mahesana", "addr:full": "Near Bank Of Baroda, Thol Road, Kadi", "addr:postcode": "382715", "addr:state": "Gujarat", "amenity": "hospital", "name": "Neha Surgical Hospital", "source": "OpenGovernmentData"}}, {"type": "node", "id": 6975453006, "lat": 23.2423264, "lon": 72.4965122, "tags": {"addr:district": "Gandhinagar", "addr:full": "Kapileshwar Appartment, Kalol", "addr:postcode": "382721", "addr:state": "Gujarat", "amenity": "hospital", "name": "Vatsalya Maternity and Nursing Home", "source": "OpenGovernmentData"}}, {"type": "node", "id": 6978758748, "lat": 23.336892, "lon": 72.1870409, "tags": {"addr:district": "AHMEDABAD", "addr:full": "NEAR PASHU HOSPITAL, STATION ROAD", "addr:postcode": "382120", "addr:state": "Gujarat", "addr:subdistrict": "Detroj-Rampura", "amenity": "clinic", "contact:phone": "02715-255633", "description": "Community Health Centre", "healthcare": "centre", "name": "Detroj CHC", "source": "OpenGovernmentData"}}, {"type": "node", "id": 6978759396, "lat": 23.2935006, "lon": 72.3277254, "tags": {"addr:district": "Mahesana", "addr:full": "F-43, Dhaval Plaza, Station Road, Kadi", "addr:postcode": "382715", "addr:state": "Gujarat", "amenity": "clinic", "name": "Dharm Dental Clinic", "source": "OpenGovernmentData"}}, {"type": "node", "id": 6978862981, "lat": 23.2393412, "lon": 72.4962124, "tags": {"addr:district": "Gandhinagar", "addr:full": "Vakhariya Char Rasta, Near Nagrik Bank, College Road, Kalol", "addr:postcode": "382721", "addr:state": "Gujarat", "amenity": "hospital", "name": "Yash Hospital, Gandhinagar", "source": "OpenGovernmentData"}}, {"type": "node", "id": 6986966094, "lat": 23.2407571, "lon": 72.4936362, "tags": {"addr:district": "Gandhinagar", "addr:full": "#66, Vardhman Nagar,Behind Garden", "addr:postcode": "382721", "addr:state": "Gujarat", "amenity": "clinic", "name": "Maa Maternity and Nursing Home", "source": "OpenGovernmentData"}}, {"type": "node", "id": 6987753018, "lat": 23.2404989, "lon": 72.4941049, "tags": {"addr:district": "Gandhinagar", "addr:full": "Behind Sardar Baug,Near Doctor House", "addr:postcode": "382721", "addr:state": "Gujarat", "amenity": "hospital", "name": "Ashish Orthopaedic Hospital", "source": "OpenGovernmentData"}}, {"type": "node", "id": 7165605802, "lat": 23.2427017, "lon": 72.4974881}, {"type": "node", "id": 7165605803, "lat": 23.2429328, "lon": 72.4974484}, {"type": "node", "id": 7165605804, "lat": 23.2429427, "lon": 72.4973027}, {"type": "node", "id": 7165605805, "lat": 23.2426813, "lon": 72.4973476}, {"type": "node", "id": 7165605806, "lat": 23.2429484, "lon": 72.4975554}, {"type": "node", "id": 7165605807, "lat": 23.2429787, "lon": 72.4975502}, {"type": "node", "id": 7165605808, "lat": 23.2427311, "lon": 72.4977291}, {"type": "node", "id": 7165605809, "lat": 23.2429673, "lon": 72.4976917}, {"type": "node", "id": 7165605810, "lat": 23.2430158, "lon": 72.4978336}, {"type": "node", "id": 7165605811, "lat": 23.2427507, "lon": 72.4978755}, {"type": "node", "id": 7165605812, "lat": 23.2429542, "lon": 72.4975936}, {"type": "node", "id": 7165605813, "lat": 23.2429831, "lon": 72.497589}, {"type": "node", "id": 7165605814, "lat": 23.2425217, "lon": 72.4972515}, {"type": "node", "id": 7165605815, "lat": 23.2426282, "lon": 72.4980054}, {"type": "node", "id": 7165605816, "lat": 23.243132, "lon": 72.497921}, {"type": "node", "id": 7165605817, "lat": 23.2430255, "lon": 72.4971672}, {"type": "node", "id": 7165606780, "lat": 23.2428353, "lon": 72.4975721, "tags": {"addr:district": "GANDHINAGAR", "addr:full": "OPP.GOVT REST HOUSE KALOL, KHUNI BANGLOW", "addr:postcode": "382721", "addr:state": "Gujarat", "addr:subdistrict": "Kalol", "amenity": "hospital", "contact:phone": "2764222939", "name": "Civil Hospital, Kalol", "source": "OpenGovernmentData"}}, {"type": "node", "id": 7864133782, "lat": 23.2956491, "lon": 72.3302385, "tags": {"addr:district": "Mehsana", "addr:full": "Bhaupura, Kadi", "addr:postcode": "382715", "addr:state": "Gujarat", "amenity": "hospital", "name": "Harihar Hospital", "source": "Local Knowledge"}}, {"type": "node", "id": 7864133784, "lat": 23.302153, "lon": 72.331291, "tags": {"addr:district": "Mehsana", "addr:full": "Kasba, Kadi", "addr:postcode": "382715", "addr:state": "Gujarat", "amenity": "clinic", "name": "Dr. C.S. Parmar Clinic", "source": "Local Knowledge"}}, {"type": "node", "id": 7864133788, "lat": 23.299236, "lon": 72.338163, "tags": {"addr:district": "Mehsana", "addr:postcode": "382715", "addr:state": "Gujarat", "amenity": "dentist", "name": "Smile Dental Clinic", "source": "Local Knowledge"}}, {"type": "node", "id": 7864133789, "lat": 23.296358, "lon": 72.329402, "tags": {"addr:district": "Mehsana", "addr:full": "Sardar Bagh, Kadi", "addr:postcode": "382715", "addr:state": "Gujarat", "amenity": "hospital", "name": "Gurukrupa Children Hospital", "source": "Local Knowledge"}}, {"type": "node", "id": 7864133791, "lat": 23.293903, "lon": 72.327909, "tags": {"addr:district": "Mehsana", "addr:full": "Dharti City, Kadi", "addr:postcode": "382715", "addr:state": "Gujarat", "amenity": "dentist", "name": "Shree Umiya Dental Clinic", "source": "Local Knowledge"}}, {"type": "node", "id": 7864133792, "lat": 23.296247, "lon": 72.326963, "tags": {"addr:district": "Mehsana", "addr:full": "Sardar Bagh, Kadi", "addr:postcode": "382715", "addr:state": "Gujarat", "amenity": "hospital", "name": "Yogikrupa Hospital", "source": "Local Knowledge"}}, {"type": "node", "id": 7864133793, "lat": 23.296114, "lon": 72.329612, "tags": {"addr:district": "Mehsana", "addr:full": "Bhaupura, Kadi", "addr:postcode": "382715", "addr:state": "Gujarat", "amenity": "hospital", "name": "Naman Eye Hospital", "source": "Local Knowledge"}}, {"type": "node", "id": 7864133795, "lat": 23.293776, "lon": 72.327853, "tags": {"addr:district": "Mehsana", "addr:full": "Kadi, Mehsana", "addr:postcode": "382715", "addr:state": "Gujarat", "amenity": "hospital", "name": "Arogya General Hospital", "source": "Local Knowledge"}}, {"type": "node", "id": 7864133796, "lat": 23.295415, "lon": 72.336254, "tags": {"addr:district": "Mehsana", "addr:full": "Bhaupura, Kadi", "addr:postcode": "382715", "addr:state": "Gujarat", "amenity": "clinic", "name": "Darshan Clinic", "source": "Local Knowledge"}}, {"type": "node", "id": 7864133798, "lat": 23.295656, "lon": 72.326769, "tags": {"addr:district": "Mehsana", "addr:full": "Kadi", "addr:postcode": "382715", "addr:state": "Gujarat", "amenity": "hospital", "name": "Soham Surgical Hospital", "source": "Local Knowledge"}}, {"type": "node", "id": 7864133799, "lat": 23.2997, "lon": 72.3264, "tags": {"addr:district": "Mehsana", "addr:full": "Kodi", "addr:postcode": "382715", "addr:state": "Gujarat", "amenity": "hospital", "name": "Prince Hospital", "source": "Local Knowledge"}}, {"type": "node", "id": 7864133802, "lat": 23.298867, "lon": 72.327606, "tags": {"addr:district": "Mehsana", "addr:full": "Manipur, Kadi", "addr:postcode": "382715", "addr:state": "Gujarat", "amenity": "clinic", "name": "Parul Nursing Home", "source": "Local Knowledge"}}, {"type": "node", "id": 7864133803, "lat": 23.3017971, "lon": 72.3298719, "tags": {"addr:district": "Mehsana", "addr:full": "Kasba, Kadi", "addr:postcode": "382715", "addr:state": "Gujarat", "amenity": "clinic", "name": "Kadiyawala Clinic", "source": "Local Knowledge"}}, {"type": "node", "id": 7864133806, "lat": 23.298371, "lon": 72.327572, "tags": {"addr:district": "Mehsana", "addr:full": "Kadi", "addr:postcode": "382715", "addr:state": "Gujarat", "amenity": "clinic", "name": "Aarvi Neuropsychiatric Clinic", "source": "Local Knowledge"}}, {"type": "node", "id": 7864133807, "lat": 23.302562, "lon": 72.3423, "tags": {"addr:district": "Mehsana", "addr:full": "Udhyog Nagar, Kundal", "addr:postcode": "382715", "addr:state": "Gujarat", "amenity": "hospital", "name": "Civil Hospital", "source": "Local Knowledge"}}, {"type": "node", "id": 7864133808, "lat": 23.30045, "lon": 72.33757, "tags": {"addr:district": "Mehsana", "addr:full": "Kadi", "addr:postcode": "382715", "addr:state": "Gujarat", "amenity": "clinic", "name": "Shreeji Clinic", "source": "Local Knowledge"}}, {"type": "node", "id": 7864133809, "lat": 23.299013, "lon": 72.327942, "tags": {"addr:district": "Mehsana", "addr:full": "Manipur, Kadi", "addr:postcode": "382715", "addr:state": "Gujarat", "amenity": "hospital", "name": "Kalrav Children Hospital", "source": "Local Knowledge"}}, {"type": "node", "id": 7864133811, "lat": 23.296351, "lon": 72.332203, "tags": {"addr:district": "Mehsana", "addr:full": "Bhaupura, Kadi", "addr:postcode": "382715", "addr:state": "Gujarat", "amenity": "clinic", "name": "Archit Pusp Ayurved Clinic", "source": "Local Knowledge"}}, {"type": "node", "id": 7864133813, "lat": 23.289258, "lon": 72.346791, "tags": {"addr:district": "Mehsana", "addr:full": "Kadi", "addr:postcode": "382715", "addr:state": "Gujarat", "amenity": "clinic", "name": "Shivam Clinic", "source": "Local Knowledge"}}, {"type": "node", "id": 7864133816, "lat": 23.286173, "lon": 72.32674, "tags": {"addr:district": "Mehsana", "addr:full": "Kadi", "addr:postcode": "382715", "addr:state": "Gujarat", "amenity": "hospital", "name": "Rhythm Hospital", "source": "Local Knowledge"}}, {"type": "node", "id": 7864133817, "lat": 23.299123, "lon": 72.338132, "tags": {"addr:district": "Mehsana", "addr:full": "Kadi", "addr:postcode": "382715", "addr:state": "Gujarat", "amenity": "hospital", "name": "Siddharth Hospital", "source": "Local Knowledge"}}, {"type": "node", "id": 7864133818, "lat": 23.297561, "lon": 72.329899, "tags": {"addr:district": "Mehsana", "addr:full": "Manipur, Kadi", "addr:postcode": "382715", "addr:state": "Gujarat", "amenity": "hospital", "name": "Puja Hospital kadi", "source": "Local Knowledge"}}, {"type": "node", "id": 7864133819, "lat": 23.295589, "lon": 72.329235, "tags": {"addr:district": "Mehsana", "addr:full": "Kadi", "addr:postcode": "382715", "addr:state": "Gujarat", "amenity": "dentist", "name": "Dr. Rohit Panchal Dental Clinic", "source": "Local Knowledge"}}, {"type": "node", "id": 7864133821, "lat": 23.285178, "lon": 72.32622, "tags": {"addr:district": "Mehsana", "addr:full": "Sant Ram City, Kadi", "addr:postcode": "382715", "addr:state": "Gujarat", "amenity": "clinic", "name": "Veju Clinic", "source": "Local Knowledge"}}, {"type": "node", "id": 7864133822, "lat": 23.2891776, "lon": 72.3470013, "tags": {"addr:district": "Mehsana", "addr:full": "Kadi", "addr:postcode": "382715", "addr:state": "Gujarat", "amenity": "hospital", "name": "Swara Hospital", "source": "Local Knowledge"}}, {"type": "node", "id": 7864133825, "lat": 23.29645, "lon": 72.336983, "tags": {"addr:district": "Mehsana", "addr:full": "Kadi", "addr:postcode": "382715", "addr:state": "Gujarat", "amenity": "clinic", "name": "Sanket Clinic", "source": "Local Knowledge"}}, {"type": "node", "id": 7864133826, "lat": 23.284703, "lon": 72.325171, "tags": {"addr:district": "Mehsana", "addr:full": "Kadi", "addr:postcode": "382715", "addr:state": "Gujarat", "amenity": "hospital", "name": "Maa Sharada Women's Hospital", "source": "Local Knowledge"}}, {"type": "node", "id": 7864133827, "lat": 23.302484, "lon": 72.329115, "tags": {"addr:district": "Mehsana", "addr:full": "Dana bazar, Kadi", "addr:postcode": "382715", "addr:state": "Gujarat", "amenity": "hospital", "name": "Rehmani Hospital", "source": "Local Knowledge"}}, {"type": "node", "id": 7864133829, "lat": 23.298351, "lon": 72.329806, "tags": {"addr:district": "Mehsana", "addr:full": "Manipur, Kadi", "addr:postcode": "382715", "addr:state": "Gujarat", "amenity": "hospital", "name": "Krishna Hospital", "source": "Local Knowledge"}}, {"type": "node", "id": 7864133832, "lat": 23.296146, "lon": 72.329627, "tags": {"addr:district": "Mehsana", "addr:full": "Bhaupura, Kadi", "addr:postcode": "382715", "addr:state": "Gujarat", "amenity": "dentist", "name": "Megha Dental Clinic", "source": "Local Knowledge"}}, {"type": "node", "id": 7864133837, "lat": 23.298997, "lon": 72.327933, "tags": {"addr:district": "Mehsana", "addr:full": "Manipur, Kadi", "addr:postcode": "382715", "addr:state": "Gujarat", "amenity": "dentist", "name": "Smit Dental Clinic and Implant Centre", "source": "Local Knowledge"}}, {"type": "node", "id": 7864133839, "lat": 23.300888, "lon": 72.333634, "tags": {"addr:district": "Mehsana", "addr:full": "Sakarpura, Kadi", "addr:postcode": "382715", "addr:state": "Gujarat", "amenity": "clinic", "name": "Al-Shifa Clinic", "source": "Local Knowledge"}}, {"type": "node", "id": 7864133841, "lat": 23.30115, "lon": 72.330951, "tags": {"addr:district": "Mehsana", "addr:full": "Kasba, Kadi", "addr:postcode": "382715", "addr:state": "Gujarat", "amenity": "clinic", "name": "Dr. Jyantibhai M Patel Clinic", "source": "Local Knowledge"}}, {"type": "node", "id": 7864133845, "lat": 23.331091, "lon": 72.40527, "tags": {"addr:district": "Mehsana", "addr:full": "Rajpur", "addr:postcode": "382705", "addr:state": "Gujarat", "amenity": "hospital", "name": "Government Hospital", "source": "Local Knowledge"}}, {"type": "node", "id": 7864133847, "lat": 23.299385, "lon": 72.330688, "tags": {"addr:district": "Mehsana", "addr:full": "Bhaupura, Kadi", "addr:postcode": "382715", "addr:state": "Gujarat", "amenity": "clinic", "name": "Aashirwad Multispeciality Dental Clinic", "source": "Local Knowledge"}}, {"type": "node", "id": 7866803544, "lat": 23.241667, "lon": 72.49144, "tags": {"addr:district": "Gandhinagar", "addr:full": "Vardhaman Nagar, Kalol", "addr:postcode": "382721", "addr:state": "Gujarat", "amenity": "hospital", "name": "Swasthya Multi Speciality Hospital", "source": "Local Knowledge"}}, {"type": "node", "id": 7866803547, "lat": 23.227846, "lon": 72.494743, "tags": {"addr:district": "Gandhinagar", "addr:full": "Panchvati, Kalol", "addr:state": "Gujarat", "amenity": "clinic", "name": "Riddhi Clinic", "source": "Local Knowledge"}}, {"type": "node", "id": 7866803548, "lat": 23.239235, "lon": 72.494818, "tags": {"addr:district": "Gandhinagar", "addr:full": "Vardhaman Nagar, Kalol", "addr:postcode": "382721", "addr:state": "Gujarat", "amenity": "hospital", "name": "Anand Hospital", "source": "Local Knowledge"}}, {"type": "node", "id": 7866803553, "lat": 23.2464945, "lon": 72.4933326, "tags": {"addr:district": "Gandhinagar", "addr:full": "Kalol", "addr:postcode": "382721", "addr:state": "Gujarat", "amenity": "clinic", "name": "Dr. kamal Gupta Krishna Skin Clinic", "source": "Local Knowledge"}}, {"type": "node", "id": 7866803555, "lat": 23.2410842, "lon": 72.4969658, "tags": {"addr:district": "Gandhinagar", "addr:full": "Vardhaman Nagar, Kalol", "addr:postcode": "382721", "addr:state": "Gujarat", "amenity": "hospital", "name": "Aashirvad Hospital", "source": "Local Knowledge"}}, {"type": "node", "id": 7866803557, "lat": 23.240666, "lon": 72.49332, "tags": {"addr:district": "Gandhinagar", "addr:full": "Ambika Nagar, Kalol", "addr:postcode": "382721", "addr:state": "Gujarat", "amenity": "hospital", "name": "Shruti Surgical Hospital", "source": "Local Knowledge"}}, {"type": "node", "id": 7866803559, "lat": 23.2400084, "lon": 72.4970437, "tags": {"addr:district": "Gandhinagar", "addr:full": "Kalol", "addr:postcode": "382721", "addr:state": "Gujarat", "amenity": "dentist", "name": "Suraj Dental Clinic", "source": "Local Knowledge"}}, {"type": "node", "id": 7866803562, "lat": 23.254125, "lon": 72.4773, "tags": {"addr:district": "Gandhinagar", "addr:full": "Pratap Pura, Kalol", "addr:postcode": "382721", "addr:state": "Gujarat", "amenity": "hospital", "name": "Aadarsh Hospital", "source": "Local Knowledge"}}, {"type": "node", "id": 7866803563, "lat": 23.2405112, "lon": 72.4952308, "tags": {"addr:district": "Gandhinagar", "addr:full": "Vardhaman Nagar, Kalol", "addr:postcode": "382721", "addr:state": "Gujarat", "amenity": "hospital", "name": "Umiya Hospital", "source": "Local Knowledge"}}, {"type": "node", "id": 7866803564, "lat": 23.243222, "lon": 72.495422, "tags": {"addr:district": "Gandhinagar", "addr:full": "Vardhaman Nagar, Kalol", "addr:postcode": "382721", "addr:state": "Gujarat", "amenity": "clinic", "name": "Choice's Clinic", "source": "Local Knowledge"}}, {"type": "node", "id": 7866803566, "lat": 23.2369014, "lon": 72.493656, "tags": {"addr:district": "Gandhinagar", "addr:full": "Kalol", "addr:postcode": "382721", "addr:state": "Gujarat", "amenity": "hospital", "name": "Ishan Gynec Hospital", "source": "Local Knowledge"}}, {"type": "node", "id": 7866803568, "lat": 23.2401344, "lon": 72.4942831, "tags": {"addr:district": "Gandhinagar", "addr:full": "Vardhaman Nagar, Kalol", "addr:postcode": "382721", "addr:state": "Gujarat", "amenity": "hospital", "name": "Adarsh Hospital", "source": "Local Knowledge"}}, {"type": "node", "id": 7866803570, "lat": 23.2498357, "lon": 72.4948812, "tags": {"addr:district": "Gandhinagar", "addr:postcode": "382721", "addr:state": "Gujarat", "amenity": "clinic", "name": "Dr. Pathan Clinic", "source": "Local Knowledge"}}, {"type": "node", "id": 7866803571, "lat": 23.2406493, "lon": 72.4958918, "tags": {"addr:district": "Gandhinagar", "addr:full": "Vardhaman Nagar, Kalol", "addr:postcode": "382721", "addr:state": "Gujarat", "amenity": "hospital", "name": "Shriram Hospital", "source": "Local Knowledge"}}, {"type": "node", "id": 7866803574, "lat": 23.242125, "lon": 72.494934, "tags": {"addr:district": "Gandhinagar", "addr:full": "Near Sardar Baug, Kalol", "addr:postcode": "382721", "addr:state": "Gujarat", "amenity": "hospital", "name": "Vedam Hospital", "source": "Local Knowledge"}}, {"type": "node", "id": 7866803575, "lat": 23.2403871, "lon": 72.4944304, "tags": {"addr:district": "Gandhinagar", "addr:full": "Vardhaman Nagar, Kalol", "addr:postcode": "382721", "addr:state": "Gujarat", "amenity": "clinic", "name": "Mahalaxmi Physiocare", "source": "Local Knowledge"}}, {"type": "node", "id": 7866803581, "lat": 23.2318697, "lon": 72.4862953, "tags": {"addr:district": "Gandhinagar", "addr:full": "Ambika Nagar, Kalol", "addr:postcode": "382725", "addr:state": "Gujarat", "amenity": "clinic", "name": "Gayatri Clinic", "source": "Local Knowledge"}}, {"type": "node", "id": 7866803582, "lat": 23.240822, "lon": 72.494341, "tags": {"addr:district": "Gandhinagar", "addr:full": "Vardhaman Nagar, Kalol", "addr:postcode": "382721", "addr:state": "Gujarat", "amenity": "hospital", "name": "Krishna Hospital", "source": "Local Knowledge"}}, {"type": "node", "id": 7866803583, "lat": 23.239836, "lon": 72.494113, "tags": {"addr:district": "Gandhinagar", "addr:full": "Vardhaman Nagar, Kalol", "addr:postcode": "382721", "addr:state": "Gujarat", "amenity": "hospital", "name": "Ankur Orthopaedic Hospital", "source": "Local Knowledge"}}, {"type": "node", "id": 7866803585, "lat": 23.237867, "lon": 72.4905206, "tags": {"addr:district": "Gandhinagar", "addr:full": "Vakhariya, Ambika Nagar, Kalol", "addr:postcode": "382721", "addr:state": "Gujarat", "amenity": "dentist", "name": "Harshini Dental Clinic", "source": "Local Knowledge"}}, {"type": "node", "id": 7866803586, "lat": 23.2416645, "lon": 72.4912899, "tags": {"addr:district": "Gandhinagar", "addr:full": "Kalol", "addr:postcode": "382721", "addr:state": "Gujarat", "amenity": "hospital", "name": "Bhagvati Eye Hospital", "source": "Local Knowledge"}}, {"type": "node", "id": 7866803587, "lat": 23.239734, "lon": 72.497042, "tags": {"addr:district": "Gandhinagar", "addr:full": "Kalol", "addr:postcode": "382721", "addr:state": "Gujarat", "amenity": "hospital", "name": "Arpan Hospital", "source": "Local Knowledge"}}, {"type": "node", "id": 7866803593, "lat": 23.2453598, "lon": 72.4873552, "tags": {"addr:district": "Gandhinagar", "addr:full": "Vardhaman Nagar, Kalol", "addr:postcode": "382721", "addr:state": "Gujarat", "amenity": "hospital", "name": "ESIC Hospital", "source": "Local Knowledge"}}, {"type": "node", "id": 7866803597, "lat": 23.137604, "lon": 72.44412, "tags": {"addr:district": "Gandhinagar", "addr:full": "Khatraj", "addr:postcode": "382721", "addr:state": "Gujarat", "amenity": "clinic", "name": "Arvind Clinic", "source": "Local Knowledge"}}, {"type": "node", "id": 7866803599, "lat": 23.2404454, "lon": 72.494048, "tags": {"addr:district": "Gandhinagar", "addr:full": "Vardhaman Nagar, Kalol", "addr:postcode": "382721", "addr:state": "Gujarat", "amenity": "hospital", "name": "Pratham Hospital", "source": "Local Knowledge"}}, {"type": "node", "id": 7866803600, "lat": 23.2424869, "lon": 72.4956214, "tags": {"addr:district": "Gandhinagar", "addr:full": "Near Sardar Garden, Kalol", "addr:postcode": "382721", "addr:state": "Gujarat", "amenity": "clinic", "name": "Chiro Life", "source": "Local Knowledge"}}, {"type": "node", "id": 7866803601, "lat": 23.2424503, "lon": 72.4964959, "tags": {"addr:district": "Gandhinagar", "addr:full": "Kalol", "addr:postcode": "382721", "addr:state": "Gujarat", "amenity": "dentist", "name": "Vatsalya Dental Clinic", "source": "Local Knowledge"}}, {"type": "node", "id": 7866803602, "lat": 23.2318186, "lon": 72.486332, "tags": {"addr:district": "Gandhinagar", "addr:full": "Kalol", "addr:postcode": "382721", "addr:state": "Gujarat", "amenity": "clinic", "name": "Sparsh Pain and Physiotherapy Clinic", "source": "Local Knowledge"}}, {"type": "node", "id": 7866803607, "lat": 23.2404099, "lon": 72.4942212, "tags": {"addr:district": "Gandhinagar", "addr:full": "Sardar Baug, Kalol", "addr:postcode": "382721", "addr:state": "Gujarat", "amenity": "hospital", "name": "Poojan Women Hospital", "source": "Local Knowledge"}}, {"type": "node", "id": 7866803608, "lat": 23.242093, "lon": 72.494609, "tags": {"addr:district": "Gandhinagar", "addr:full": "Vardhaman Nagar, Kalol", "addr:postcode": "382721", "addr:state": "Gujarat", "amenity": "hospital", "name": "Om Dental Hospital", "source": "Local Knowledge"}}, {"type": "node", "id": 7866803611, "lat": 23.2411182, "lon": 72.4969554, "tags": {"addr:district": "Gandhinagar", "addr:full": "Vardhaman Nagar, Kalol", "addr:postcode": "382721", "addr:state": "Gujarat", "amenity": "hospital", "name": "Ruta Eye Hospital", "source": "Local Knowledge"}}, {"type": "node", "id": 7866803614, "lat": 23.246432, "lon": 72.497147, "tags": {"addr:district": "Gandhinagar", "addr:full": "Kalol", "addr:postcode": "382721", "addr:state": "Gujarat", "amenity": "hospital", "name": "Lifeline Hospital", "source": "Local Knowledge"}}, {"type": "node", "id": 7866803616, "lat": 23.2397946, "lon": 72.4943458, "tags": {"addr:district": "Gandhinagar", "addr:full": "Kalol", "addr:postcode": "382721", "addr:state": "Gujarat", "amenity": "hospital", "name": "Shreeji Children Hospital", "source": "Local Knowledge"}}, {"type": "way", "id": 462611859, "nodes": [4579883764, 4579883765, 4579883766, 4579883767, 4579883768, 4579883764], "tags": {"amenity": "hospital", "name": "Rotery Hospital"}}, {"type": "way", "id": 767451157, "nodes": [7165605807, 7165605806, 7165605803, 7165605802, 7165605805, 7165605804, 7165605807]}, {"type": "way", "id": 767451158, "nodes": [7165605813, 7165605810, 7165605811, 7165605808, 7165605809, 7165605812, 7165605813]}, {"type": "way", "id": 767451159, "nodes": [7165605817, 7165605816, 7165605815, 7165605814, 7165605817]}, {"type": "relation", "id": 10644262, "members": [{"type": "way", "ref": 767451159, "role": "outer"}, {"type": "way", "ref": 767451158, "role": "inner"}, {"type": "way", "ref": 767451157, "role": "inner"}], "tags": {"building": "hospital", "type": "multipolygon"}}]}