{"version": 0.6, "generator": "Overpass API 0.7.61.5 4133829e", "osm3s": {"timestamp_osm_base": "2024-02-25T09:11:15Z", "copyright": "The data included in this document is from www.openstreetmap.org. The data is made available under ODbL."}, "elements": [{"type": "node", "id": 627507677, "lat": 23.011197, "lon": 72.5689385}, {"type": "node", "id": 627507680, "lat": 23.011119, "lon": 72.5690966}, {"type": "node", "id": 627507685, "lat": 23.0113544, "lon": 72.5690079}, {"type": "node", "id": 627507694, "lat": 23.0112764, "lon": 72.5691719}, {"type": "node", "id": 695666626, "lat": 23.0317635, "lon": 72.5701852, "tags": {"amenity": "fast_food", "brand": "McDonald's", "brand:pa": "\u0a2e\u0a48\u0a15\u0a21\u0a4b\u0a28\u0a32\u0a21\u2019\u0a1c\u0a3c", "brand:ur": "\u0645\u06a9\u0688\u0648\u0646\u0644\u0688\u0632", "brand:wikidata": "Q38076", "brand:wikipedia": "en:McDonald's", "brand:wikipedia:pa": "\u0a2e\u0a48\u0a15\u0a21\u0a4b\u0a28\u0a32\u0a21\u2019\u0a1c\u0a3c", "brand:wikipedia:ur": "\u0645\u06a9\u0688\u0648\u0646\u0644\u0688\u0632", "cuisine": "burger", "name": "McDonald's", "name:pa": "\u0a2e\u0a48\u0a15\u0a21\u0a4b\u0a28\u0a32\u0a21\u2019\u0a1c\u0a3c", "name:ur": "\u0645\u06a9\u0688\u0648\u0646\u0644\u0688\u0632"}}, {"type": "node", "id": 695666627, "lat": 23.0422876, "lon": 72.5699576, "tags": {"amenity": "cafe", "name": "Cyber Cafe"}}, {"type": "node", "id": 1313805177, "lat": 23.0407234, "lon": 72.5485324, "tags": {"amenity": "cafe", "cost:coffee": "$3", "name": "Chocolate Room"}}, {"type": "node", "id": 1313805178, "lat": 23.0427079, "lon": 72.5494685, "tags": {"amenity": "cafe", "cost:coffee": "$2", "name": "Barrista, Vijay 4 Roads"}}, {"type": "node", "id": 1313805179, "lat": 23.0312796, "lon": 72.5493907, "tags": {"amenity": "cafe", "cost:coffee": "$2", "name": "Cafe Coffee Day"}}, {"type": "node", "id": 1429887846, "lat": 23.0120603, "lon": 72.5691606, "tags": {"amenity": "cafe", "cost:coffee": "$2", "cuisine": "indian", "name": "Chai Gate!!!", "wifi": "yes"}}, {"type": "node", "id": 1561520723, "lat": 23.0116852, "lon": 72.568823, "tags": {"amenity": "fast_food", "name": "Amul"}}, {"type": "node", "id": 1973440767, "lat": 23.0328812, "lon": 72.5655478, "tags": {"addr:housename": "Shri Krishna Centre", "addr:postcode": "380009", "addr:street": "Law Garden Road", "amenity": "fast_food", "cuisine": "ice_cream", "name": "Natural Ice Cream", "website": "https://naturalicecreams.in/"}}, {"type": "node", "id": 3204975264, "lat": 23.0200882, "lon": 72.5860331, "tags": {"addr:city": "Ahmedabad", "addr:postcode": "380001", "amenity": "fast_food", "cuisine": "regional", "name": "Gol Limbda Bhajiya and Nashta House", "opening_hours": "06:30-21:30", "smoking": "outside"}}, {"type": "node", "id": 3239361169, "lat": 23.0362229, "lon": 72.5494261, "tags": {"amenity": "cafe", "cuisine": "coffee;snack", "internet_access": "no", "internet_access:fee": "no", "name": "Zen Cafe", "opening_hours": "16:00-20:00", "smoking": "yes", "wheelchair": "yes"}}, {"type": "node", "id": 3242226330, "lat": 23.0329764, "lon": 72.5600005, "tags": {"amenity": "cafe", "brand": "Cafe Coffee Day", "brand:wikidata": "Q5017235", "cuisine": "coffee_shop", "internet_access": "no", "internet_access:fee": "no", "name": "Cafe Coffee Day", "opening_hours": "Mo-Su 09:00-23:00", "operator": "Cafe Coffee Day", "phone": "+91 93776 19151", "smoking": "no", "takeaway": "yes", "website": "https://www.cafecoffeeday.com/", "wheelchair": "no"}}, {"type": "node", "id": 3293763762, "lat": 23.0423379, "lon": 72.549193, "tags": {"amenity": "fast_food", "delivery": "yes", "name": "Shreeji krupa vadapav", "opening_hours": "Mo-Su 10:00-22:00", "takeaway": "yes"}}, {"type": "node", "id": 3293792062, "lat": 23.0423816, "lon": 72.5486525, "tags": {"addr:street": "120 Feet Ring Road", "amenity": "fast_food", "brand": "McDonald's", "brand:pa": "\u0a2e\u0a48\u0a15\u0a21\u0a4b\u0a28\u0a32\u0a21\u2019\u0a1c\u0a3c", "brand:ur": "\u0645\u06a9\u0688\u0648\u0646\u0644\u0688\u0632", "brand:wikidata": "Q38076", "brand:wikipedia": "en:McDonald's", "brand:wikipedia:pa": "\u0a2e\u0a48\u0a15\u0a21\u0a4b\u0a28\u0a32\u0a21\u2019\u0a1c\u0a3c", "brand:wikipedia:ur": "\u0645\u06a9\u0688\u0648\u0646\u0644\u0688\u0632", "cuisine": "burger", "name": "McDonald's", "name:pa": "\u0a2e\u0a48\u0a15\u0a21\u0a4b\u0a28\u0a32\u0a21\u2019\u0a1c\u0a3c", "name:ur": "\u0645\u06a9\u0688\u0648\u0646\u0644\u0688\u0632", "opening_hours": "24/7", "takeaway": "yes"}}, {"type": "node", "id": 3294081761, "lat": 23.0426757, "lon": 72.5492422, "tags": {"addr:street": "120 Feet Ring Road", "amenity": "fast_food", "cuisine": "ice_cream", "name": "Asharfilal Kulfi", "opening_hours": "24/7"}}, {"type": "node", "id": 3306683246, "lat": 23.0246187, "lon": 72.5828928, "tags": {"amenity": "cafe", "cuisine": "ice_cream", "name": "Ghandi Cold Drink House"}}, {"type": "node", "id": 3306683251, "lat": 23.027562, "lon": 72.5811204, "tags": {"amenity": "fast_food", "name": "Lucky Tea Shop"}}, {"type": "node", "id": 3306683649, "lat": 23.0263181, "lon": 72.5830356, "tags": {"amenity": "cafe", "internet_access": "yes", "internet_access:fee": "yes", "name": "Relief Cyber Cafe"}}, {"type": "node", "id": 3426621651, "lat": 23.0206812, "lon": 72.5540845, "tags": {"amenity": "fast_food", "name": "Jasuben Pizza"}}, {"type": "node", "id": 3500459658, "lat": 23.0839448, "lon": 72.5892158, "tags": {"amenity": "fast_food", "cuisine": "regional", "delivery": "no", "name": "MAHARAJ Food Corner", "takeaway": "yes"}}, {"type": "node", "id": 3704445080, "lat": 23.0327558, "lon": 72.5249558}, {"type": "node", "id": 3704445090, "lat": 23.0329465, "lon": 72.5247138}, {"type": "node", "id": 3704445097, "lat": 23.0331054, "lon": 72.5252812}, {"type": "node", "id": 3704445118, "lat": 23.0332961, "lon": 72.5250393}, {"type": "node", "id": 3711448069, "lat": 23.0410017, "lon": 72.5269636}, {"type": "node", "id": 3711448088, "lat": 23.0410824, "lon": 72.5270256}, {"type": "node", "id": 3711448090, "lat": 23.0410863, "lon": 72.5268335}, {"type": "node", "id": 3711448102, "lat": 23.041167, "lon": 72.5268955}, {"type": "node", "id": 3776238978, "lat": 23.0358422, "lon": 72.5617312, "tags": {"amenity": "cafe", "name": "chocolate room"}}, {"type": "node", "id": 4065020652, "lat": 23.034661, "lon": 72.551366}, {"type": "node", "id": 4065020653, "lat": 23.0346707, "lon": 72.5514802}, {"type": "node", "id": 4065020656, "lat": 23.0348215, "lon": 72.5513499}, {"type": "node", "id": 4065020657, "lat": 23.0348312, "lon": 72.5514641}, {"type": "node", "id": 4199023903, "lat": 23.0245018, "lon": 72.5073318, "tags": {"amenity": "cafe", "name": "Cafe Coffee Day"}}, {"type": "node", "id": 4199023905, "lat": 23.0385075, "lon": 72.512884, "tags": {"amenity": "fast_food", "brand": "Subway", "brand:pa": "\u0a38\u0a2c\u0a35\u0a47\u0a05", "brand:ur": "\u0633\u0628 \u0648\u06d2", "brand:wikidata": "Q244457", "brand:wikipedia": "en:Subway (restaurant)", "cuisine": "sandwich", "name": "Subway", "name:pa": "\u0a38\u0a2c\u0a35\u0a47\u0a05", "name:ur": "\u0633\u0628 \u0648\u06d2", "takeaway": "yes"}}, {"type": "node", "id": 4319362053, "lat": 23.0371357, "lon": 72.5443257, "tags": {"amenity": "cafe", "name": "Nescafe"}}, {"type": "node", "id": 4326501193, "lat": 23.005805, "lon": 72.5552881, "tags": {"addr:street": "Ashram Road", "amenity": "fast_food", "name": "TGB"}}, {"type": "node", "id": 4358562689, "lat": 23.051025, "lon": 72.64396, "tags": {"amenity": "fast_food", "brand": "Domino's", "brand:ks": "\u0688\u0648\u0645\u06cc\u0646\u0648\u0632", "brand:pa": "\u0a21\u0a4b\u0a2e\u0a40\u0a28\u0a4b\u0a1c\u0a3c", "brand:ur": "\u0688\u0648\u0645\u06cc\u0646\u0648\u0632", "brand:wikidata": "Q839466", "brand:wikipedia": "en:Domino's Pizza", "name": "Domino's", "name:ks": "\u0688\u0648\u0645\u06cc\u0646\u0648\u0632", "name:pa": "\u0a21\u0a4b\u0a2e\u0a40\u0a28\u0a4b\u0a1c\u0a3c", "name:ur": "\u0688\u0648\u0645\u06cc\u0646\u0648\u0632"}}, {"type": "node", "id": 4358562690, "lat": 23.0510167, "lon": 72.64456, "tags": {"amenity": "fast_food", "name": "TGB"}}, {"type": "node", "id": 4358562889, "lat": 23.0512085, "lon": 72.643756, "tags": {"addr:street": "NH8", "amenity": "fast_food", "name": "Spoons n straws"}}, {"type": "node", "id": 4401532390, "lat": 23.0020986, "lon": 72.5980125, "tags": {"amenity": "bar"}}, {"type": "node", "id": 4422047292, "lat": 23.1103852, "lon": 72.6748785, "tags": {"amenity": "fast_food", "name": "Kaka fast food"}}, {"type": "node", "id": 4422082966, "lat": 23.1113356, "lon": 72.6718897, "tags": {"amenity": "fast_food", "name": "Kaka ni bhajipav"}}, {"type": "node", "id": 4422101589, "lat": 23.1104061, "lon": 72.6748011, "tags": {"addr:street": "Sardar Patel Ring Road", "amenity": "fast_food", "name": "Kaka fastfood"}}, {"type": "node", "id": 4483310568, "lat": 23.1112727, "lon": 72.6717204}, {"type": "node", "id": 4483310569, "lat": 23.1110939, "lon": 72.6722595}, {"type": "node", "id": 4483310570, "lat": 23.1108065, "lon": 72.6721535}, {"type": "node", "id": 4483310571, "lat": 23.1107621, "lon": 72.672116}, {"type": "node", "id": 4483310572, "lat": 23.1109693, "lon": 72.671609}, {"type": "node", "id": 4685354589, "lat": 23.0550362, "lon": 72.5398877, "tags": {"amenity": "fast_food", "name": "nilam snacks", "name:en": "nilam snacks"}}, {"type": "node", "id": 4704651212, "lat": 23.0071778, "lon": 72.6638136, "tags": {"addr:postcode": "382418", "addr:street": "tanman chokdi", "amenity": "fast_food", "cuisine": "indian", "name": "Tan-man bhaji pav", "name:en": "Tan-man bhaji pav", "name:hi": "Tan-man bhaji pav"}}, {"type": "node", "id": 4797415998, "lat": 23.0422816, "lon": 72.549183, "tags": {"amenity": "fast_food", "brand": "Subway", "brand:pa": "\u0a38\u0a2c\u0a35\u0a47\u0a05", "brand:ur": "\u0633\u0628 \u0648\u06d2", "brand:wikidata": "Q244457", "brand:wikipedia": "en:Subway (restaurant)", "cuisine": "sandwich", "name": "Subway", "name:pa": "\u0a38\u0a2c\u0a35\u0a47\u0a05", "name:ur": "\u0633\u0628 \u0648\u06d2", "takeaway": "yes"}}, {"type": "node", "id": 4797416004, "lat": 23.042429, "lon": 72.5486687, "tags": {"addr:city": "Ahmedabad", "addr:housenumber": "G2 Yash Aqua", "addr:postcode": "380009", "addr:street": "Vijay Cross Road, Navarangpura", "amenity": "cafe", "cuisine": "pizza", "name": "Fullfills Ahmedabad", "takeaway": "yes"}}, {"type": "node", "id": 4797416005, "lat": 23.0416337, "lon": 72.5490709, "tags": {"amenity": "cafe", "cuisine": "pizza", "name": "quinches"}}, {"type": "node", "id": 4797416006, "lat": 23.042389, "lon": 72.5492178, "tags": {"amenity": "cafe", "name": "uno pizza"}}, {"type": "node", "id": 5029238558, "lat": 23.0444534, "lon": 72.5505062, "tags": {"addr:city": "ahmedabad", "addr:housenumber": "34", "addr:street": "memnagar", "amenity": "cafe", "cuisine": "Multi_Cuisine", "name": "The Cafe Baraco", "opening_hours": "11:00-01:00", "outdoor_seating": "no", "smoking": "outside"}}, {"type": "node", "id": 5140818187, "lat": 23.0398379, "lon": 72.5276503, "tags": {"amenity": "fast_food", "delivery": "no", "drive_through": "no", "name": "Iscon Ghantiya", "outdoor_seating": "no", "smoking": "no", "takeaway": "yes"}}, {"type": "node", "id": 5164984218, "lat": 23.1270148, "lon": 72.5456021, "tags": {"amenity": "food_court", "name": "Management Mess"}}, {"type": "node", "id": 5164984325, "lat": 23.1283124, "lon": 72.5473147, "tags": {"amenity": "food_court", "name": "F1 Pharma Canteen"}}, {"type": "node", "id": 5214871422, "lat": 23.0108416, "lon": 72.5048519, "tags": {"amenity": "bar", "name": "Sphere Louge"}}, {"type": "node", "id": 5276640722, "lat": 23.0346667, "lon": 72.5603703, "tags": {"amenity": "cafe", "name": "Seva Cafe"}}, {"type": "node", "id": 5329590125, "lat": 23.033026, "lon": 72.5577346, "tags": {"amenity": "cafe", "name": "Unlocked"}}, {"type": "node", "id": 5340470022, "lat": 23.0320819, "lon": 72.5600295, "tags": {"addr:street": "Chimanlal Girdharlal Road", "amenity": "cafe", "name": "Cafe udipi richi"}}, {"type": "node", "id": 5407346983, "lat": 23.0122064, "lon": 72.5062163, "tags": {"amenity": "cafe", "name": "In-Garden Cafe", "outdoor_seating": "yes"}}, {"type": "node", "id": 5527662869, "lat": 23.0144058, "lon": 72.565418, "tags": {"amenity": "cafe", "name": "Udipi Cafe"}}, {"type": "node", "id": 6649963089, "lat": 23.0355672, "lon": 72.5061396, "tags": {"addr:city": "ahmedabad", "addr:housenumber": "0", "addr:postcode": "380054", "addr:street": "behind bogarosa, rajpath club, bodakdev.", "air_conditioning": "yes", "amenity": "cafe", "cuisine": "pizza;italian;coffee_shop;indian", "delivery": "yes", "name": "cabana lounge", "outdoor_seating": "yes", "phone": "+919998822297"}}, {"type": "node", "id": 6831009179, "lat": 22.9798046, "lon": 72.5737246, "tags": {"amenity": "fast_food", "name": "Himalaya Bakery"}}, {"type": "node", "id": 8039346176, "lat": 23.0360509, "lon": 72.5611735, "tags": {"addr:city": "Ahmedabad", "addr:country": "IN", "addr:housenumber": "1", "addr:postcode": "380009", "addr:street": "Swastik Cross Road /Swastik Society Road / Swastik X Road", "air_conditioning": "yes", "amenity": "cafe", "capacity": "50", "cuisine": "pizza;coffee_shop;sandwich;italian;ice_cream;regional;mexican", "delivery": "yes", "description": "Freshly Brewed Coffee and delicious food", "email": "coffeestandbbc@gmail.com", "internet_access": "wlan", "internet_access:fee": "customers", "level": "2", "name": "Coffee Stand-CG Road", "opening_hours": "24/7", "outdoor_seating": "yes", "payment:american_express": "yes", "payment:cards": "yes", "payment:cash": "yes", "payment:coins": "yes", "payment:contactless": "yes", "payment:debit_cards": "yes", "payment:maestro": "yes", "payment:mastercard": "yes", "payment:visa": "yes", "phone": "+919726323358", "takeaway": "yes"}}, {"type": "node", "id": 8455774613, "lat": 23.0221413, "lon": 72.5567513, "tags": {"amenity": "fast_food", "brand": "McDonald's", "brand:pa": "\u0a2e\u0a48\u0a15\u0a21\u0a4b\u0a28\u0a32\u0a21\u2019\u0a1c\u0a3c", "brand:ur": "\u0645\u06a9\u0688\u0648\u0646\u0644\u0688\u0632", "brand:wikidata": "Q38076", "brand:wikipedia": "en:McDonald's", "brand:wikipedia:pa": "\u0a2e\u0a48\u0a15\u0a21\u0a4b\u0a28\u0a32\u0a21\u2019\u0a1c\u0a3c", "brand:wikipedia:ur": "\u0645\u06a9\u0688\u0648\u0646\u0644\u0688\u0632", "cuisine": "burger", "name": "McDonald's", "name:pa": "\u0a2e\u0a48\u0a15\u0a21\u0a4b\u0a28\u0a32\u0a21\u2019\u0a1c\u0a3c", "name:ur": "\u0645\u06a9\u0688\u0648\u0646\u0644\u0688\u0632", "takeaway": "yes"}}, {"type": "node", "id": 8847682611, "lat": 23.0158336, "lon": 72.5508007, "tags": {"amenity": "cafe", "name": "Deshi Chulha Non-veg"}}, {"type": "node", "id": 8998662168, "lat": 23.0163696, "lon": 72.5248026, "tags": {"addr:city": "Ahmedabad", "addr:postcode": "380015", "addr:street": "Shivalay Apartment 2", "air_conditioning": "yes", "amenity": "fast_food", "cuisine": "regional;indian", "name": "Diwan Bhel Pakodi Center", "opening_hours": "Mo-Su 11:00-22:00"}}, {"type": "node", "id": 8998662169, "lat": 23.0163966, "lon": 72.5243683, "tags": {"addr:city": "Ahmedabad", "addr:housenumber": "GF-5", "addr:postcode": "380015", "addr:street": "Nandanvan 3", "amenity": "fast_food", "cuisine": "regional;indian", "name": "Jagdish Chaat Pakodi Center", "opening_hours": "Mo-Su 14:00-22:30"}}, {"type": "node", "id": 9005464434, "lat": 23.0172744, "lon": 72.5299212, "tags": {"addr:city": "Ahmedabad", "addr:housename": "Sigma Icon", "addr:postcode": "380015", "addr:street": "132 Ft. Ring Road", "addr:suburb": "Shyamal", "amenity": "fast_food", "brand": "Domino's", "brand:ks": "\u0688\u0648\u0645\u06cc\u0646\u0648\u0632", "brand:pa": "\u0a21\u0a4b\u0a2e\u0a40\u0a28\u0a4b\u0a1c\u0a3c", "brand:ur": "\u0688\u0648\u0645\u06cc\u0646\u0648\u0632", "brand:wikidata": "Q839466", "brand:wikipedia": "en:Domino's Pizza", "cuisine": "pizza", "delivery": "yes", "name": "Domino's", "name:ks": "\u0688\u0648\u0645\u06cc\u0646\u0648\u0632", "name:pa": "\u0a21\u0a4b\u0a2e\u0a40\u0a28\u0a4b\u0a1c\u0a3c", "name:ur": "\u0688\u0648\u0645\u06cc\u0646\u0648\u0632", "opening_hours": "Mo-Su 10:00-23:00", "phone": "18002081234", "takeaway": "yes"}}, {"type": "node", "id": 9009771427, "lat": 23.0123743, "lon": 72.511119, "tags": {"addr:city": "Ahmedabad", "addr:housenumber": "A-04 A-05", "addr:postcode": "380015", "addr:street": "100 Ft. Road", "amenity": "fast_food", "brand": "McDonald's", "brand:pa": "\u0a2e\u0a48\u0a15\u0a21\u0a4b\u0a28\u0a32\u0a21\u2019\u0a1c\u0a3c", "brand:ur": "\u0645\u06a9\u0688\u0648\u0646\u0644\u0688\u0632", "brand:wikidata": "Q38076", "brand:wikipedia": "en:McDonald's", "brand:wikipedia:pa": "\u0a2e\u0a48\u0a15\u0a21\u0a4b\u0a28\u0a32\u0a21\u2019\u0a1c\u0a3c", "brand:wikipedia:ur": "\u0645\u06a9\u0688\u0648\u0646\u0644\u0688\u0632", "cuisine": "burger", "name": "McDonald's", "name:pa": "\u0a2e\u0a48\u0a15\u0a21\u0a4b\u0a28\u0a32\u0a21\u2019\u0a1c\u0a3c", "name:ur": "\u0645\u06a9\u0688\u0648\u0646\u0644\u0688\u0632", "opening_hours": "Mo-Su 10:00-22:45", "phone": "+918928304108", "takeaway": "yes", "website": "https://www.mcdelivery.co.in/"}}, {"type": "node", "id": 9078990286, "lat": 23.0875987, "lon": 72.6839578, "tags": {"addr:city": "Ahmedabad", "addr:housenumber": "106, Naroda business hub, NR. New D-Mart, Naroda-dehgam road", "addr:postcode": "382330", "addr:street": "Hanspura", "air_conditioning": "yes", "amenity": "cafe", "bar": "no", "cuisine": "coffee_shop;pizza;burger;sandwich", "description": "Crush culture is a dine-in cafe bar with love and peaceful moments to be enjoyed. You can make parties over here like birthday, anniversary, reunion and bachelor party. Our specialty:- 1. Photo wall 2. Couple box 3. Nitrogen coffee 4. Fish massage 5. Birt", "image": "https://www.google.com/local/place/fid/0x395e81e7a7ee76af:0x348c69d3c446bfa4/photosphere?iu=https://lh5.googleusercontent.com/p/AF1QipNJ0e2M7nBwKtsz5pXD05YE1kgbJdg_zrJRvYPA%3Dw160-h106-k-no-pi-0-ya60.000004-ro-0-fo100&ik=CAoSLEFGMVFpcE5KMGUyTTduQndLdHN6NX", "internet_access": "no", "name": "Crush Culture Cafe Bar", "opening_hours": "Mo-Su 10:00-22:00", "phone": "+91 9974 973181", "source": "Flood DMBD;Flood;Flood DMBD Clientele;Reu", "website": "https://instagram.com/crush_culture_cafebar?utm_medium=copy_link"}}, {"type": "node", "id": 9116794693, "lat": 23.0496098, "lon": 72.6705415, "tags": {"addr:city": "Ahmedabad", "addr:postcode": "382350", "air_conditioning": "yes", "amenity": "cafe", "capacity": "30", "cuisine": "pizza;regional;burger;coffee_shop;italian;chinese;sandwich;asian;indian", "internet_access": "no", "name": "Dadu Cafe", "opening_hours": "Mo-Su 11:00-23:00", "phone": "+91 97254 00091", "source": "Flood DMBD", "website": "https://www.instagram.com/dadu_cafe_nikol/"}}, {"type": "node", "id": 9123574763, "lat": 23.0361967, "lon": 72.5110489, "tags": {"amenity": "fast_food", "cuisine": "pizza;burger;sandwich;fast_food;tea_shop;juice", "drive_through": "no", "name": "Deva's Coffee Bar"}}, {"type": "node", "id": 9287451026, "lat": 23.0371443, "lon": 72.5290405, "tags": {"addr:housenumber": "Himalaya Arcade B", "addr:street": "Sargam Marg, Nehru Park Cir, Mahavir Nagar society, Vastrapur, Ahmedabad, Gujarat 380015", "amenity": "fast_food", "name": "Shreeji Krupa Bombay Vadapav"}}, {"type": "node", "id": 9292073779, "lat": 23.0319557, "lon": 72.5107614, "tags": {"addr:postcode": "380054", "amenity": "cafe", "brand": "Starbucks", "cuisine": "coffee_shop", "name": "Starbucks Bodakdev", "official_name": "Starbucks Coffee", "opening_hours": "Mo-Su 7:00-24:00", "takeaway": "yes", "website": "https://www.starbucks.in/"}}, {"type": "node", "id": 9292073782, "lat": 23.0318311, "lon": 72.511298, "tags": {"addr:housenumber": "Ground Floor 6-9", "addr:postcode": "380054", "amenity": "cafe", "name": "mocha", "opening_hours": "Mo-Su 11:00-23:00", "website": "https://www.mocha.co.in/"}}, {"type": "node", "id": 9296316189, "lat": 23.0371776, "lon": 72.5291086, "tags": {"addr:housenumber": "Himalaya Arcade B", "addr:street": "Sargam Marg, Nehru Park Cir, Mahavir Nagar society, Vastrapur, Ahmedabad, Gujarat 380015", "amenity": "fast_food", "name": "Gajanand Pauva House", "opening_hours": "Mo-Su 04:30-23:30"}}, {"type": "node", "id": 9296318313, "lat": 23.0371316, "lon": 72.5290981, "tags": {"addr:housenumber": "Himalaya Arcade B", "addr:street": "Sargam Marg, Nehru Park Cir, Mahavir Nagar society, Vastrapur, Ahmedabad, Gujarat 380015", "amenity": "fast_food", "description": "Chole Puri, Parathas, Thepla, Pulav", "name": "Jay Mataji Fast Food", "opening_hours": "Mo-Su 08:00-21:00", "phone": "+919377080380"}}, {"type": "node", "id": 9309824446, "lat": 23.0173689, "lon": 72.549852}, {"type": "node", "id": 9309824447, "lat": 23.0173752, "lon": 72.5499428}, {"type": "node", "id": 9309824448, "lat": 23.0176841, "lon": 72.5499175}, {"type": "node", "id": 9309824449, "lat": 23.0176778, "lon": 72.5498267}, {"type": "node", "id": 9309824470, "lat": 23.020025, "lon": 72.5508055}, {"type": "node", "id": 9309824471, "lat": 23.020196, "lon": 72.5509193}, {"type": "node", "id": 9309824472, "lat": 23.0203177, "lon": 72.5507035}, {"type": "node", "id": 9309824473, "lat": 23.0201467, "lon": 72.5505896}, {"type": "node", "id": 9309824509, "lat": 23.0181819, "lon": 72.5501708}, {"type": "node", "id": 9309824510, "lat": 23.01825, "lon": 72.5505184}, {"type": "node", "id": 9309824511, "lat": 23.0183646, "lon": 72.5504919}, {"type": "node", "id": 9309824512, "lat": 23.0182965, "lon": 72.5501443}, {"type": "node", "id": 9310259802, "lat": 23.0201101, "lon": 72.5508621}, {"type": "node", "id": 9318813907, "lat": 23.0276271, "lon": 72.5588748, "tags": {"address": "Ground Floor 1, P 2 HUB Opposite National Handloom, Law Garden Road, Off, Chimanlal Girdharlal Rd, Ahmedabad, Gujarat 380006", "amenity": "fast_food", "cuisine": "pizza", "name": "Puffiza", "opening_hours": "Mo-Su 11:00-22:00", "phone": "079 4039 5555", "website": "https://puffiza.com"}}, {"type": "node", "id": 9951265800, "lat": 23.0218092, "lon": 72.5062361, "tags": {"address": "Service Road, Besides Novotel, Opposite Karnavati Club, S.G. Highway, Ahmedabad", "amenity": "fast_food", "name": "Bhookh Lagi Hai?", "phone": "+919001293435"}}, {"type": "node", "id": 10128943740, "lat": 23.0630354, "lon": 72.6588726, "tags": {"addr:city": "Ahmedabad", "addr:housenumber": "Shop No-21", "addr:postcode": "382345", "addr:street": "Siddhi Vinayak Residency, Near St. Mary's School, Nava Naroda", "amenity": "food_court", "contact:phone": "+91 8448463778", "contact:website": "https://www.inhungr.in", "email": "info@inhungr.in", "internet_access": "yes", "internet_access:fee": "customers", "internet_access:ssid": "inHungr WiFi", "name": "inHungr", "opening_hours": "Mo-Su 09:00-23:00", "phone": "+91 8448463778", "website": "https://www.inhungr.in"}}, {"type": "node", "id": 10225625719, "lat": 23.0319107, "lon": 72.5883477, "tags": {"amenity": "cafe", "cuisine": "indian", "name": "Authentic cafe"}}, {"type": "node", "id": 10613549262, "lat": 23.0204223, "lon": 72.5831715, "tags": {"addr:city": "Ahmedabad", "addr:housenumber": "A33", "addr:postcode": "380001", "addr:street": "MG Road", "amenity": "bar", "min_age": "18+", "name": "benstroke", "opening_hours": "Mo-Su 09:00-21:00"}}, {"type": "node", "id": 10750415881, "lat": 23.0410761, "lon": 72.5269272, "tags": {"amenity": "cafe", "name": "Choco drama"}}, {"type": "node", "id": 10750415885, "lat": 23.0407863, "lon": 72.5275081, "tags": {"amenity": "fast_food", "name": "leela sandwich"}}, {"type": "node", "id": 11148504926, "lat": 23.1252884, "lon": 72.613135}, {"type": "node", "id": 11148504927, "lat": 23.1251242, "lon": 72.6131572}, {"type": "node", "id": 11148504928, "lat": 23.1251568, "lon": 72.6134425}, {"type": "node", "id": 11148504929, "lat": 23.125321, "lon": 72.6134203}, {"type": "node", "id": 11148561615, "lat": 23.1251337, "lon": 72.6132405}, {"type": "node", "id": 11148561643, "lat": 23.1251821, "lon": 72.6134391}, {"type": "node", "id": 11148561644, "lat": 23.1251576, "lon": 72.6131527}, {"type": "node", "id": 11148569958, "lat": 23.1252915, "lon": 72.6131751}, {"type": "node", "id": 11148569959, "lat": 23.1253256, "lon": 72.6131703}, {"type": "node", "id": 11148569960, "lat": 23.1253518, "lon": 72.6133886}, {"type": "node", "id": 11148569961, "lat": 23.1253177, "lon": 72.6133935}, {"type": "node", "id": 11247858482, "lat": 23.0431434, "lon": 72.5760411}, {"type": "node", "id": 11247858483, "lat": 23.0431397, "lon": 72.5760954}, {"type": "node", "id": 11247858484, "lat": 23.0431889, "lon": 72.5760993}, {"type": "node", "id": 11247858485, "lat": 23.0431926, "lon": 72.576045}, {"type": "node", "id": 11249193645, "lat": 23.0058373, "lon": 72.5696273}, {"type": "node", "id": 11249193646, "lat": 23.0059583, "lon": 72.569697}, {"type": "node", "id": 11249193647, "lat": 23.0059819, "lon": 72.5696486}, {"type": "node", "id": 11249193648, "lat": 23.0058609, "lon": 72.5695789}, {"type": "node", "id": 11539673209, "lat": 22.9782788, "lon": 72.6106967, "tags": {"amenity": "fast_food", "cuisine": "indian", "diet:healthy": "yes", "diet:vegetarian": "yes", "drive_through": "yes", "name": "Sakha Surti Locho & Rasawala Khaman", "opening_hours": "Mo-Fr 09:00-17:00", "operator": "Vaishali Khatri", "phone": "+91 8780680039"}}, {"type": "way", "id": 49406390, "nodes": [627507677, 627507685, 627507694, 627507680, 627507677], "tags": {"alt_name": "BMW", "amenity": "fast_food", "name": "Canteen"}}, {"type": "way", "id": 366466142, "nodes": [3704445090, 3704445118, 3704445097, 3704445080, 3704445090], "tags": {"amenity": "food_court", "building": "yes", "name": "Premvati", "opening_hours": "Mo-Su 10:30-23:00"}}, {"type": "way", "id": 367198356, "nodes": [3711448090, 3711448102, 3711448088, 3711448069, 3711448090], "tags": {"amenity": "cafe", "building": "yes", "internet_access": "no", "internet_access:fee": "no", "name": "Upper crust cafe", "outdoor_seating": "no", "smoking": "no"}}, {"type": "way", "id": 404227760, "nodes": [4065020656, 4065020657, 4065020653, 4065020652, 4065020656], "tags": {"amenity": "cafe", "building": "yes", "name": "MG Science Canteen"}}, {"type": "way", "id": 451500298, "nodes": [4483310568, 4483310569, 4483310570, 4483310571, 4483310572, 4483310568], "tags": {"amenity": "fast_food", "building": "yes", "name": "kAKA Ni Bhaji pav"}}, {"type": "way", "id": 1009015692, "nodes": [9309824449, 9309824448, 9309824447, 9309824446, 9309824449], "tags": {"amenity": "food_court", "building": "yes"}}, {"type": "way", "id": 1009015696, "nodes": [9309824473, 9309824472, 9309824471, 9310259802, 9309824470, 9309824473], "tags": {"amenity": "food_court", "building": "yes", "name": "Smt. Manekba Swadhyay Khand", "name:en": "Mrs. Manekba Study Hall"}}, {"type": "way", "id": 1009015700, "nodes": [9309824512, 9309824511, 9309824510, 9309824509, 9309824512], "tags": {"amenity": "food_court", "building": "yes"}}, {"type": "way", "id": 1202571602, "nodes": [11148504926, 11148561644, 11148504927, 11148561615, 11148504928, 11148561643, 11148504929, 11148569961, 11148569958, 11148504926], "tags": {"amenity": "food_court", "building": "yes", "level": "2", "name": "Bhojanshala"}}, {"type": "way", "id": 1202581525, "nodes": [11148569958, 11148569959, 11148569960, 11148569961, 11148569958], "tags": {"amenity": "kitchen", "building": "yes"}}, {"type": "way", "id": 1214030700, "nodes": [11247858485, 11247858484, 11247858483, 11247858482, 11247858485], "tags": {"amenity": "cafe", "building": "yes"}}, {"type": "way", "id": 1214151893, "nodes": [11249193648, 11249193647, 11249193646, 11249193645, 11249193648], "tags": {"amenity": "cafe", "building": "yes"}}]}