{"version": 0.6, "generator": "Overpass API 0.7.61.5 4133829e", "osm3s": {"timestamp_osm_base": "2024-02-25T09:24:29Z", "copyright": "The data included in this document is from www.openstreetmap.org. The data is made available under ODbL."}, "elements": [{"type": "node", "id": 297478635, "lat": 21.1262454, "lon": 79.0474276}, {"type": "node", "id": 898921071, "lat": 21.0900634, "lon": 79.054171, "tags": {"aeroway": "fuel", "amenity": "fuel", "brand": "Indian Oil", "brand:wikidata": "Q1289348", "brand:wikipedia": "en:Indian Oil Corporation", "name": "Indian Oil"}}, {"type": "node", "id": 2536671175, "lat": 21.1464201, "lon": 79.1083417, "tags": {"addr:housename": "Shirpurkar House", "addr:street": "Kelibag Road", "amenity": "bank", "brand": "Bank of Maharashtra", "brand:wikidata": "Q2004304", "brand:wikipedia": "en:Bank of Maharashtra", "name": "Bank of Maharashtra", "name:en": "Bank of Maharashtra", "website": "https://www.bankofmaharashtra.in/"}}, {"type": "node", "id": 2536671188, "lat": 21.1451991, "lon": 79.1123767, "tags": {"addr:city": "Nagpur", "addr:postcode": "440002", "addr:street": "Natraj Aychit Road", "amenity": "bank", "name": "Bank of India Mahal Branch"}}, {"type": "node", "id": 2593292926, "lat": 21.1363295, "lon": 79.0959736, "tags": {"amenity": "fuel"}}, {"type": "node", "id": 2593292972, "lat": 21.1314309, "lon": 79.0985646, "tags": {"amenity": "fuel", "name:en": "Indian Oil"}}, {"type": "node", "id": 2593305870, "lat": 21.104984, "lon": 79.1026907, "tags": {"amenity": "fuel", "brand": "Hindustan Petroleum", "brand:wikidata": "Q1619375", "brand:wikipedia": "en:Hindustan Petroleum", "name": "HP", "official_name": "Hindustan Petroleum"}}, {"type": "node", "id": 2593305997, "lat": 21.1054507, "lon": 79.1016457, "tags": {"amenity": "fuel", "brand": "Indian Oil", "brand:wikidata": "Q1289348", "brand:wikipedia": "en:Indian Oil Corporation", "name": "Indian Oil"}}, {"type": "node", "id": 2683309018, "lat": 21.1358579, "lon": 79.0609964}, {"type": "node", "id": 2683309019, "lat": 21.1358129, "lon": 79.0608248}, {"type": "node", "id": 2683309020, "lat": 21.135527, "lon": 79.0609523}, {"type": "node", "id": 2683309021, "lat": 21.1355723, "lon": 79.0610936}, {"type": "node", "id": 2684985217, "lat": 21.1184025, "lon": 79.0640416, "tags": {"addr:housename": "Surendra Nagar Branch", "amenity": "bank", "branch": "Surendra Nagar", "brand": "State Bank of India", "brand:wikidata": "Q1340361", "name": "State Bank of India", "short_name": "SBI"}}, {"type": "node", "id": 2951962799, "lat": 21.1162197, "lon": 79.0371876, "tags": {"amenity": "bank", "atm": "no", "name": "Dharampeth Mahila Bank"}}, {"type": "node", "id": 3062461891, "lat": 21.1120416, "lon": 79.0666514, "tags": {"addr:city": "Nagpur", "addr:postcode": "440010", "addr:street": "Khamla Rd, Deo Nagar", "amenity": "bank", "brand": "Oriental Bank of Commerce", "brand:wikidata": "Q367008", "name": "Oriental Bank of Commerce", "name:en": "Oriental Bank of Commerce", "opening_hours": "10:00-18:00", "phone": "0712 263 4824", "short_name": "OBC", "website": "https://www.obcindia.co.in"}}, {"type": "node", "id": 3062468157, "lat": 21.1170642, "lon": 79.0645077, "tags": {"amenity": "fuel", "name": "Petrol Pump"}}, {"type": "node", "id": 3062479160, "lat": 21.1212783, "lon": 79.0564034, "tags": {"amenity": "fuel", "name": "Vishal HP Petrol Pump"}}, {"type": "node", "id": 3068231676, "lat": 21.1220734, "lon": 79.0572055, "tags": {"amenity": "bank", "brand": "Axis Bank", "brand:wikidata": "Q2003549", "brand:wikipedia": "en:Axis Bank", "name": "Axis Bank", "name:en": "Axis Bank", "website": "https://www.axisbank.com"}}, {"type": "node", "id": 3073140566, "lat": 21.1527916, "lon": 79.0772592, "tags": {"amenity": "bank", "name": "Standard Charted Bank"}}, {"type": "node", "id": 3073142142, "lat": 21.1530228, "lon": 79.0744314, "tags": {"amenity": "bank", "name": "Union Bank of India ATM"}}, {"type": "node", "id": 3073149145, "lat": 21.1549026, "lon": 79.0745382, "tags": {"amenity": "bank", "name": "Axis Bank ATM"}}, {"type": "node", "id": 3073150143, "lat": 21.1552682, "lon": 79.073788, "tags": {"amenity": "bank", "brand": "Bank of Maharashtra", "brand:wikidata": "Q2004304", "name": "Bank of Maharashtra", "name:en": "Bank of Maharashtra", "website": "https://www.bankofmaharashtra.in/"}}, {"type": "node", "id": 3141293328, "lat": 21.1536024, "lon": 79.0123401, "tags": {"amenity": "bank", "atm": "yes", "brand": "Axis Bank", "brand:wikidata": "Q2003549", "name": "Axis Bank", "name:en": "Axis Bank", "website": "https://www.axisbank.com"}}, {"type": "node", "id": 3141299099, "lat": 21.153214, "lon": 79.0053415, "tags": {"amenity": "bank", "atm": "yes", "brand": "State Bank of India", "brand:wikidata": "Q1340361", "brand:wikipedia": "en:State Bank of India", "name": "State Bank of India", "short_name": "SBI", "website": "https://www.sbi.co.in"}}, {"type": "node", "id": 3141300537, "lat": 21.1531423, "lon": 79.0038681, "tags": {"amenity": "bank", "brand": "Axis Bank", "brand:wikidata": "Q2003549", "brand:wikipedia": "en:Axis Bank", "name": "Axis Bank", "name:en": "Axis Bank", "website": "https://www.axisbank.com"}}, {"type": "node", "id": 3141393313, "lat": 21.1482037, "lon": 79.0742329, "tags": {"amenity": "bank", "brand": "Union Bank of India", "brand:wikidata": "Q2004078", "brand:wikipedia": "en:Union Bank of India", "name": "Union Bank of India", "name:en": "Union Bank of India", "short_name": "UBI", "website": "https://www.unionbankofindia.co.in/"}}, {"type": "node", "id": 3141401262, "lat": 21.1493076, "lon": 79.0741102, "tags": {"amenity": "bank", "brand": "Axis Bank", "brand:wikidata": "Q2003549", "brand:wikipedia": "en:Axis Bank", "name": "Axis Bank", "name:en": "Axis Bank", "website": "https://www.axisbank.com"}}, {"type": "node", "id": 3141403003, "lat": 21.149014, "lon": 79.0740849, "tags": {"amenity": "bank", "atm": "yes", "brand": "Bank of India", "brand:wikidata": "Q2004439", "brand:wikipedia": "en:Bank of India", "name": "Bank of India", "name:en": "Bank of India", "short_name": "BoI", "website": "https://www.bankofindia.co.in/"}}, {"type": "node", "id": 3143163408, "lat": 21.1513079, "lon": 79.102316, "tags": {"amenity": "bank", "brand": "Canara Bank", "brand:pa": "\u0a15\u0a47\u0a28\u0a30\u0a3e \u0a2c\u0a48\u0a02\u0a15", "brand:ur": "\u06a9\u06cc\u0646\u0631\u0627 \u0628\u06cc\u0646\u06a9", "brand:wikidata": "Q2003777", "brand:wikipedia": "en:Canara Bank", "brand:wikipedia:pa": "\u0a15\u0a47\u0a28\u0a30\u0a3e \u0a2c\u0a48\u0a02\u0a15", "name": "Canara Bank", "name:pa": "\u0a15\u0a47\u0a28\u0a30\u0a3e \u0a2c\u0a48\u0a02\u0a15", "name:ur": "\u06a9\u06cc\u0646\u0631\u0627 \u0628\u06cc\u0646\u06a9", "website": "https://www.canarabank.com/"}}, {"type": "node", "id": 3143164522, "lat": 21.1512788, "lon": 79.1026788, "tags": {"amenity": "bank", "brand": "State Bank of India", "brand:wikidata": "Q1340361", "brand:wikipedia": "en:State Bank of India", "name": "State Bank of India", "short_name": "SBI"}}, {"type": "node", "id": 3143179851, "lat": 21.1460283, "lon": 79.0677766, "tags": {"addr:city": "Nagpur", "addr:postcode": "440001", "addr:street": "National Highway 6, Gorepeth", "amenity": "fuel", "name": "Bhole Petrol Pump"}}, {"type": "node", "id": 3148654533, "lat": 21.1366854, "lon": 79.1030128, "tags": {"addr:city": "Nagpur", "addr:postcode": "440009", "addr:street": "349, Samrat Ashok Chowk, Great Nag Road", "amenity": "fuel", "name": "Prasanna Diesels", "phone": "094231 00568", "website": "prasannadiesels.com"}}, {"type": "node", "id": 3151956929, "lat": 21.1333986, "lon": 79.0972521, "tags": {"addr:postcode": "440009", "addr:street": "Medical College Rd, Hanuman Nagar, Rambagh Nagpur", "amenity": "bank", "atm": "yes", "name": "Indian Overseas Bank ATM - Hanuman Nagar", "phone": "1800 425 4445", "website": "https://iob.in/"}}, {"type": "node", "id": 3174195428, "lat": 21.1155968, "lon": 79.0709418, "tags": {"addr:city": "Nagpur", "addr:postcode": "440015", "addr:street": "Wardha Rd Deo Nagar", "amenity": "bank", "brand": "HDFC", "brand:wikidata": "Q631047", "name": "HDFC Bank", "phone": "098906 03333", "short_name": "HDFC", "website": "https://www.hdfcbank.com"}}, {"type": "node", "id": 3207768403, "lat": 21.1884155, "lon": 79.0900369, "tags": {"amenity": "fuel"}}, {"type": "node", "id": 3629021740, "lat": 21.1109862, "lon": 79.0704837, "tags": {"addr:city": "Nagpur", "addr:postcode": "440015", "addr:street": "Plot No 8a, Santkruppa, Near Sneh Nagar Ring Road Chhatrapati Square", "amenity": "bank", "atm": "yes", "name": "ICICI Bank Branch & ATM"}}, {"type": "node", "id": 3629040355, "lat": 21.1111349, "lon": 79.0696197, "tags": {"addr:city": "Nagpur", "addr:postcode": "440015", "addr:street": "Plot No. 7 9, Khamla Ring Rd, Wardha Rd Opposite Mahatma Eye Hospital, Chatrapati Square, Near Sai Mandir, Opposite Chawla Palace, Hindustan Colony, Sawarkar Nagar, Chatrapati Nagar", "amenity": "bank", "name": "HDFC Bank- Wardha Road Branch", "phone": "098906 03333", "website": "https://www.hdfcbank.com/"}}, {"type": "node", "id": 3629054852, "lat": 21.1110828, "lon": 79.0679671, "tags": {"addr:city": "Nagpur", "addr:postcode": "440015", "addr:street": "Ring Rd Narendra Nagar, Shree Nagar", "amenity": "fuel", "brand": "Bharat Petroleum", "brand:wikidata": "Q854826", "name": "Bharat Petroleum", "phone": "1800 22 2725", "website": "bharatpetroleum.com"}}, {"type": "node", "id": 3629102845, "lat": 21.1113072, "lon": 79.0671638, "tags": {"addr:city": "Nagpur", "addr:postcode": "440015", "addr:street": "New Sneh Nagar", "amenity": "bank", "brand": "UCO Bank", "brand:wikidata": "Q2005310", "name": "UCO Bank", "name:en": "UCO Bank", "old_name": "United Commercial Bank", "phone": "1800 103 0123", "website": "https://www.ucobank.com"}}, {"type": "node", "id": 3848651344, "lat": 21.1101082, "lon": 79.0565231}, {"type": "node", "id": 3848651345, "lat": 21.1101082, "lon": 79.0567625}, {"type": "node", "id": 3848651346, "lat": 21.1099308, "lon": 79.0567526}, {"type": "node", "id": 3848651347, "lat": 21.1099308, "lon": 79.0565001}, {"type": "node", "id": 3912532763, "lat": 21.1230701, "lon": 79.1166434}, {"type": "node", "id": 3912532764, "lat": 21.1230713, "lon": 79.1168064}, {"type": "node", "id": 3912532765, "lat": 21.1233122, "lon": 79.1166414}, {"type": "node", "id": 3912532766, "lat": 21.1233134, "lon": 79.1168043}, {"type": "node", "id": 3933399987, "lat": 21.1184886, "lon": 79.10471, "tags": {"amenity": "bank", "atm": "no", "brand": "Nagpur Nagarik Sahakari Bank", "name": "Nagpur Nagarik Sahakari Bank Ltd., Manewada"}}, {"type": "node", "id": 3933399988, "lat": 21.1193044, "lon": 79.1044543, "tags": {"amenity": "bank", "atm": "no", "brand": "Union Bank of India", "brand:wikidata": "Q2004078", "brand:wikipedia": "en:Union Bank of India", "name": "Union Bank of India", "name:en": "Union Bank of India", "short_name": "UBI", "website": "https://www.unionbankofindia.co.in/"}}, {"type": "node", "id": 3937204478, "lat": 21.1176148, "lon": 79.1115991}, {"type": "node", "id": 3937204479, "lat": 21.1176267, "lon": 79.1114329}, {"type": "node", "id": 3937204481, "lat": 21.1176748, "lon": 79.111604}, {"type": "node", "id": 3937204482, "lat": 21.1176867, "lon": 79.1114378}, {"type": "node", "id": 3937316702, "lat": 21.1127864, "lon": 79.1038129, "tags": {"addr:place": "Manewada", "amenity": "bank", "atm": "yes", "brand": "Axis Bank", "brand:wikidata": "Q2003549", "brand:wikipedia": "en:Axis Bank", "name": "Axis Bank", "name:en": "Axis Bank", "website": "https://www.axisbank.com"}}, {"type": "node", "id": 3937316703, "lat": 21.1128417, "lon": 79.1038216, "tags": {"amenity": "bank", "atm": "yes", "brand": "Bank of India", "brand:wikidata": "Q2004439", "brand:wikipedia": "en:Bank of India", "name": "Bank of India", "name:en": "Bank of India", "short_name": "BoI", "website": "https://www.bankofindia.co.in/"}}, {"type": "node", "id": 3962043564, "lat": 21.1937222, "lon": 79.1643742, "tags": {"amenity": "fuel", "name": "Hindustan petroleum"}}, {"type": "node", "id": 3962043565, "lat": 21.19834, "lon": 79.1710787, "tags": {"amenity": "fuel", "brand": "Indian Oil", "brand:wikidata": "Q1289348", "brand:wikipedia": "en:Indian Oil Corporation", "name": "Indian Oil"}}, {"type": "node", "id": 3962043567, "lat": 21.1908623, "lon": 79.1614578, "tags": {"amenity": "fuel", "name": "Reliance Petrol Pump"}}, {"type": "node", "id": 3963888178, "lat": 21.1167447, "lon": 79.1082926, "tags": {"amenity": "fuel", "brand": "Indian Oil Corporation", "fuel:lpg": "yes", "name": "A M Indane", "operator": "A M Indane"}}, {"type": "node", "id": 3963888180, "lat": 21.1175528, "lon": 79.1065751, "tags": {"amenity": "bank", "branch": "Manewada", "brand": "HDFC Bank", "brand:wikidata": "Q631047", "brand:wikipedia": "en:HDFC Bank", "name": "HDFC Bank", "short_name": "HDFC", "website": "https://www.hdfcbank.com"}}, {"type": "node", "id": 3963888181, "lat": 21.1173585, "lon": 79.1088202, "tags": {"amenity": "fuel", "brand": "Hindustan Petroleum", "brand:wikidata": "Q1619375", "brand:wikipedia": "en:Hindustan Petroleum", "name": "HP", "official_name": "Hindustan Petroleum"}}, {"type": "node", "id": 3963888184, "lat": 21.1175567, "lon": 79.106448, "tags": {"amenity": "bank", "branch": "Manewada", "brand": "State Bank of India", "brand:wikidata": "Q1340361", "brand:wikipedia": "en:State Bank of India", "name": "State Bank of India", "short_name": "SBI"}}, {"type": "node", "id": 3968211959, "lat": 21.1309819, "lon": 79.078042, "tags": {"amenity": "fuel", "brand": "Hindustan Petroleum", "brand:wikidata": "Q1619375", "brand:wikipedia": "en:Hindustan Petroleum", "name": "HP", "official_name": "Hindustan Petroleum"}}, {"type": "node", "id": 3978219980, "lat": 21.1075893, "lon": 79.1034171, "tags": {"amenity": "bank", "name": "Shree Ajitnath Sahakari Gruhanirman Sanstha Maryadit Nagpur"}}, {"type": "node", "id": 3978219981, "lat": 21.1071329, "lon": 79.1032579, "tags": {"amenity": "bank", "name": "Shree Ram Urban Co-Operative Bank Limited Nagpur"}}, {"type": "node", "id": 3978219982, "lat": 21.1068784, "lon": 79.1031569, "tags": {"amenity": "bank", "name": "The Dharampeth Mahila Multi State Co Operative Society Limited Nagpur (Maharashtra and MP)"}}, {"type": "node", "id": 3978219983, "lat": 21.1074077, "lon": 79.1033474, "tags": {"amenity": "bank", "name": "The Maharashtra State Co-Operative Bank Limited Mumbai"}}, {"type": "node", "id": 3979328312, "lat": 21.1092559, "lon": 79.103729, "tags": {"amenity": "bank", "brand": "Allahabad Bank", "brand:wikidata": "Q2018840", "brand:wikipedia": "en:Allahabad Bank", "name": "Allahabad Bank", "name:en": "Allahabad Bank", "website": "https://www.allahabadbank.in"}}, {"type": "node", "id": 3979328321, "lat": 21.1163736, "lon": 79.1044726, "tags": {"amenity": "bank", "name": "Dr. Punjabrao Deshmukh Nagari Sahakari Pat Sanstha Maryadit. Nagpur"}}, {"type": "node", "id": 3979328327, "lat": 21.1170373, "lon": 79.1045331, "tags": {"amenity": "bank", "name": "Hanuman Credit Sahakari Sanstha Maryadit, Nagpur District"}}, {"type": "node", "id": 3979328328, "lat": 21.1088238, "lon": 79.1036917, "tags": {"amenity": "bank", "name": "Himalaya Sahakari Pat Sanstha Maryadit Nagpur District"}}, {"type": "node", "id": 3979328330, "lat": 21.117695, "lon": 79.1043082, "tags": {"amenity": "bank", "name": "Karnalbag Sahakari Credit Society Maryadit"}}, {"type": "node", "id": 3979328337, "lat": 21.1132411, "lon": 79.1039465, "tags": {"amenity": "bank", "name": "Mitra Nagar Nagari Pat Sanstha Maryadit Nagpur"}}, {"type": "node", "id": 3979328339, "lat": 21.1112954, "lon": 79.1039866, "tags": {"amenity": "bank", "name": "Nirmal Ujjwal Credit Co-Operative Society Limited, Nagpur (Multi-State)"}}, {"type": "node", "id": 3979328346, "lat": 21.1088585, "lon": 79.1036992, "tags": {"amenity": "bank", "name": "Samruddhi Co-Operative Bank Limited"}}, {"type": "node", "id": 3979328353, "lat": 21.115608, "lon": 79.1041175, "tags": {"amenity": "bank", "name": "Shree Gurumaooli Mahila Sahakari Pat Sanstha Maryadit, Nagpur Distt"}}, {"type": "node", "id": 3979329559, "lat": 21.1114215, "lon": 79.1036834, "tags": {"amenity": "bank", "name": "The Bhandara Urban Co-Operative Bank Limited"}}, {"type": "node", "id": 3992275913, "lat": 21.1414614, "lon": 79.0822734, "tags": {"amenity": "bank", "atm": "yes", "brand": "Bank of Baroda", "brand:wikidata": "Q2003797", "brand:wikipedia": "en:Bank of Baroda", "name": "Bank of Baroda", "name:en": "Bank of Baroda", "short_name": "BoB", "website": "http://www.bankofbaroda.com"}}, {"type": "node", "id": 3992276074, "lat": 21.1410221, "lon": 79.0825224, "tags": {"amenity": "bank", "brand": "Bank of Maharashtra", "brand:wikidata": "Q2004304", "brand:wikipedia": "en:Bank of Maharashtra", "name": "Bank of Maharashtra", "name:en": "Bank of Maharashtra", "website": "https://www.bankofmaharashtra.in/"}}, {"type": "node", "id": 4002906891, "lat": 21.1223448, "lon": 79.1051392, "tags": {"amenity": "bank", "atm": "no", "name": "Shikshak Sahakari Bank Limited"}}, {"type": "node", "id": 4367938409, "lat": 21.0568333, "lon": 79.1674411, "tags": {"amenity": "fuel", "name": "Reliance Petrol Pump"}}, {"type": "node", "id": 4406865103, "lat": 21.1186218, "lon": 79.1252932, "tags": {"addr:street": "Umred Road", "amenity": "bank", "name:en": "State Bank of India Dighori"}}, {"type": "node", "id": 4434541758, "lat": 21.1494755, "lon": 79.1095573, "tags": {"amenity": "bank", "atm": "yes", "brand": "State Bank of India", "brand:wikidata": "Q1340361", "brand:wikipedia": "en:State Bank of India", "level": "0", "name": "State Bank of India", "short_name": "SBI", "website": "https://www.sbi.co.in"}}, {"type": "node", "id": 4435892106, "lat": 21.130056, "lon": 79.1129025, "tags": {"amenity": "bank", "atm": "yes", "level": "0", "name": "Navoday Urban Co-Op Bank Ltd"}}, {"type": "node", "id": 4439970289, "lat": 21.1022289, "lon": 79.1465014, "tags": {"amenity": "fuel"}}, {"type": "node", "id": 4440797190, "lat": 21.0185061, "lon": 79.1808343, "tags": {"amenity": "fuel", "brand": "Indian Oil", "brand:wikidata": "Q1289348", "brand:wikipedia": "en:Indian Oil Corporation", "name:en": "Indian Oil", "operator": "Indian Oil"}}, {"type": "node", "id": 4534334090, "lat": 21.1327734, "lon": 79.0989192, "tags": {"amenity": "fuel", "name": "Bharat petroleum Fuel station"}}, {"type": "node", "id": 4534443291, "lat": 21.1532907, "lon": 79.0858662, "tags": {"amenity": "bank", "name:en": "State Bank of India Main branch"}}, {"type": "node", "id": 4534462290, "lat": 21.128592, "lon": 79.0997899, "tags": {"amenity": "bank", "name:en": "BOI Hanuman Nagar Br."}}, {"type": "node", "id": 4534475291, "lat": 21.1320445, "lon": 79.0979732, "tags": {"amenity": "bank", "name": "SBI Medical square Br."}}, {"type": "node", "id": 4534787895, "lat": 21.1330141, "lon": 79.0991038, "tags": {"amenity": "bank", "brand": "Bank of Baroda", "brand:wikidata": "Q2003797", "name": "Bank Of Baroda"}}, {"type": "node", "id": 4535424797, "lat": 21.1582555, "lon": 79.0794847, "tags": {"amenity": "fuel", "compressed_air": "yes", "name:en": "HP Petrol pump"}}, {"type": "node", "id": 4539123796, "lat": 21.1525945, "lon": 79.1058597, "tags": {"amenity": "bank", "name:en": "Akola Janta comm. Co-Op Bank Nagpur Br."}}, {"type": "node", "id": 4539123798, "lat": 21.1430461, "lon": 79.0955505, "tags": {"amenity": "fuel", "brand": "Hindustan Petroleum", "brand:wikidata": "Q1619375", "name": "HP", "official_name": "Hindustan Petroleum"}}, {"type": "node", "id": 4539126603, "lat": 21.149434, "lon": 79.1201215, "tags": {"amenity": "fuel", "brand": "Hindustan Petroleum", "brand:wikidata": "Q1619375", "name": "HP", "name:en": "HP Petrol Pump", "official_name": "Hindustan Petroleum"}}, {"type": "node", "id": 4539126993, "lat": 21.1526391, "lon": 79.0958493, "tags": {"amenity": "fuel", "name:en": "HP Petrol pump"}}, {"type": "node", "id": 4539564915, "lat": 21.1384636, "lon": 79.079639, "tags": {"amenity": "fuel", "name:en": "HP Petrol Pump"}}, {"type": "node", "id": 4539679995, "lat": 21.1372313, "lon": 79.0663121, "tags": {"amenity": "fuel", "name:en": "HP Petrol Pump"}}, {"type": "node", "id": 4540844792, "lat": 21.1509617, "lon": 79.1494047, "tags": {"amenity": "fuel", "name:en": "HP Auto Centre Petrol pump"}}, {"type": "node", "id": 4585080600, "lat": 21.1400618, "lon": 79.0605843, "tags": {"amenity": "bank", "name:en": "SBI Dharampeth", "name:hi": "\u092d\u093e\u0930\u0924\u0940\u092f \u0938\u094d\u091f\u0947\u091f \u092c\u0948\u0902\u0915 \u0927\u0930\u092e\u092a\u0947\u091f \u0936\u093e\u0916\u093e"}}, {"type": "node", "id": 4585112302, "lat": 21.1387098, "lon": 79.0601321, "tags": {"amenity": "bank", "name:en": "Andhra Bank Nagpur Main"}}, {"type": "node", "id": 4586137370, "lat": 21.1713986, "lon": 79.0800281, "tags": {"addr:street": "Koradi Road", "amenity": "fuel", "brand": "Bharat Petroleum"}}, {"type": "node", "id": 4598364049, "lat": 21.0932111, "lon": 79.0658797, "tags": {"amenity": "fuel", "brand": "Indian Oil", "brand:wikidata": "Q1289348", "brand:wikipedia": "en:Indian Oil Corporation", "name": "Indian Oil"}}, {"type": "node", "id": 4598364249, "lat": 21.0628979, "lon": 79.0576991, "tags": {"amenity": "fuel"}}, {"type": "node", "id": 4598364250, "lat": 21.0527078, "lon": 79.0537581, "tags": {"amenity": "fuel", "brand": "Bharat Petroleum", "brand:wikidata": "Q854826", "name": "Bharat Petroleum"}}, {"type": "node", "id": 4598364251, "lat": 21.0420055, "lon": 79.0515678, "tags": {"amenity": "fuel"}}, {"type": "node", "id": 4598364254, "lat": 21.0026978, "lon": 79.0403243, "tags": {"amenity": "fuel", "brand": "Indian Oil", "brand:wikidata": "Q1289348", "brand:wikipedia": "en:Indian Oil Corporation", "name": "Indian Oil"}}, {"type": "node", "id": 4641948292, "lat": 21.1474193, "lon": 79.1198176, "tags": {"amenity": "fuel", "brand": "Indian Oil", "brand:wikidata": "Q1289348", "name": "Indian Oil", "name:en": "Indian Oil"}}, {"type": "node", "id": 4679566516, "lat": 21.1521154, "lon": 79.0977233, "tags": {"amenity": "bank", "name:en": "State Bank of India - CA Road"}}, {"type": "node", "id": 4706629876, "lat": 21.0979376, "lon": 79.1516777, "tags": {"amenity": "fuel", "brand": "Bharat Petroleum", "brand:wikidata": "Q854826", "name": "Bharat Petroleum"}}, {"type": "node", "id": 4744751520, "lat": 21.1444383, "lon": 79.171933, "tags": {"amenity": "fuel", "brand": "Indian Oil", "brand:wikidata": "Q1289348", "brand:wikipedia": "en:Indian Oil Corporation", "name": "Indian Oil"}}, {"type": "node", "id": 4785404921, "lat": 21.0263391, "lon": 79.1746554, "tags": {"addr:street": "Umred Road", "amenity": "fuel", "name:en": "Essar Petrol Pump"}}, {"type": "node", "id": 4785405023, "lat": 21.0239537, "lon": 79.1767316, "tags": {"amenity": "fuel", "name:en": "HP Petrol Pump"}}, {"type": "node", "id": 4793678479, "lat": 21.0806328, "lon": 79.1599611}, {"type": "node", "id": 4793678480, "lat": 21.0809031, "lon": 79.1609053}, {"type": "node", "id": 4793678481, "lat": 21.079862, "lon": 79.1608087}, {"type": "node", "id": 4793678482, "lat": 21.0799871, "lon": 79.1601113}, {"type": "node", "id": 4798267623, "lat": 21.0424431, "lon": 79.1696365, "tags": {"addr:street": "Umred Road", "amenity": "fuel", "name:en": "Pawansut Petroleum"}}, {"type": "node", "id": 4984645252, "lat": 21.1078265, "lon": 79.0808295, "tags": {"amenity": "bank", "atm": "yes", "brand": "Yes Bank", "brand:wikidata": "Q2040394", "name": "Yes bank"}}, {"type": "node", "id": 4984664429, "lat": 21.1071559, "lon": 79.0830504, "tags": {"amenity": "bank", "atm": "yes", "name": "Boroda bank atm"}}, {"type": "node", "id": 4984668020, "lat": 21.1061096, "lon": 79.0884707, "tags": {"amenity": "bank", "atm": "yes", "name": "IDBI ATM"}}, {"type": "node", "id": 5035901952, "lat": 21.1341117, "lon": 79.0818334, "tags": {"amenity": "bank", "atm": "yes", "branch": "Dhantoli", "brand": "Axis Bank", "brand:wikidata": "Q2003549", "brand:wikipedia": "en:Axis Bank", "name": "Axis Bank"}}, {"type": "node", "id": 5039479214, "lat": 21.1023316, "lon": 79.1220425, "tags": {"amenity": "fuel"}}, {"type": "node", "id": 5048626127, "lat": 21.0155885, "lon": 79.1837355, "tags": {"amenity": "fuel"}}, {"type": "node", "id": 5048626128, "lat": 21.0384795, "lon": 79.1709804, "tags": {"amenity": "fuel"}}, {"type": "node", "id": 5048626129, "lat": 21.0646742, "lon": 79.1649697, "tags": {"amenity": "fuel"}}, {"type": "node", "id": 5048626130, "lat": 21.1059287, "lon": 79.1431652, "tags": {"amenity": "fuel"}}, {"type": "node", "id": 5063268859, "lat": 21.1775644, "lon": 79.0457953, "tags": {"amenity": "bank", "atm": "yes", "branch": "Friends Colony", "brand": "State Bank of India", "brand:wikidata": "Q1340361", "name": "State Bank of India", "ref": "SBIN0011418", "short_name": "SBI"}}, {"type": "node", "id": 5064426528, "lat": 21.1777675, "lon": 79.0455345, "tags": {"addr:city": "Nagpur", "amenity": "bank", "branch": "Gittikhadan", "brand": "Syndicate Bank", "brand:wikidata": "Q2004088", "name": "Syndicate Bank", "ref": "SYNB0005260"}}, {"type": "node", "id": 5098228380, "lat": 21.1145161, "lon": 79.114248, "tags": {"amenity": "fuel", "brand": "Bharat Petroleum", "brand:wikidata": "Q854826", "brand:wikipedia": "en:Bharat Petroleum", "name": "Bharat Petroleum"}}, {"type": "node", "id": 5132245122, "lat": 21.0645947, "lon": 79.1646925, "tags": {"addr:street": "Umred Road", "amenity": "fuel", "name:en": "Indian Oil"}}, {"type": "node", "id": 5149751724, "lat": 21.1972229, "lon": 79.1416924, "tags": {"amenity": "bank", "atm": "yes", "branch": "Bhilgaon", "brand": "Bank of India", "brand:wikidata": "Q2004439", "name": "Bank of India"}}, {"type": "node", "id": 5187814688, "lat": 21.1325235, "lon": 79.0538592, "tags": {"amenity": "bank", "atm": "yes", "brand": "State Bank of India", "brand:wikidata": "Q1340361", "brand:wikipedia": "en:State Bank of India", "name": "State Bank of India"}}, {"type": "node", "id": 5202346921, "lat": 21.1680746, "lon": 79.0911644, "tags": {"addr:street": "Kamptee Road", "amenity": "fuel"}}, {"type": "node", "id": 5224237915, "lat": 21.197483, "lon": 79.1349421, "tags": {"amenity": "bank", "atm": "yes", "branch": "Bhilgaon", "brand": "Canara Bank", "brand:pa": "\u0a15\u0a47\u0a28\u0a30\u0a3e \u0a2c\u0a48\u0a02\u0a15", "brand:ur": "\u06a9\u06cc\u0646\u0631\u0627 \u0628\u06cc\u0646\u06a9", "brand:wikidata": "Q2003777", "brand:wikipedia": "en:Canara Bank", "brand:wikipedia:pa": "\u0a15\u0a47\u0a28\u0a30\u0a3e \u0a2c\u0a48\u0a02\u0a15", "name": "Canara Bank", "name:pa": "\u0a15\u0a47\u0a28\u0a30\u0a3e \u0a2c\u0a48\u0a02\u0a15", "name:ur": "\u06a9\u06cc\u0646\u0631\u0627 \u0628\u06cc\u0646\u06a9"}}, {"type": "node", "id": 5352595615, "lat": 21.1018927, "lon": 79.0630926, "tags": {"addr:city": "Nagpur", "amenity": "bank", "atm": "yes", "brand": "State Bank of India", "brand:wikidata": "Q1340361", "name": "State Bank of India", "short_name": "SBI"}}, {"type": "node", "id": 5352596023, "lat": 21.0909376, "lon": 79.0775253, "tags": {"addr:city": "Nagpur", "amenity": "bank", "atm": "yes", "brand": "Axis Bank", "brand:wikidata": "Q2003549", "name": "Axis Bank"}}, {"type": "node", "id": 5392815131, "lat": 21.1231321, "lon": 79.0936728, "tags": {"amenity": "fuel", "name:en": "Bharat Petroleum"}}, {"type": "node", "id": 5484822321, "lat": 21.1051952, "lon": 79.1043592, "tags": {"amenity": "fuel", "name:en": "Harsh Servo"}}, {"type": "node", "id": 6162797493, "lat": 21.1527958, "lon": 79.1101797, "tags": {"addr:city": "Nagpur", "addr:street": "Itwari", "amenity": "bank", "branch": "Itwari, Nagpur", "brand": "State Bank of India", "brand:wikidata": "Q1340361", "brand:wikipedia": "en:State Bank of India", "email": "sbi.00518@sbi.co.in", "name": "State Bank of India"}}, {"type": "node", "id": 6219032869, "lat": 21.2051507, "lon": 79.1473934, "tags": {"amenity": "fuel", "brand": "Hindustan Petroleum", "brand:wikidata": "Q1619375", "name": "HP Petrol Pump", "official_name": "Hindustan Petroleum"}}, {"type": "node", "id": 6219032870, "lat": 21.2046481, "lon": 79.1463956, "tags": {"amenity": "fuel", "compressed_air": "yes", "name": "Mohammed Ali Petrol Pump"}}, {"type": "node", "id": 6219032871, "lat": 21.2091091, "lon": 79.1549277, "tags": {"amenity": "fuel", "name": "Petrol Pump"}}, {"type": "node", "id": 6219037388, "lat": 21.1966046, "lon": 79.1433232}, {"type": "node", "id": 6219037389, "lat": 21.1966972, "lon": 79.1433714}, {"type": "node", "id": 6219037390, "lat": 21.1967641, "lon": 79.1432432}, {"type": "node", "id": 6219037391, "lat": 21.1966684, "lon": 79.1431904}, {"type": "node", "id": 6225367305, "lat": 21.2100018, "lon": 79.185753, "tags": {"amenity": "bank", "name": "Muthoot Finance Kamptee"}}, {"type": "node", "id": 6225367310, "lat": 21.2081039, "lon": 79.1820073, "tags": {"amenity": "bank", "name": "Union Bank of India Kamptee"}}, {"type": "node", "id": 6225367312, "lat": 21.2073687, "lon": 79.1811946, "tags": {"amenity": "bank", "name": "Bank of India Ranala"}}, {"type": "node", "id": 6249168310, "lat": 21.1719165, "lon": 79.1164193, "tags": {"amenity": "bank", "brand": "Bank of Baroda", "brand:wikidata": "Q2003797", "name": "Bank of Baroda"}}, {"type": "node", "id": 6249168325, "lat": 21.1475056, "lon": 79.1077678, "tags": {"amenity": "bank", "brand": "State Bank of India", "brand:wikidata": "Q1340361", "brand:wikipedia": "en:State Bank of India", "name": "State Bank of India"}}, {"type": "node", "id": 6249168326, "lat": 21.1472605, "lon": 79.1068786, "tags": {"amenity": "bank", "brand": "Canara Bank", "brand:pa": "\u0a15\u0a47\u0a28\u0a30\u0a3e \u0a2c\u0a48\u0a02\u0a15", "brand:ur": "\u06a9\u06cc\u0646\u0631\u0627 \u0628\u06cc\u0646\u06a9", "brand:wikidata": "Q2003777", "brand:wikipedia": "en:Canara Bank", "brand:wikipedia:pa": "\u0a15\u0a47\u0a28\u0a30\u0a3e \u0a2c\u0a48\u0a02\u0a15", "name": "Canara Bank", "name:pa": "\u0a15\u0a47\u0a28\u0a30\u0a3e \u0a2c\u0a48\u0a02\u0a15", "name:ur": "\u06a9\u06cc\u0646\u0631\u0627 \u0628\u06cc\u0646\u06a9"}}, {"type": "node", "id": 6249168327, "lat": 21.1468952, "lon": 79.1042554, "tags": {"amenity": "bank", "name": "Gandhibag Sahakari Bank Ltd"}}, {"type": "node", "id": 6249232330, "lat": 21.1345419, "lon": 79.1006573, "tags": {"amenity": "bank", "name": "Axis Bank Medical Square Nagpur"}}, {"type": "node", "id": 6249232335, "lat": 21.1324429, "lon": 79.0984914, "tags": {"amenity": "bank", "brand": "IndusInd Bank", "brand:wikidata": "Q2040323", "name": "IndusInd Bank"}}, {"type": "node", "id": 6249232336, "lat": 21.1319563, "lon": 79.0985879, "tags": {"amenity": "bank", "brand": "Kotak Mahindra Bank", "brand:wikidata": "Q2040404", "name": "Kotak Mahindra Bank"}}, {"type": "node", "id": 6253705686, "lat": 20.9908029, "lon": 79.0317557, "tags": {"amenity": "fuel", "brand": "Bharat Petroleum", "brand:wikidata": "Q854826", "name": "Bharat Petroleum"}}, {"type": "node", "id": 6401680185, "lat": 21.1369051, "lon": 79.0595448, "tags": {"amenity": "bank", "name:en": "HDFC Bank"}}, {"type": "node", "id": 6926967985, "lat": 21.1056745, "lon": 79.1125321, "tags": {"amenity": "bank", "brand": "State Bank of India", "brand:wikidata": "Q1340361", "brand:wikipedia": "en:State Bank of India", "name": "State Bank of India", "survey:date": "2019-10-29"}}, {"type": "node", "id": 6967017485, "lat": 21.1066043, "lon": 79.0686516, "tags": {"amenity": "fuel", "name": "Go Gas", "survey:date": "2019-11-11"}}, {"type": "node", "id": 6983058885, "lat": 21.1089813, "lon": 79.0770729, "tags": {"amenity": "fuel"}}, {"type": "node", "id": 7274237056, "lat": 21.1525348, "lon": 79.0814409}, {"type": "node", "id": 7274237057, "lat": 21.1524097, "lon": 79.0812558}, {"type": "node", "id": 7274237058, "lat": 21.1522471, "lon": 79.0810815}, {"type": "node", "id": 7274237059, "lat": 21.1521846, "lon": 79.0810278}, {"type": "node", "id": 7274237060, "lat": 21.1521521, "lon": 79.0810761}, {"type": "node", "id": 7274237061, "lat": 21.1521596, "lon": 79.0813094}, {"type": "node", "id": 7274237062, "lat": 21.152137, "lon": 79.0815374}, {"type": "node", "id": 7274237063, "lat": 21.1523797, "lon": 79.0815777}, {"type": "node", "id": 7274237064, "lat": 21.1525423, "lon": 79.0815401}, {"type": "node", "id": 7274261785, "lat": 21.1415904, "lon": 79.0806067}, {"type": "node", "id": 7274261786, "lat": 21.1414553, "lon": 79.0807489}, {"type": "node", "id": 7274261787, "lat": 21.1413202, "lon": 79.0807864}, {"type": "node", "id": 7274261788, "lat": 21.1413302, "lon": 79.080663}, {"type": "node", "id": 7274261789, "lat": 21.1413827, "lon": 79.0805826}, {"type": "node", "id": 7274261790, "lat": 21.1414227, "lon": 79.0805557}, {"type": "node", "id": 7274261791, "lat": 21.1414878, "lon": 79.0805504}, {"type": "node", "id": 7776763285, "lat": 21.0849777, "lon": 79.1249267, "tags": {"amenity": "fuel", "brand": "Bharat Petroleum", "self_service": "no", "survey:date": "2020-08-02"}}, {"type": "node", "id": 7795870089, "lat": 21.0859687, "lon": 79.0929959, "tags": {"amenity": "fuel", "brand": "Indian Oil", "brand:wikidata": "Q1289348", "brand:wikipedia": "en:Indian Oil Corporation", "name": "Indian Oil"}}, {"type": "node", "id": 7984325733, "lat": 21.1219192, "lon": 79.0502196}, {"type": "node", "id": 7984325734, "lat": 21.1216917, "lon": 79.0501967}, {"type": "node", "id": 7984325735, "lat": 21.1217191, "lon": 79.049884}, {"type": "node", "id": 7984325736, "lat": 21.1219466, "lon": 79.0499069}, {"type": "node", "id": 7984466632, "lat": 21.1217066, "lon": 79.0500268}, {"type": "node", "id": 8327285854, "lat": 21.1532229, "lon": 79.0083463, "tags": {"amenity": "fuel", "brand": "Indian Oil", "brand:wikidata": "Q1289348", "brand:wikipedia": "en:Indian Oil Corporation", "name": "Indian Oil"}}, {"type": "node", "id": 8327285856, "lat": 21.1880587, "lon": 79.0903904, "tags": {"amenity": "fuel", "brand": "Hindustan Petroleum", "brand:wikidata": "Q1619375", "name": "HP Petrol Pump", "official_name": "Hindustan Petroleum"}}, {"type": "node", "id": 8400293331, "lat": 21.150823, "lon": 79.1024421}, {"type": "node", "id": 8400293332, "lat": 21.1508203, "lon": 79.1024751}, {"type": "node", "id": 8400293333, "lat": 21.150848, "lon": 79.1024441}, {"type": "node", "id": 8400293334, "lat": 21.1508419, "lon": 79.1024771}, {"type": "node", "id": 8400293335, "lat": 21.1508356, "lon": 79.1025526}, {"type": "node", "id": 8400293336, "lat": 21.1508534, "lon": 79.1023903}, {"type": "node", "id": 8400293337, "lat": 21.1509011, "lon": 79.1025588}, {"type": "node", "id": 8400293338, "lat": 21.1507948, "lon": 79.1023847}, {"type": "node", "id": 8400293339, "lat": 21.1508015, "lon": 79.1023147}, {"type": "node", "id": 8400293340, "lat": 21.1509291, "lon": 79.1023326}, {"type": "node", "id": 8752770823, "lat": 20.9720504, "lon": 79.0229279, "tags": {"amenity": "fuel", "brand": "Bharat Petroleum", "brand:wikidata": "Q854826", "name": "Bharat Petroleum", "survey:date": "2021-05-21"}}, {"type": "node", "id": 8752770824, "lat": 20.9883035, "lon": 79.030351, "tags": {"amenity": "bank", "brand": "State Bank of India", "brand:wikidata": "Q1340361", "name": "State Bank of India", "short_name": "SBI", "survey:date": "2021-05-21"}}, {"type": "node", "id": 8913967216, "lat": 21.1213814, "lon": 79.0564077}, {"type": "node", "id": 8913989917, "lat": 21.1213514, "lon": 79.0564928}, {"type": "node", "id": 8913989918, "lat": 21.1212763, "lon": 79.0565134}, {"type": "node", "id": 8913989919, "lat": 21.1212042, "lon": 79.0564537}, {"type": "node", "id": 8913989920, "lat": 21.1211892, "lon": 79.0564031}, {"type": "node", "id": 8913989921, "lat": 21.1212949, "lon": 79.0563158}, {"type": "node", "id": 8913989992, "lat": 21.1176135, "lon": 79.0565611, "tags": {"amenity": "bank", "brand": "State Bank of India", "brand:wikidata": "Q1340361", "brand:wikipedia": "en:State Bank of India", "name": "State Bank of India"}}, {"type": "node", "id": 8913990008, "lat": 21.1128107, "lon": 79.0491678, "tags": {"amenity": "fuel"}}, {"type": "node", "id": 9120324650, "lat": 21.1300655, "lon": 79.1128983, "tags": {"amenity": "bank"}}, {"type": "node", "id": 9729771242, "lat": 21.1238679, "lon": 79.0516484, "tags": {"barrier": "cycle_barrier", "bicycle": "no", "cycle_barrier": "double", "cycle_barrier:installation": "fixed", "foot": "yes", "motor_vehicle": "no"}}, {"type": "node", "id": 9729771243, "lat": 21.1237175, "lon": 79.0516332, "tags": {"barrier": "cycle_barrier", "bicycle": "no", "cycle_barrier": "double", "cycle_barrier:installation": "fixed", "foot": "yes", "motor_vehicle": "no"}}, {"type": "node", "id": 9729778337, "lat": 21.1254834, "lon": 79.0473965}, {"type": "node", "id": 9729778339, "lat": 21.125368, "lon": 79.0475641}, {"type": "node", "id": 9729778340, "lat": 21.1254071, "lon": 79.0475482}, {"type": "node", "id": 9729778341, "lat": 21.1254871, "lon": 79.0477417}, {"type": "node", "id": 9729778342, "lat": 21.1254201, "lon": 79.0477776}, {"type": "node", "id": 9729778343, "lat": 21.1254834, "lon": 79.0479272}, {"type": "node", "id": 9729778344, "lat": 21.1254517, "lon": 79.0479412}, {"type": "node", "id": 9729778345, "lat": 21.1254108, "lon": 79.0478494}, {"type": "node", "id": 9729778346, "lat": 21.1252749, "lon": 79.0479193}, {"type": "node", "id": 9729778347, "lat": 21.1253456, "lon": 79.0480908}, {"type": "node", "id": 9729778348, "lat": 21.1253122, "lon": 79.0481008}, {"type": "node", "id": 9729778349, "lat": 21.125355, "lon": 79.0482085}, {"type": "node", "id": 9729778350, "lat": 21.1254685, "lon": 79.0481567}, {"type": "node", "id": 9729778351, "lat": 21.1255094, "lon": 79.0482584}, {"type": "node", "id": 9729778352, "lat": 21.1256304, "lon": 79.0481966}, {"type": "node", "id": 9729778353, "lat": 21.1256043, "lon": 79.0481347}, {"type": "node", "id": 9729778354, "lat": 21.1258742, "lon": 79.048019}, {"type": "node", "id": 9729778355, "lat": 21.1258183, "lon": 79.0478813}, {"type": "node", "id": 9729778356, "lat": 21.1258798, "lon": 79.0478634}, {"type": "node", "id": 9729778357, "lat": 21.1257216, "lon": 79.0474923}, {"type": "node", "id": 9729778358, "lat": 21.1256471, "lon": 79.0475262}, {"type": "node", "id": 9729778359, "lat": 21.1256081, "lon": 79.0474324}, {"type": "node", "id": 9729778360, "lat": 21.1255113, "lon": 79.0474704}, {"type": "node", "id": 9729778394, "lat": 21.1238911, "lon": 79.0513854}, {"type": "node", "id": 9729778397, "lat": 21.1237406, "lon": 79.0513702}, {"type": "node", "id": 9729778405, "lat": 21.1227703, "lon": 79.0495799}, {"type": "node", "id": 9729778406, "lat": 21.1227593, "lon": 79.0497316}, {"type": "node", "id": 9729778407, "lat": 21.1226308, "lon": 79.0497276}, {"type": "node", "id": 9729778408, "lat": 21.1226348, "lon": 79.0495677}, {"type": "node", "id": 10706542107, "lat": 21.126488, "lon": 79.0470338}, {"type": "node", "id": 10706542108, "lat": 21.1265719, "lon": 79.0473173}, {"type": "node", "id": 10706542109, "lat": 21.1260548, "lon": 79.047492}, {"type": "node", "id": 10706542110, "lat": 21.1259657, "lon": 79.0472239}, {"type": "node", "id": 11021417143, "lat": 21.2408484, "lon": 79.0815608, "tags": {"amenity": "bank", "atm": "yes", "branch": "Koradi", "brand": "State Bank of India", "name": "State Bank of India", "opening_hours": "Mo-Sa 10:00-15:30", "short_name": "SBI"}}, {"type": "node", "id": 11129293012, "lat": 21.0327419, "lon": 79.0527098}, {"type": "node", "id": 11129293016, "lat": 21.0323414, "lon": 79.0517787}, {"type": "node", "id": 11129293017, "lat": 21.0329317, "lon": 79.0518207}, {"type": "node", "id": 11129293022, "lat": 21.0322354, "lon": 79.0526228}, {"type": "node", "id": 11129295225, "lat": 21.0135876, "lon": 79.0467511}, {"type": "node", "id": 11129295226, "lat": 21.0138402, "lon": 79.046746}, {"type": "node", "id": 11129295227, "lat": 21.0134318, "lon": 79.0467118}, {"type": "node", "id": 11129295228, "lat": 21.0136373, "lon": 79.0470285}, {"type": "node", "id": 11129295229, "lat": 21.0135416, "lon": 79.0469542}, {"type": "node", "id": 11129295230, "lat": 21.0135876, "lon": 79.0459675}, {"type": "node", "id": 11129295231, "lat": 21.0137613, "lon": 79.0470457}, {"type": "node", "id": 11129295232, "lat": 21.0139941, "lon": 79.0461381}, {"type": "node", "id": 11140273264, "lat": 21.12536, "lon": 79.0474893}, {"type": "node", "id": 11292430157, "lat": 21.1395596, "lon": 78.8045016}, {"type": "node", "id": 11292430158, "lat": 21.1392066, "lon": 78.8046211}, {"type": "node", "id": 11292430159, "lat": 21.1391374, "lon": 78.804386}, {"type": "node", "id": 11292430160, "lat": 21.1394904, "lon": 78.8042665}, {"type": "node", "id": 11346124771, "lat": 21.2829211, "lon": 79.0826816}, {"type": "node", "id": 11346124772, "lat": 21.2829986, "lon": 79.082872}, {"type": "node", "id": 11346124773, "lat": 21.2830827, "lon": 79.0828326}, {"type": "node", "id": 11346124774, "lat": 21.2830051, "lon": 79.0826422}, {"type": "node", "id": 11346398537, "lat": 21.1460747, "lon": 78.9851435}, {"type": "node", "id": 11346398541, "lat": 21.1461687, "lon": 78.9852787}, {"type": "node", "id": 11346398542, "lat": 21.1460023, "lon": 78.985278}, {"type": "node", "id": 11346398543, "lat": 21.1460028, "lon": 78.9851432}, {"type": "node", "id": 11346398544, "lat": 21.1461692, "lon": 78.9851439}, {"type": "node", "id": 11346549007, "lat": 21.1362623, "lon": 78.9032327}, {"type": "node", "id": 11346549008, "lat": 21.136111, "lon": 78.9031763}, {"type": "node", "id": 11346549009, "lat": 21.1361568, "lon": 78.9030348}, {"type": "node", "id": 11346549010, "lat": 21.1363082, "lon": 78.9030911}, {"type": "node", "id": 11346549153, "lat": 21.1377771, "lon": 78.8613654}, {"type": "node", "id": 11346549154, "lat": 21.1374894, "lon": 78.8613138}, {"type": "node", "id": 11346549155, "lat": 21.1375065, "lon": 78.8612044}, {"type": "node", "id": 11346549156, "lat": 21.1377942, "lon": 78.861256}, {"type": "node", "id": 11346582435, "lat": 21.142794, "lon": 78.9537124}, {"type": "node", "id": 11346582436, "lat": 21.1424638, "lon": 78.9538036}, {"type": "node", "id": 11346582437, "lat": 21.1424261, "lon": 78.9536467}, {"type": "node", "id": 11346582438, "lat": 21.1427563, "lon": 78.9535555}, {"type": "node", "id": 11346593086, "lat": 21.1368519, "lon": 78.8940856}, {"type": "node", "id": 11346593087, "lat": 21.1366342, "lon": 78.8940454}, {"type": "node", "id": 11346593088, "lat": 21.1366534, "lon": 78.893926}, {"type": "node", "id": 11346593089, "lat": 21.1368711, "lon": 78.8939662}, {"type": "node", "id": 11346600372, "lat": 21.1366972, "lon": 78.9148043, "tags": {"amenity": "fuel", "brand": "indian oil"}}, {"type": "node", "id": 11346834383, "lat": 21.1356011, "lon": 78.8267979, "tags": {"amenity": "fuel"}}, {"type": "node", "id": 11346836358, "lat": 21.1408566, "lon": 78.8105131, "tags": {"amenity": "fuel"}}, {"type": "node", "id": 11346869620, "lat": 21.136915, "lon": 78.794371}, {"type": "node", "id": 11346869621, "lat": 21.1369016, "lon": 78.7942094}, {"type": "node", "id": 11346869622, "lat": 21.1371823, "lon": 78.7941826}, {"type": "node", "id": 11346869623, "lat": 21.1371957, "lon": 78.7943443}, {"type": "node", "id": 11347710859, "lat": 21.1530393, "lon": 79.0051044, "tags": {"amenity": "fuel", "brand": "Indian Oil"}}, {"type": "node", "id": 11563909017, "lat": 21.1778122, "lon": 79.0458524, "tags": {"addr:city": "Nagpur", "addr:postcode": "440013", "addr:street": "Katol Road", "amenity": "bank", "atm": "yes", "brand": "IndusInd Bank", "brand:wikidata": "Q2040323", "name": "IndusInd Bank"}}, {"type": "node", "id": 11575936012, "lat": 21.1782773, "lon": 79.0455898, "tags": {"addr:city": "Nagpur", "addr:postcode": "440013", "addr:street": "Katol Road", "amenity": "bank", "atm": "yes", "brand": "Indian Bank", "brand:wikidata": "Q2003789", "name": "Indian Bank"}}, {"type": "node", "id": 11575936013, "lat": 21.1785338, "lon": 79.0451191, "tags": {"addr:city": "Nagpur", "addr:postcode": "440013", "addr:street": "Katol Road", "amenity": "bank", "atm": "yes", "brand": "Axis Bank", "brand:wikidata": "Q2003549", "name": "Axis Bank"}}, {"type": "node", "id": 11575936015, "lat": 21.1793142, "lon": 79.0442982, "tags": {"addr:city": "Nagpur", "addr:postcode": "440013", "addr:street": "Katol Road", "amenity": "fuel", "brand": "Hindustan Petroleum", "brand:wikidata": "Q1619375", "fuel:diesel": "yes", "fuel:petrol": "yes", "name": "HP", "official_name": "Hindustan Petroleum"}}, {"type": "node", "id": 11575936039, "lat": 21.1813896, "lon": 79.0384458, "tags": {"addr:city": "Nagpur", "addr:postcode": "440013", "addr:street": "Katol Road", "amenity": "fuel", "brand": "Indian Auto Gas", "fuel:cng": "yes", "fuel:lpg": "yes", "name": "Indian Auto Gas", "self_service": "no"}}, {"type": "node", "id": 11578003441, "lat": 21.1779557, "lon": 79.0464152, "tags": {"addr:city": "Nagpur", "addr:postcode": "440013", "addr:street": "Katol Road", "amenity": "bank", "atm": "yes", "brand": "HDFC Bank", "brand:wikidata": "Q631047", "name": "HDFC Bank", "short_name": "HDFC"}}, {"type": "node", "id": 11581131069, "lat": 21.1739102, "lon": 79.070721, "tags": {"amenity": "fuel"}}, {"type": "node", "id": 11581563844, "lat": 21.206677, "lon": 79.1506369, "tags": {"amenity": "fuel", "brand": "Indian Oil", "brand:wikidata": "Q1289348", "name": "Indian Oil"}}, {"type": "node", "id": 11581600040, "lat": 21.2055158, "lon": 79.1491778, "tags": {"amenity": "fuel", "brand": "Bharat Petroleum", "brand:wikidata": "Q854826", "name": "Bharat Petroleum"}}, {"type": "node", "id": 11581628292, "lat": 21.2143667, "lon": 79.1657967, "tags": {"amenity": "fuel", "brand": "Indian Oil", "brand:wikidata": "Q1289348", "name": "Indian Oil"}}, {"type": "node", "id": 11591804998, "lat": 21.1762226, "lon": 79.0502565, "tags": {"amenity": "bank", "atm": "yes", "brand": "ICICI Bank", "brand:wikidata": "Q1653258", "name": "ICICI Bank", "short_name": "ICICI"}}, {"type": "node", "id": 11591804999, "lat": 21.1761109, "lon": 79.0504406, "tags": {"amenity": "bank", "brand": "Central Bank of India", "brand:wikidata": "Q2007090", "name": "Central Bank of India", "operator": "Central Bank of India"}}, {"type": "node", "id": 11591805010, "lat": 21.1756238, "lon": 79.0519134, "tags": {"amenity": "fuel", "brand": "Indian Oil", "brand:wikidata": "Q1289348", "fuel:diesel": "yes", "fuel:petrol": "yes", "name": "Indian Oil", "self_service": "no"}}, {"type": "node", "id": 11618388908, "lat": 21.1103225, "lon": 79.0012856, "tags": {"amenity": "fuel", "brand": "Indian Oil", "name": "Indian Oil"}}, {"type": "way", "id": 262656645, "nodes": [2683309018, 2683309019, 2683309020, 2683309021, 2683309018], "tags": {"amenity": "fuel", "brand": "Bharat Petroleum", "brand:wikidata": "Q854826", "brand:wikipedia": "en:Bharat Petroleum", "building": "yes", "name": "Bharat Petroleum"}}, {"type": "way", "id": 381700791, "nodes": [3848651344, 3848651345, 3848651346, 3848651347, 3848651344], "tags": {"amenity": "bank", "building": "yes", "name": "Union Bank"}}, {"type": "way", "id": 388035140, "nodes": [3912532765, 3912532766, 3912532764, 3912532763, 3912532765], "tags": {"amenity": "fuel", "name": "Petrol Pump"}}, {"type": "way", "id": 390561428, "nodes": [3937204482, 3937204481, 3937204478, 3937204479, 3937204482], "tags": {"amenity": "bank", "atm": "yes", "name": "Lokakalyan Urban Credit Cooperative Society"}}, {"type": "way", "id": 486817795, "nodes": [4793678479, 4793678480, 4793678481, 4793678482, 4793678479], "tags": {"amenity": "fuel"}}, {"type": "way", "id": 664452966, "nodes": [6219037391, 6219037390, 6219037389, 6219037388, 6219037391], "tags": {"building": "retail"}}, {"type": "way", "id": 779091476, "nodes": [7274237056, 7274237057, 7274237058, 7274237059, 7274237060, 7274237061, 7274237062, 7274237063, 7274237064, 7274237056], "tags": {"amenity": "fuel", "brand": "Indian Oil", "brand:wikidata": "Q1289348", "brand:wikipedia": "en:Indian Oil Corporation", "compressed_air": "yes", "name": "Indian Oil"}}, {"type": "way", "id": 779091478, "nodes": [7274261785, 7274261786, 7274261787, 7274261788, 7274261789, 7274261790, 7274261791, 7274261785], "tags": {"amenity": "fuel"}}, {"type": "way", "id": 856303091, "nodes": [7984325736, 7984325733, 7984325734, 7984466632, 7984325735, 7984325736], "tags": {"amenity": "bank", "atm": "yes", "branch": "VRCE", "brand": "State Bank of India", "brand:wikidata": "Q1340361", "brand:wikipedia": "en:State Bank of India", "building": "yes", "drive_through": "no", "name": "State Bank of India", "operator": "State Bank of India", "short_name": "SBI"}}, {"type": "way", "id": 904505610, "nodes": [8400293340, 8400293337, 8400293335, 8400293334, 8400293332, 8400293331, 8400293333, 8400293336, 8400293338, 8400293339, 8400293340], "tags": {"amenity": "fuel", "brand": "Bharat Petroleum", "building": "yes"}}, {"type": "way", "id": 963672507, "nodes": [8913967216, 8913989917, 8913989918, 8913989919, 8913989920, 8913989921, 8913967216], "tags": {"amenity": "fuel"}}, {"type": "way", "id": 1058893372, "nodes": [9729778337, 11140273264, 9729778339, 9729778340, 9729778341, 9729778342, 9729778343, 9729778344, 9729778345, 9729778346, 9729778347, 9729778348, 9729778349, 9729778350, 9729778351, 9729778352, 9729778353, 9729778354, 9729778355, 9729778356, 9729778357, 9729778358, 9729778359, 9729778360, 9729778337], "tags": {"building": "civic", "name": "Multiactivity and Food Complex", "wheelchair": "yes"}}, {"type": "way", "id": 1058893382, "nodes": [9729778394, 9729771242, 9729771243, 9729778397, 9729778394], "tags": {"amenity": "bank", "branch": "VNIT", "brand": "Canara Bank", "brand:en": "Canara Bank", "brand:hi": "\u0915\u0947\u0928\u0930\u093e \u092c\u0948\u0902\u0915", "brand:kn": "\u0c95\u0cc6\u0ca8\u0cb0\u0cbe \u0cac\u0ccd\u0caf\u0cbe\u0c82\u0c95\u0ccd", "brand:pa": "\u0a15\u0a47\u0a28\u0a30\u0a3e \u0a2c\u0a48\u0a02\u0a15", "brand:pnb": "\u06a9\u06cc\u0646\u0631\u0627 \u0628\u06cc\u0646\u06a9", "brand:ur": "\u06a9\u06cc\u0646\u0631\u0627 \u0628\u06cc\u0646\u06a9", "brand:wikidata": "Q2003777", "building": "yes", "name": "Canara Bank", "name:en": "Canara Bank", "name:hi": "\u0915\u0947\u0928\u0930\u093e \u092c\u0948\u0902\u0915", "name:kn": "\u0c95\u0cc6\u0ca8\u0cb0\u0cbe \u0cac\u0ccd\u0caf\u0cbe\u0c82\u0c95\u0ccd", "name:pa": "\u0a15\u0a47\u0a28\u0a30\u0a3e \u0a2c\u0a48\u0a02\u0a15", "name:pnb": "\u06a9\u06cc\u0646\u0631\u0627 \u0628\u06cc\u0646\u06a9", "name:ur": "\u06a9\u06cc\u0646\u0631\u0627 \u0628\u06cc\u0646\u06a9"}}, {"type": "way", "id": 1058893384, "nodes": [9729778405, 9729778406, 9729778407, 9729778408, 9729778405], "tags": {"building": "civic", "name": "VNIT Staff Recreation"}}, {"type": "way", "id": 1150930039, "nodes": [10706542107, 10706542108, 297478635, 10706542109, 10706542110, 10706542107], "tags": {"building": "civic", "name": "Mega Mess"}}, {"type": "way", "id": 1200051656, "nodes": [11129293017, 11129293012, 11129293022, 11129293016, 11129293017], "tags": {"amenity": "fuel", "brand": "Indian Oil", "brand:wikidata": "Q1289348", "brand:wikipedia": "en:Indian Oil Corporation", "fuel:diesel": "yes", "fuel:petrol": "no"}}, {"type": "way", "id": 1200053084, "nodes": [11129295232, 11129295226, 11129295231, 11129295228, 11129295229, 11129295225, 11129295227, 11129295230, 11129295232], "tags": {"amenity": "fuel", "brand": "Nayara", "brand:wikidata": "Q5399372", "fuel:diesel": "yes", "fuel:petrol": "yes"}}, {"type": "way", "id": 1218680353, "nodes": [11292430160, 11292430157, 11292430158, 11292430159, 11292430160], "tags": {"amenity": "fuel", "brand": "indian oil", "building": "yes"}}, {"type": "way", "id": 1223180347, "nodes": [11346124774, 11346124773, 11346124772, 11346124771, 11346124774], "tags": {"amenity": "fuel", "brand": "reliance", "covered": "yes", "fuel:diesel": "yes", "fuel:e10": "yes", "name": "Reliance Petrol pump"}}, {"type": "way", "id": 1223216048, "nodes": [11346398544, 11346398541, 11346398542, 11346398543, 11346398537, 11346398544], "tags": {"amenity": "fuel", "covered": "yes"}}, {"type": "way", "id": 1223231072, "nodes": [11346582438, 11346582435, 11346582436, 11346582437, 11346582438], "tags": {"amenity": "fuel", "brand": "Bharat Petroleum", "covered": "yes"}}, {"type": "way", "id": 1223235125, "nodes": [11346549010, 11346549007, 11346549008, 11346549009, 11346549010], "tags": {"amenity": "fuel", "brand": "indian oil", "covered": "yes"}}, {"type": "way", "id": 1223235458, "nodes": [11346593089, 11346593086, 11346593087, 11346593088, 11346593089], "tags": {"amenity": "fuel", "brand": "indian oil", "covered": "yes"}}, {"type": "way", "id": 1223242185, "nodes": [11346549156, 11346549153, 11346549154, 11346549155, 11346549156], "tags": {"amenity": "fuel", "brand": "hp", "covered": "yes"}}, {"type": "way", "id": 1223269206, "nodes": [11346869623, 11346869620, 11346869621, 11346869622, 11346869623], "tags": {"amenity": "fuel", "brand": "Indian Oil", "covered": "yes"}}]}