{"version": 0.6, "generator": "Overpass API 0.7.61.5 4133829e", "osm3s": {"timestamp_osm_base": "2024-02-25T09:05:59Z", "copyright": "The data included in this document is from www.openstreetmap.org. The data is made available under ODbL."}, "elements": [{"type": "node", "id": 651795823, "lat": 22.5027682, "lon": 88.3677291, "tags": {"amenity": "police", "name": "Jadavpur Police Station"}}, {"type": "node", "id": 663943188, "lat": 22.5393378, "lon": 88.344409, "tags": {"amenity": "police", "check_date": "2023-09-30", "name": "Gokhale Road Police Quarters"}}, {"type": "node", "id": 1186025286, "lat": 22.5725398, "lon": 88.3524126, "tags": {"amenity": "police", "name": "Kolkata Police Headquarters", "name:en": "Kolkata"}}, {"type": "node", "id": 1217644771, "lat": 22.573473, "lon": 88.3744042}, {"type": "node", "id": 1217645171, "lat": 22.5733293, "lon": 88.3754664}, {"type": "node", "id": 1217645289, "lat": 22.5741665, "lon": 88.3751552}, {"type": "node", "id": 1217645325, "lat": 22.5742111, "lon": 88.3746724}, {"type": "node", "id": 1562335067, "lat": 22.5340298, "lon": 88.3205102}, {"type": "node", "id": 1562335068, "lat": 22.5328439, "lon": 88.3207895}, {"type": "node", "id": 1562335075, "lat": 22.5340628, "lon": 88.3217202}, {"type": "node", "id": 1562335088, "lat": 22.5331687, "lon": 88.3215259}, {"type": "node", "id": 1562335089, "lat": 22.5337878, "lon": 88.3216183}, {"type": "node", "id": 1562335092, "lat": 22.5329776, "lon": 88.321224}, {"type": "node", "id": 1562335096, "lat": 22.5339233, "lon": 88.3217708}, {"type": "node", "id": 1562335102, "lat": 22.5338167, "lon": 88.3217145}, {"type": "node", "id": 1562335104, "lat": 22.5327894, "lon": 88.3207788}, {"type": "node", "id": 1562335107, "lat": 22.5338224, "lon": 88.3215808}, {"type": "node", "id": 1562335108, "lat": 22.5338638, "lon": 88.3217467}, {"type": "node", "id": 1562335113, "lat": 22.5337853, "lon": 88.3216666}, {"type": "node", "id": 1562335119, "lat": 22.5340553, "lon": 88.3216693}, {"type": "node", "id": 1562335125, "lat": 22.5333277, "lon": 88.320894}, {"type": "node", "id": 1562335127, "lat": 22.5335375, "lon": 88.3219509}, {"type": "node", "id": 1562335133, "lat": 22.5339827, "lon": 88.3217788}, {"type": "node", "id": 1562335137, "lat": 22.533104, "lon": 88.3218543}, {"type": "node", "id": 1562335156, "lat": 22.5346276, "lon": 88.3217015}, {"type": "node", "id": 1562335157, "lat": 22.5336218, "lon": 88.3219294}, {"type": "node", "id": 1562335161, "lat": 22.533872, "lon": 88.321562}, {"type": "node", "id": 1562335163, "lat": 22.5328067, "lon": 88.3204247}, {"type": "node", "id": 1562335169, "lat": 22.533981, "lon": 88.3215861}, {"type": "node", "id": 1562335172, "lat": 22.5340231, "lon": 88.3216183}, {"type": "node", "id": 1562335178, "lat": 22.5340306, "lon": 88.3217631}, {"type": "node", "id": 1562335185, "lat": 22.533924, "lon": 88.3215673}, {"type": "node", "id": 1562335187, "lat": 22.5329267, "lon": 88.3214605}, {"type": "node", "id": 1562335211, "lat": 22.5348481, "lon": 88.3207117}, {"type": "node", "id": 1562335213, "lat": 22.5345384, "lon": 88.322144}, {"type": "node", "id": 1562335215, "lat": 22.5334112, "lon": 88.3203416}, {"type": "node", "id": 1562335223, "lat": 22.5333807, "lon": 88.3205611}, {"type": "node", "id": 1562335225, "lat": 22.5328915, "lon": 88.3208093}, {"type": "node", "id": 1562335228, "lat": 22.5332473, "lon": 88.3212719}, {"type": "node", "id": 1833314190, "lat": 22.5233584, "lon": 88.3437079}, {"type": "node", "id": 1833314192, "lat": 22.5232295, "lon": 88.3437321}, {"type": "node", "id": 1833314194, "lat": 22.5232246, "lon": 88.3435899}, {"type": "node", "id": 1833314196, "lat": 22.5233609, "lon": 88.3435738}, {"type": "node", "id": 1894682175, "lat": 22.4917182, "lon": 88.3138449, "tags": {"amenity": "grave_yard", "name": "Buruial ground"}}, {"type": "node", "id": 2015226249, "lat": 22.5214594, "lon": 88.3437478}, {"type": "node", "id": 2015226253, "lat": 22.5213256, "lon": 88.3437397}, {"type": "node", "id": 2015226255, "lat": 22.5214569, "lon": 88.3438148}, {"type": "node", "id": 2015226257, "lat": 22.5213652, "lon": 88.3438041}, {"type": "node", "id": 2015236302, "lat": 22.5209958, "lon": 88.3436598}, {"type": "node", "id": 2015236303, "lat": 22.5208349, "lon": 88.3437171}, {"type": "node", "id": 2015236304, "lat": 22.5209014, "lon": 88.3435678}, {"type": "node", "id": 2015236305, "lat": 22.5208246, "lon": 88.3435705}, {"type": "node", "id": 2015236306, "lat": 22.5209089, "lon": 88.3436507}, {"type": "node", "id": 2015236307, "lat": 22.5209945, "lon": 88.3437311}, {"type": "node", "id": 2016857205, "lat": 22.5782381, "lon": 88.3868847}, {"type": "node", "id": 2016857209, "lat": 22.578726, "lon": 88.3869571}, {"type": "node", "id": 2016857243, "lat": 22.5783471, "lon": 88.3874934}, {"type": "node", "id": 2016857247, "lat": 22.5785873, "lon": 88.3875095}, {"type": "node", "id": 2016857251, "lat": 22.5781217, "lon": 88.387421}, {"type": "node", "id": 2168547540, "lat": 22.5841465, "lon": 88.3788957, "tags": {"amenity": "police", "name": "Manicktala P.S"}}, {"type": "node", "id": 2266850257, "lat": 22.566664, "lon": 88.3653411, "tags": {"amenity": "police", "name": "Muchipara Police Station"}}, {"type": "node", "id": 2461251766, "lat": 22.5425798, "lon": 88.3989293, "tags": {"amenity": "police", "name": "Tiljala Traffic Guard"}}, {"type": "node", "id": 2461251769, "lat": 22.5418473, "lon": 88.3988059}, {"type": "node", "id": 2461251771, "lat": 22.5418232, "lon": 88.3988807}, {"type": "node", "id": 2461251773, "lat": 22.5416953, "lon": 88.398847}, {"type": "node", "id": 2461251775, "lat": 22.541723, "lon": 88.398761}, {"type": "node", "id": 2461251777, "lat": 22.5418694, "lon": 88.3988261, "tags": {"amenity": "police", "name": "Parama - Police Station"}}, {"type": "node", "id": 2471894120, "lat": 22.5266453, "lon": 88.3459941, "tags": {"amenity": "police", "check_date": "2023-09-30", "internet_access": "wlan", "internet_access:fee": "customers", "name": "Bhowanipore Police Station"}}, {"type": "node", "id": 2813628983, "lat": 22.5578935, "lon": 88.3548699, "tags": {"amenity": "fire_station", "name": "West Bengal Fire Service HQ", "wikidata": "Q7984438", "wikimedia_commons": "Category:West Bengal Fire Service", "wikipedia": "en:West Bengal Fire Service"}}, {"type": "node", "id": 2813667209, "lat": 22.5627183, "lon": 88.3541137, "tags": {"addr:city": "Kolkata", "addr:housenumber": "133/2", "addr:postcode": "700013", "addr:street": "Surendra Nath Banerjee Road", "amenity": "police", "name": "New Market Police Station", "phone": "+913322177397", "source": "http://www.kolkatapolice.gov.in/", "website": "http://www.kolkatapolice.gov.in/"}}, {"type": "node", "id": 3324142934, "lat": 22.5931156, "lon": 88.356043, "tags": {"amenity": "police", "name": "Jorabagan Police Station"}}, {"type": "node", "id": 3363195847, "lat": 22.5035284, "lon": 88.3190032, "tags": {"amenity": "police", "name": "Behala Thana", "operator": "Kolkata Police"}}, {"type": "node", "id": 3650025538, "lat": 22.580115, "lon": 88.3546732}, {"type": "node", "id": 3650025555, "lat": 22.5801774, "lon": 88.3543795}, {"type": "node", "id": 3650025570, "lat": 22.5802352, "lon": 88.3547031}, {"type": "node", "id": 3650025581, "lat": 22.5802975, "lon": 88.3544095}, {"type": "node", "id": 3670247895, "lat": 22.5831621, "lon": 88.391763}, {"type": "node", "id": 3670247896, "lat": 22.5832069, "lon": 88.3915508}, {"type": "node", "id": 3670247904, "lat": 22.5832726, "lon": 88.3917904}, {"type": "node", "id": 3670247906, "lat": 22.5833056, "lon": 88.391778}, {"type": "node", "id": 3670247907, "lat": 22.5833174, "lon": 88.3915781}, {"type": "node", "id": 3670247909, "lat": 22.5833491, "lon": 88.3915832}, {"type": "node", "id": 3670248025, "lat": 22.5835333, "lon": 88.3918376}, {"type": "node", "id": 3670248029, "lat": 22.5835768, "lon": 88.3916428}, {"type": "node", "id": 3961003585, "lat": 22.5088819, "lon": 88.3068201, "tags": {"amenity": "police", "name": "Parnasree Police Station"}}, {"type": "node", "id": 4200007626, "lat": 22.4738556, "lon": 88.4049948}, {"type": "node", "id": 4200007627, "lat": 22.4737218, "lon": 88.4049626}, {"type": "node", "id": 4200007628, "lat": 22.4738514, "lon": 88.4050837}, {"type": "node", "id": 4200007629, "lat": 22.4737044, "lon": 88.4050485}, {"type": "node", "id": 4356781089, "lat": 22.547021, "lon": 88.3680459, "tags": {"addr:housenumber": "47", "addr:postcode": "700014", "addr:street": "Gora Chand Rd", "amenity": "police", "name": "beniapukur police station", "phone": "03322844770"}}, {"type": "node", "id": 4511733069, "lat": 22.5938127, "lon": 88.3520802}, {"type": "node", "id": 4511733070, "lat": 22.5940653, "lon": 88.3521647}, {"type": "node", "id": 4511733071, "lat": 22.5941189, "lon": 88.3519766}, {"type": "node", "id": 4511733072, "lat": 22.5938663, "lon": 88.3518921}, {"type": "node", "id": 4639756601, "lat": 22.5485549, "lon": 88.3284509}, {"type": "node", "id": 4639756602, "lat": 22.5485995, "lon": 88.3285743}, {"type": "node", "id": 4639756603, "lat": 22.5485351, "lon": 88.3285475}, {"type": "node", "id": 4639756604, "lat": 22.5485388, "lon": 88.3287079}, {"type": "node", "id": 4639756605, "lat": 22.5483666, "lon": 88.3286548}, {"type": "node", "id": 4639756606, "lat": 22.5484397, "lon": 88.328402}, {"type": "node", "id": 4643535078, "lat": 22.4614465, "lon": 88.3791145}, {"type": "node", "id": 4643535079, "lat": 22.4612962, "lon": 88.3789316}, {"type": "node", "id": 4643535080, "lat": 22.4610708, "lon": 88.3791592}, {"type": "node", "id": 4643535081, "lat": 22.4609092, "lon": 88.3790169}, {"type": "node", "id": 4643535082, "lat": 22.4607026, "lon": 88.3792365}, {"type": "node", "id": 4643535083, "lat": 22.4608341, "lon": 88.379391}, {"type": "node", "id": 4643535084, "lat": 22.4606425, "lon": 88.379582}, {"type": "node", "id": 4643535085, "lat": 22.4608341, "lon": 88.3795739}, {"type": "node", "id": 4643535086, "lat": 22.4611008, "lon": 88.3794032}, {"type": "node", "id": 4643541845, "lat": 22.461052, "lon": 88.37933, "tags": {"addr:city": "Kolkata", "addr:housenumber": "38", "addr:postcode": "700084", "addr:street": "Boral Main Road, Garia", "amenity": "crematorium", "name": "Garia Mahasmashan", "phone": "+913324357317", "wheelchair": "limited"}}, {"type": "node", "id": 5253366364, "lat": 22.5753874, "lon": 88.3920651, "tags": {"amenity": "police", "check_date": "2023-10-04", "name": "Phoolbagan Police Sation", "name:bn": "\u09ab\u09c1\u09b2\u09ac\u09be\u0997\u09be\u09a8 \u09a5\u09be\u09a8\u09be"}}, {"type": "node", "id": 6147021003, "lat": 22.5516265, "lon": 88.3564067, "tags": {"addr:city": "Kolkata", "addr:street": "Park Street", "amenity": "police", "name": "Park Street Police Station"}}, {"type": "node", "id": 6207419685, "lat": 22.6252145, "lon": 88.3827397, "tags": {"amenity": "police", "name": "Sinthee Police Station"}}, {"type": "node", "id": 6541779885, "lat": 22.5013761, "lon": 88.3617659, "tags": {"amenity": "fire_station", "name": "Usha fire brigade"}}, {"type": "node", "id": 7202548451, "lat": 22.5551465, "lon": 88.2605445, "tags": {"amenity": "police", "name": "Nadial Police Station"}}, {"type": "node", "id": 8185335386, "lat": 22.5925126, "lon": 88.3711427, "tags": {"addr:housenumber": "1", "amenity": "police", "check_date": "2023-09-30", "internet_access": "wlan", "internet_access:fee": "customers", "name": "Burtolla Police Station"}}, {"type": "node", "id": 9168221063, "lat": 22.5157436, "lon": 88.3405759}, {"type": "node", "id": 9168221064, "lat": 22.5157833, "lon": 88.3413725}, {"type": "node", "id": 9168221065, "lat": 22.5155058, "lon": 88.341402}, {"type": "node", "id": 9168221066, "lat": 22.5154711, "lon": 88.3406456}, {"type": "node", "id": 9168221067, "lat": 22.5158056, "lon": 88.3409634}, {"type": "node", "id": 9567719217, "lat": 22.5778367, "lon": 88.3606283, "tags": {"addr:housenumber": "127", "addr:postcode": "700073", "addr:street": "Chittaranjan Avenue", "amenity": "fire_station", "name": "C R Avenue Fire Station", "opening_hours": "24/7"}}, {"type": "node", "id": 9570240617, "lat": 22.5888343, "lon": 88.391005, "tags": {"amenity": "police", "name": "Kolkata Armed Police, 5th Battalion", "website": "https://www.kolkatapolice.gov.in/"}}, {"type": "node", "id": 9609217317, "lat": 22.569139, "lon": 88.3566114, "tags": {"addr:housenumber": "13", "addr:postcode": "700012", "addr:street": "Kapilatola Ln", "amenity": "police", "name": "Bowbazar police station", "opening_hours": "24/7", "phone": "8100796446"}}, {"type": "node", "id": 9609217417, "lat": 22.5688343, "lon": 88.356961, "tags": {"addr:housenumber": "42", "addr:postcode": "700054", "addr:street": "Chittaranjan Avenue", "amenity": "police", "name": "Hare police station", "phone": "03322118760,03322150100"}}, {"type": "node", "id": 9641103817, "lat": 22.5893923, "lon": 88.3951013, "tags": {"amenity": "police", "name": "Ultadanga traffic guard"}}, {"type": "node", "id": 9911020517, "lat": 22.5420398, "lon": 88.3469829, "tags": {"amenity": "police", "name": "Exide South Traffic Guard Police Station"}}, {"type": "node", "id": 9911020617, "lat": 22.5420279, "lon": 88.3471124, "tags": {"amenity": "police", "name": "Maidan police station"}}, {"type": "node", "id": 10822337005, "lat": 22.5454502, "lon": 88.3400113, "tags": {"amenity": "police", "name": "Police enforce that this is exit only"}}, {"type": "node", "id": 11436646870, "lat": 22.6074097, "lon": 88.3817952, "tags": {"addr:postcode": "700037", "addr:street": "Tala Park Path", "amenity": "police", "name": "Tala Police Station"}}, {"type": "way", "id": 105741944, "nodes": [1217645325, 1217644771, 1217645171, 1217645289, 1217645325], "tags": {"amenity": "grave_yard"}}, {"type": "way", "id": 142761497, "nodes": [1562335075, 1562335119, 1562335172, 1562335169, 1562335185, 1562335161, 1562335107, 1562335089, 1562335113, 1562335102, 1562335108, 1562335096, 1562335133, 1562335178, 1562335075], "tags": {"natural": "water"}}, {"type": "way", "id": 142761500, "nodes": [1562335163, 1562335223, 1562335215, 1562335067, 1562335211, 1562335156, 1562335213, 1562335157, 1562335127, 1562335137, 1562335088, 1562335187, 1562335092, 1562335228, 1562335125, 1562335225, 1562335068, 1562335104, 1562335163]}, {"type": "way", "id": 172425257, "nodes": [1833314194, 1833314196, 1833314190, 1833314192, 1833314194], "tags": {"amenity": "fire_station", "check_date": "2023-09-30", "name": "Kalighat Fire Brigade"}}, {"type": "way", "id": 190923516, "nodes": [2015226253, 2015226257, 2015226255, 2015226249, 2015226253], "tags": {"amenity": "police", "name": "Kalighat Police Station"}}, {"type": "way", "id": 190925408, "nodes": [2015236305, 2015236304, 2015236306, 2015236302, 2015236307, 2015236303, 2015236305], "tags": {"amenity": "police", "name": "Kalighat Police Station"}}, {"type": "way", "id": 191102789, "nodes": [2016857247, 2016857243, 2016857251, 2016857205, 2016857209, 2016857247], "tags": {"amenity": "grave_yard", "name": "Burial Ground"}}, {"type": "way", "id": 238279646, "nodes": [2461251769, 2461251771, 2461251773, 2461251775, 2461251769], "tags": {"amenity": "police", "building": "yes"}}, {"type": "way", "id": 360460191, "nodes": [3650025555, 3650025581, 3650025570, 3650025538, 3650025555], "tags": {"amenity": "police", "building": "yes", "name": "boubazar police station"}}, {"type": "way", "id": 362766491, "nodes": [3670247907, 3670247904, 3670247895, 3670247896, 3670247907]}, {"type": "way", "id": 362766504, "nodes": [3670248029, 3670248025, 3670247906, 3670247909, 3670248029]}, {"type": "way", "id": 420013360, "nodes": [4200007626, 4200007627, 4200007629, 4200007628, 4200007626], "tags": {"amenity": "police", "building": "yes"}}, {"type": "way", "id": 454630788, "nodes": [4511733072, 4511733071, 4511733070, 4511733069, 4511733072], "tags": {"amenity": "crematorium", "building": "yes"}}, {"type": "way", "id": 469676580, "nodes": [4639756601, 4639756606, 4639756605, 4639756604, 4639756602, 4639756603, 4639756601], "tags": {"amenity": "police", "name": "Hastings Police Station"}}, {"type": "way", "id": 470115757, "nodes": [4643535078, 4643535079, 4643535080, 4643535081, 4643535082, 4643535083, 4643535084, 4643535085, 4643535086, 4643535078], "tags": {"amenity": "crematorium", "name": "Garia Mahasmashan", "phone": "+913324357317", "wheelchair": "limited"}}, {"type": "way", "id": 992304884, "nodes": [9168221063, 9168221067, 9168221064, 9168221065, 9168221066, 9168221063], "tags": {"amenity": "crematorium", "name": "Keoratala Mahashashan", "opening_hours": "24/7"}}, {"type": "relation", "id": 4068512, "members": [{"type": "way", "ref": 142761500, "role": "outer"}, {"type": "way", "ref": 142761497, "role": "inner"}], "tags": {"amenity": "grave_yard", "name": "Sola Ana Graveyard", "type": "multipolygon"}}, {"type": "relation", "id": 14226213, "members": [{"type": "way", "ref": 362766504, "role": "outer"}, {"type": "way", "ref": 362766491, "role": "outer"}], "tags": {"addr:city": "Kolkata", "addr:housenumber": "17, Bagamari Lane, Kankurgach", "addr:postcode": "700054", "addr:street": "CIT Road", "amenity": "fire_station", "building": "yes", "building:levels": "2", "name": "Manicktala Fire Station", "operator": "Fire & Emergency Services, Govt. Of West Benga", "phone": "+913323207489", "service_times": "24/7", "type": "multipolygon", "website": "https://www.wbfes.gov.in/"}}]}