{"version": 0.6, "generator": "Overpass API 0.7.61.5 4133829e", "osm3s": {"timestamp_osm_base": "2024-02-25T09:23:29Z", "copyright": "The data included in this document is from www.openstreetmap.org. The data is made available under ODbL."}, "elements": [{"type": "node", "id": 7226989809, "lat": 21.4701532, "lon": 78.5373216, "tags": {"addr:district": "Solapur", "addr:full": "PHC Road, Near BSNL Telephone Exchange, Narkhed", "addr:postcode": "441304", "addr:state": "Maharashtra", "addr:subdistrict": "Mohol", "amenity": "hospital", "name": "Government Hospital, Narkhed", "source": "OpenGovernmentData"}}, {"type": "node", "id": 7628156077, "lat": 21.440759, "lon": 78.446432, "tags": {"addr:district": "Nagpur", "addr:full": "Khairgaon", "addr:postcode": "441303", "addr:state": "Maharastra", "amenity": "clinic", "name": "Atreya Clinic", "source": "Local Knowledge"}}, {"type": "node", "id": 7628156125, "lat": 21.473918, "lon": 78.5327563, "tags": {"addr:district": "Nagpur", "addr:full": "Ward No.1, Gandhi Square, Narkhed", "addr:postcode": "441304", "addr:state": "Maharastra", "amenity": "hospital", "healthcare": "hospital", "name": "Bihare Hospital", "source": "Local Knowledge"}}, {"type": "node", "id": 7628156140, "lat": 21.39981, "lon": 78.626271, "tags": {"addr:district": "Nagpur", "addr:full": "Nagpur", "addr:postcode": "441306", "addr:state": "Maharastra", "amenity": "hospital", "name": "Government Hospital", "source": "Local Knowledge"}}]}