{"version": 0.6, "generator": "Overpass API 0.7.61.5 4133829e", "osm3s": {"timestamp_osm_base": "2024-02-25T09:23:29Z", "copyright": "The data included in this document is from www.openstreetmap.org. The data is made available under ODbL."}, "elements": [{"type": "node", "id": 7226751934, "lat": 20.76785, "lon": 79.51001, "tags": {"addr:district": "Nagpur", "addr:full": "Bhiwapur", "addr:postcode": "441201", "addr:state": "Maharashtra", "addr:subdistrict": "Bhiwapur", "amenity": "hospital", "name": "Rural Hospital, Bhiwapur", "source": "OpenGovernmentData"}}, {"type": "node", "id": 7226751938, "lat": 20.8575418, "lon": 79.3278139, "tags": {"addr:district": "Nagpur", "addr:postcode": "441203", "addr:state": "Maharashtra", "addr:subdistrict": "Umred", "amenity": "hospital", "name": "Rural Hospital, Umred", "source": "OpenGovernmentData"}}, {"type": "node", "id": 7628156071, "lat": 20.837921, "lon": 79.317872, "tags": {"addr:district": "Nagpur", "addr:full": "Dream City, Bhandarkar Layout, Mohpa", "addr:postcode": "441203", "addr:state": "Maharastra", "amenity": "hospital", "name": "Rural Charitable Trust Hospital", "source": "Local Knowledge"}}, {"type": "node", "id": 7628156074, "lat": 20.843955, "lon": 79.319869, "tags": {"addr:district": "Nagpur", "addr:full": "Teachers Colony, Umred", "addr:postcode": "441203", "addr:state": "Maharastra", "amenity": "hospital", "name": "Aanandam Multispeciality Hospital and Research Centre", "source": "Local Knowledge"}}, {"type": "node", "id": 7628156076, "lat": 20.8557726, "lon": 79.3224374, "tags": {"addr:district": "Nagpur", "addr:full": "Bhande Plot Square, Umred Road, Nagpur", "addr:postcode": "440008", "addr:state": "Maharastra", "amenity": "hospital", "name": "Laad Hospital", "source": "Local Knowledge"}}, {"type": "node", "id": 7628156091, "lat": 20.8556184, "lon": 79.3224757, "tags": {"addr:district": "Nagpur", "addr:full": "Reshimbagh, Umred Road, Nagpur", "addr:postcode": "440009", "addr:state": "Maharastra", "amenity": "hospital", "name": "Dr. C.S. Gillurkar Multispeciality Hospital", "source": "Local Knowledge"}}, {"type": "node", "id": 7628156092, "lat": 20.8401699, "lon": 79.3256154, "tags": {"addr:district": "Nagpur", "addr:full": "Plot No. 5 & 6, Narayan Nagar, Bypass Road, Umred", "addr:postcode": "441203", "addr:state": "Maharastra", "amenity": "hospital", "name": "Archangel Hospital", "source": "Local Knowledge"}}, {"type": "node", "id": 7628156123, "lat": 20.8467909, "lon": 79.3243166, "tags": {"addr:district": "Nagpur", "addr:full": "Noble Complex, Near Bhisi Naka Square, Umred", "addr:postcode": "441203", "addr:state": "Maharastra", "amenity": "hospital", "name": "Mandal Hospital", "source": "Local Knowledge"}}, {"type": "node", "id": 7628156127, "lat": 20.842944, "lon": 79.322593, "tags": {"addr:district": "Nagpur", "addr:full": "Teachers Colony", "addr:postcode": "441203", "addr:state": "Maharastra", "amenity": "hospital", "name": "Zurmure Hospital", "source": "Local Knowledge"}}, {"type": "node", "id": 7628156134, "lat": 20.8518618, "lon": 79.3229717, "tags": {"addr:district": "Nagpur", "addr:full": "Parvati Heights, Itwari Road, Teachers Colony, Umred", "addr:postcode": "441203", "addr:state": "Maharastra", "amenity": "hospital", "name": "Bhiwapurkar Hospital", "source": "Local Knowledge"}}]}