{"version": 0.6, "generator": "Overpass API 0.7.61.5 4133829e", "osm3s": {"timestamp_osm_base": "2024-02-25T09:23:29Z", "copyright": "The data included in this document is from www.openstreetmap.org. The data is made available under ODbL."}, "elements": [{"type": "node", "id": 4013966990, "lat": 21.5666621, "lon": 78.8546934}, {"type": "node", "id": 4013966991, "lat": 21.5668442, "lon": 78.854747}, {"type": "node", "id": 4013966992, "lat": 21.5667968, "lon": 78.8549536}, {"type": "node", "id": 4013966993, "lat": 21.5666147, "lon": 78.8548999}, {"type": "node", "id": 7226989712, "lat": 21.372858, "lon": 79.1463377, "tags": {"addr:block": "Parshivani", "addr:district": "Nagpur", "addr:full": "Near Market, Parshivani", "addr:postcode": "441105", "addr:state": "Maharashtra", "addr:subdistrict": "Parseoni", "amenity": "hospital", "name": "Rural Hospital, Parshivani", "source": "OpenGovernmentData"}}, {"type": "node", "id": 7628156056, "lat": 21.3865335, "lon": 78.9239998, "tags": {"addr:district": "Nagpur", "addr:full": "Chhindwara Road, Savner", "addr:postcode": "441107", "addr:state": "Maharastra", "amenity": "hospital", "name": "Chandak Hospital", "source": "Local Knowledge"}}, {"type": "node", "id": 7628156057, "lat": 21.386566, "lon": 78.919093, "tags": {"addr:district": "Nagpur", "addr:full": "Savner", "addr:postcode": "441107", "addr:state": "Maharastra", "amenity": "hospital", "name": "Jivtode Orthopaedic Hospital", "source": "Local Knowledge"}}, {"type": "node", "id": 7628156058, "lat": 21.3830192, "lon": 78.9271941, "tags": {"addr:district": "Nagpur", "addr:full": "Saoner, Opposite Dharmakata, Nagpur", "addr:postcode": "441107", "addr:state": "Maharastra", "amenity": "hospital", "name": "Shreyas Patil Multispecialty Hospital", "source": "Local Knowledge"}}, {"type": "node", "id": 7628156064, "lat": 21.3725364, "lon": 79.150455, "tags": {"addr:district": "Nagpur", "addr:full": "Parshivni", "addr:postcode": "441105", "addr:state": "Maharastra", "amenity": "dentist", "name": "Dental Speciality Clinic", "source": "Local Knowledge"}}, {"type": "node", "id": 7628156069, "lat": 21.386253, "lon": 78.919227, "tags": {"addr:district": "Nagpur", "addr:full": "Behind Shreeji Dresses, Savner", "addr:postcode": "441107", "addr:state": "Maharastra", "amenity": "hospital", "name": "Jaiswal Hospital", "source": "Local Knowledge"}}, {"type": "node", "id": 7628156083, "lat": 21.3866096, "lon": 78.9244732, "tags": {"addr:district": "Nagpur", "addr:full": "Railway Station Road, Saoner, Nagpur", "addr:postcode": "441107", "addr:state": "Maharastra", "amenity": "hospital", "name": "Shree Gurukrupa Hospital", "source": "Local Knowledge"}}, {"type": "node", "id": 7628156088, "lat": 21.3858872, "lon": 78.9179568, "tags": {"addr:district": "Nagpur", "addr:full": "Near Subhash Primary School, Savner", "addr:postcode": "441107", "addr:state": "Maharastra", "amenity": "hospital", "name": "Dr. Ghatode Hospital", "source": "Local Knowledge"}}, {"type": "node", "id": 7628156093, "lat": 21.3865153, "lon": 78.9193773, "tags": {"addr:district": "Nagpur", "addr:full": "Savner", "addr:postcode": "441107", "addr:state": "Maharastra", "amenity": "hospital", "name": "Dr. Bokade Hospital", "source": "Local Knowledge"}}, {"type": "node", "id": 7628156097, "lat": 21.386533, "lon": 78.9201733, "tags": {"addr:district": "Nagpur", "addr:full": "Savner", "addr:postcode": "441107", "addr:state": "Maharastra", "amenity": "hospital", "name": "Neha Nursing Home", "source": "Local Knowledge"}}, {"type": "node", "id": 7628156111, "lat": 21.3851549, "lon": 78.9231967, "tags": {"addr:district": "Nagpur", "addr:full": "Civil Line, Saoner, Nagpur", "addr:postcode": "441107", "addr:state": "Maharastra", "amenity": "hospital", "name": "Bhagat Multi Specialist Hospital", "source": "Local Knowledge"}}, {"type": "node", "id": 7628156119, "lat": 21.383377, "lon": 78.926644, "tags": {"addr:district": "Nagpur", "addr:full": "Opp Jeening Cotton Factory, Chhindwara Road, Savner", "addr:postcode": "441107", "addr:state": "Maharastra", "amenity": "hospital", "name": "Patil Multispeciality Hospital", "source": "Local Knowledge"}}, {"type": "node", "id": 7628156121, "lat": 21.3835087, "lon": 78.9255632, "tags": {"addr:district": "Nagpur", "addr:full": "Beside Bus Stand, Bale Layout,Savner Plot No-79, Savner", "addr:postcode": "441107", "addr:state": "Maharastra", "amenity": "clinic", "name": "Kumbhare Children Hospital & Skin Care Clinic", "source": "Local Knowledge"}}, {"type": "node", "id": 7628156128, "lat": 21.383747, "lon": 78.929989, "tags": {"addr:district": "Nagpur", "addr:full": "Savner", "addr:postcode": "441107", "addr:state": "Maharastra", "amenity": "hospital", "name": "Jain Maternity Home", "source": "Local Knowledge"}}, {"type": "node", "id": 7628156148, "lat": 21.385511, "lon": 78.9231872, "tags": {"addr:district": "Nagpur", "addr:full": "Savner", "addr:postcode": "441107", "addr:state": "Maharastra", "amenity": "hospital", "name": "Dr. Bhagat Hospital", "source": "Local Knowledge"}}, {"type": "way", "id": 398648287, "nodes": [4013966990, 4013966991, 4013966992, 4013966993, 4013966990], "tags": {"amenity": "hospital", "name": "Kailaspath singhania Hospital"}}]}