{"version": 0.6, "generator": "Overpass API 0.7.61.5 4133829e", "osm3s": {"timestamp_osm_base": "2024-02-25T09:46:55Z", "copyright": "The data included in this document is from www.openstreetmap.org. The data is made available under ODbL."}, "elements": [{"type": "node", "id": 7034978704, "lat": 27.1649959, "lon": 75.7324609, "tags": {"addr:district": "Jaipur", "addr:full": "Opp: Power House, Morija Road, Chomu", "addr:postcode": "303702", "addr:state": "Rajasthan", "amenity": "hospital", "name": "S S Mahila and General Hospital", "source": "OpenGovernmentData"}}, {"type": "node", "id": 7038590970, "lat": 27.1592521, "lon": 75.7245111, "tags": {"addr:district": "Jaipur", "addr:full": "Jaipur Road, N.H. 11, Choumu", "addr:postcode": "303702", "addr:state": "Rajasthan", "amenity": "clinic", "name": "Rajasthan Nursing Home", "source": "OpenGovernmentData"}}, {"type": "node", "id": 7039977653, "lat": 27.3677787, "lon": 75.574172, "tags": {"addr:district": "Sikar", "addr:full": "Nh-11, Near Math Mandir,Reengus", "addr:postcode": "332404", "addr:state": "Rajasthan", "amenity": "hospital", "name": "Dhayal Hospital and Research Centre", "source": "OpenGovernmentData"}}, {"type": "node", "id": 7040270437, "lat": 27.1575997, "lon": 75.7265174, "tags": {"addr:district": "Jaipur", "addr:full": "18, Ganesh Vihar, Jaipur Road, Choumu", "addr:postcode": "302001", "addr:state": "Rajasthan", "amenity": "hospital", "name": "Sevayatan Hospital", "source": "OpenGovernmentData"}}, {"type": "node", "id": 7040397011, "lat": 27.1731739, "lon": 75.7296181, "tags": {"addr:district": "Jaipur", "addr:full": "Samod Mod, Ringus Road, Chomu", "addr:postcode": "303702", "addr:state": "Rajasthan", "amenity": "hospital", "name": "Chomun Mahila and Eye Hospital", "source": "OpenGovernmentData"}}, {"type": "node", "id": 7279018345, "lat": 27.3768408, "lon": 75.6083817, "tags": {"addr:district": "Sikar", "addr:full": "Near Post Office, Maharoli, Arniya", "addr:postcode": "332603", "addr:state": "Rajasthan", "addr:subdistrict": "Sri Madhopur", "amenity": "hospital", "name": "Government Hospital, Mahroli", "source": "OpenGovernmentData"}}, {"type": "node", "id": 7279018359, "lat": 27.4646946, "lon": 75.598245, "tags": {"addr:district": "Sikar", "addr:full": "Nagarpalika, Shrimadhopur", "addr:postcode": "332715", "addr:state": "Rajasthan", "addr:subdistrict": "Sri Madhopur", "amenity": "hospital", "name": "Governmet Hospital Shrimadhopur", "source": "OpenGovernmentData"}}, {"type": "node", "id": 7279018360, "lat": 27.3241815, "lon": 75.6063915, "tags": {"addr:district": "Sikar", "addr:full": "Near Shiv Shankar Tant House Sargoth", "addr:postcode": "332404", "addr:state": "Rajasthan", "addr:subdistrict": "Sri Madhopur", "amenity": "hospital", "name": "Government Hospital Sargoth", "source": "OpenGovernmentData"}}, {"type": "node", "id": 7279018380, "lat": 27.3733241, "lon": 75.8303065, "tags": {"addr:district": "Jaipur", "addr:full": "Amarsar Link Road, Near Main Market, Amarsar", "addr:postcode": "303601", "addr:state": "Rajasthan", "addr:subdistrict": "Shahpura", "amenity": "hospital", "name": "Government Referral Hospital, Amarsar", "source": "OpenGovernmentData"}}, {"type": "node", "id": 7279018383, "lat": 27.368697, "lon": 75.5641472}, {"type": "node", "id": 7279018405, "lat": 27.4227809, "lon": 75.8224332}, {"type": "node", "id": 7279018423, "lat": 27.3573217, "lon": 75.7445316, "tags": {"addr:district": "Jaipur", "addr:full": "Unnamed Road, Bilandarpur", "addr:postcode": "303803", "addr:state": "Rajasthan", "addr:subdistrict": "Shahpura", "amenity": "hospital", "name": "Government Hospital, Bilanderpur", "source": "OpenGovernmentData"}}, {"type": "node", "id": 7279018441, "lat": 27.2949384, "lon": 75.520363, "tags": {"addr:block": "Govindgarh", "addr:district": "Jaipur", "addr:full": "Govindgarh, Near Nh-11 Sikar Road, Kishanmanpura", "addr:postcode": "303602", "addr:state": "Rajasthan", "addr:subdistrict": "Chomu", "amenity": "hospital", "name": "Government Hospital, Kishanmanpura", "source": "OpenGovernmentData"}}, {"type": "node", "id": 7279018513, "lat": 27.2990227, "lon": 75.4144867, "tags": {"addr:block": "DANTA RAMGARH", "addr:district": "Sikar", "addr:full": "Pachar,Khatushyamji Road, Lamiyan", "addr:postcode": "332602", "addr:state": "Rajasthan", "amenity": "hospital", "name": "Lamiyan Government Hospital", "source": "OpenGovernmentData"}}, {"type": "node", "id": 7279062539, "lat": 27.1833726, "lon": 75.456281, "tags": {"addr:block": "Sambhar", "addr:district": "Jaipur", "addr:full": "Near Grid Sub Station, Bagawas", "addr:postcode": "303603", "addr:state": "Rajasthan", "addr:subdistrict": "Phulera (Hq.Sambhar)", "amenity": "hospital", "name": "Government Hospital, Bagawas", "source": "OpenGovernmentData"}}, {"type": "node", "id": 7279062571, "lat": 27.256064, "lon": 75.721928, "tags": {"addr:block": "Govindgarh", "addr:district": "Jaipur", "addr:full": "Itawa Bhopji", "addr:postcode": "303804", "addr:state": "Rajasthan", "addr:subdistrict": "Chomu", "amenity": "hospital", "name": "Government Hospital,Itawa Bhopji", "source": "OpenGovernmentData"}}, {"type": "node", "id": 7279062580, "lat": 27.276877, "lon": 75.728936, "tags": {"addr:block": "Govindgarh", "addr:district": "Jaipur", "addr:full": "Near Nh-11 Sikar Road, Niwana", "addr:postcode": "303804", "addr:state": "Rajasthan", "addr:subdistrict": "Chomu", "amenity": "hospital", "name": "Government Hospital, Niwana", "source": "OpenGovernmentData"}}, {"type": "node", "id": 7279062651, "lat": 27.178768, "lon": 75.539157, "tags": {"addr:district": "Jaipur", "addr:full": "Mandha Bhinda", "addr:postcode": "303712", "addr:state": "Rajasthan", "addr:subdistrict": "Jamwa Ramgarh", "amenity": "hospital", "name": "Govt Hospital,Dhola", "source": "OpenGovernmentData"}}, {"type": "node", "id": 7682191269, "lat": 27.4399784, "lon": 75.6947544, "tags": {"addr:district": "Sikar", "addr:full": "Ghatamdaswali", "addr:postcode": "332715", "addr:state": "Rajasthan", "amenity": "clinic", "name": "Dr. Banshidhar Clinic", "source": "Local Knowledge"}}, {"type": "node", "id": 7682191280, "lat": 27.4689165, "lon": 75.6100682, "tags": {"addr:district": "Sikar", "addr:full": "Shrimadhopur", "addr:postcode": "332715", "addr:state": "Rajasthan", "amenity": "dentist", "name": "Kathuria Dental Clinic", "source": "Local Knowledge"}}, {"type": "node", "id": 7682191292, "lat": 27.4618844, "lon": 75.5995291, "tags": {"addr:district": "Sikar", "addr:full": "Shrimadhopur", "addr:postcode": "332715", "addr:state": "Rajasthan", "amenity": "clinic", "name": "Dr. Pramod Grag Clinic", "source": "Local Knowledge"}}, {"type": "node", "id": 7682191307, "lat": 27.4630431, "lon": 75.6015009, "tags": {"addr:district": "Sikar", "addr:full": "Shrimadhopur", "addr:postcode": "332715", "addr:state": "Rajasthan", "amenity": "hospital", "name": "Dr. Madhav Singh Hospital", "source": "Local Knowledge"}}, {"type": "node", "id": 7694895077, "lat": 27.1622261, "lon": 75.7244958, "tags": {"addr:district": "Jaipur", "addr:postcode": "303702", "addr:state": "Rajasthan", "amenity": "hospital", "name": "Lata Kayakalp Physiotherapy and Ayurvedic Hospital", "source": "Local Knowledge"}}, {"type": "node", "id": 7694895087, "lat": 27.1647635, "lon": 75.7235741, "tags": {"addr:district": "Jaipur", "addr:full": "Chomu", "addr:postcode": "303702", "addr:state": "Rajasthan", "amenity": "clinic", "name": "Sanjeevani Clinic", "source": "Local Knowledge"}}, {"type": "node", "id": 7694895090, "lat": 27.164571, "lon": 75.7234946, "tags": {"addr:district": "Jaipur", "addr:full": "Jaipur Road, Chomu", "addr:postcode": "303702", "addr:state": "Rajasthan", "amenity": "hospital", "name": "Ram ENT Hospital", "source": "Local Knowledge"}}, {"type": "node", "id": 7694895093, "lat": 27.1578048, "lon": 75.72583, "tags": {"addr:district": "Jaipur", "addr:full": "Ganesh Vihar, Chomu", "addr:postcode": "303702", "addr:state": "Rajasthan", "amenity": "hospital", "name": "Balaji Fracture Hospital", "source": "Local Knowledge"}}, {"type": "node", "id": 7694895095, "lat": 27.1559455, "lon": 75.7243586, "tags": {"addr:district": "Jaipur", "addr:full": "Magadh Nagar, Chomu", "addr:postcode": "303702", "addr:state": "Rajasthan", "amenity": "hospital", "name": "Jankalyan Hospital", "source": "Local Knowledge"}}, {"type": "node", "id": 7694895097, "lat": 27.1570258, "lon": 75.7266221, "tags": {"addr:district": "Jaipur", "addr:full": "Basant Vihar Colony, Chomu", "addr:postcode": "303702", "addr:state": "Rajasthan", "amenity": "hospital", "name": "Anjani Hospital", "source": "Local Knowledge"}}, {"type": "node", "id": 7694895102, "lat": 27.1633195, "lon": 75.7227808, "tags": {"addr:district": "Jaipur", "addr:full": "Chomu", "addr:postcode": "303704", "addr:state": "Rajasthan", "amenity": "hospital", "name": "Kapoor Hospital", "source": "Local Knowledge"}}, {"type": "node", "id": 7694895106, "lat": 27.171214, "lon": 75.726712, "tags": {"addr:district": "Jaipur", "addr:full": "Jaipur Road, Chomu", "addr:postcode": "303702", "addr:state": "Rajasthan", "amenity": "dentist", "name": "Rama Dental Hospital", "source": "Local Knowledge"}}, {"type": "node", "id": 7694895107, "lat": 27.1618614, "lon": 75.7247333, "tags": {"addr:district": "Jaipur", "addr:full": "Magadh Nagar, Chomu", "addr:postcode": "303702", "addr:state": "Rajasthan", "amenity": "hospital", "name": "Arya Hospital", "source": "Local Knowledge"}}, {"type": "node", "id": 7694895111, "lat": 27.1570093, "lon": 75.7237421, "tags": {"addr:district": "Jaipur", "addr:full": "Ashok Nagar, Chomu", "addr:postcode": "303702", "addr:state": "Rajasthan", "amenity": "hospital", "name": "Alex Ayush Ayurvedic Hub and Hospital", "source": "Local Knowledge"}}, {"type": "node", "id": 7694895116, "lat": 27.1731183, "lon": 75.6860387, "tags": {"addr:district": "Jaipur", "addr:full": "Jaipur", "addr:postcode": "303702", "addr:state": "Rajasthan", "amenity": "clinic", "name": "Bhardwaj Chikitsalaya", "source": "Local Knowledge"}}, {"type": "node", "id": 7694895120, "lat": 27.1680484, "lon": 75.7182433, "tags": {"addr:district": "Jaipur", "addr:postcode": "303702", "addr:state": "Rajasthan", "amenity": "clinic", "name": "Dr. Wasim Khan's Skin Clinic", "source": "Local Knowledge"}}, {"type": "node", "id": 7694895122, "lat": 27.1722289, "lon": 75.7279798, "tags": {"addr:district": "Jaipur", "addr:full": "Jaipur Road, Chomu", "addr:postcode": "303702", "addr:state": "Rajasthan", "amenity": "hospital", "name": "Saini Hospital", "source": "Local Knowledge"}}, {"type": "node", "id": 7694895125, "lat": 27.1769884, "lon": 75.7288495, "tags": {"addr:district": "Jaipur", "addr:full": "Chomu", "addr:postcode": "303702", "addr:state": "Rajasthan", "amenity": "hospital", "name": "MJF Hospital", "source": "Local Knowledge"}}, {"type": "node", "id": 7694895128, "lat": 27.1717034, "lon": 75.7267171, "tags": {"addr:district": "Jaipur", "addr:full": "Chomu", "addr:postcode": "303702", "addr:state": "Rajasthan", "amenity": "hospital", "name": "City Hospital", "source": "Local Knowledge"}}, {"type": "node", "id": 7694895129, "lat": 27.156382, "lon": 75.72497, "tags": {"addr:district": "Jaipur", "addr:full": "Krishana Vihar, Chomu", "addr:postcode": "303702", "addr:state": "Rajasthan", "amenity": "hospital", "name": "R.K. Fracture Hospital and Trauma Centre", "source": "Local Knowledge"}}, {"type": "node", "id": 7694895132, "lat": 27.165107, "lon": 75.722436, "tags": {"addr:district": "Jaipur", "addr:full": "Chomu", "addr:postcode": "303702", "addr:state": "Rajasthan", "amenity": "hospital", "name": "Chomu Janana and General Hospital", "source": "Local Knowledge"}}, {"type": "node", "id": 7694895136, "lat": 27.167222, "lon": 75.723902, "tags": {"addr:district": "Jaipur", "addr:full": "Jaipur Road, Chomu", "addr:postcode": "303702", "addr:state": "Rajasthan", "amenity": "dentist", "name": "Birla Hospital and Dental Clinic", "source": "Local Knowledge"}}, {"type": "node", "id": 7694895137, "lat": 27.1713552, "lon": 75.7282155, "tags": {"addr:district": "Jaipur", "addr:full": "Gurudham Colony, Chomu", "addr:postcode": "303702", "addr:state": "Rajasthan", "amenity": "hospital", "name": "Om Child Hospital", "source": "Local Knowledge"}}, {"type": "node", "id": 7694895138, "lat": 27.1681152, "lon": 75.7185371, "tags": {"addr:district": "Jaipur", "addr:full": "Keshav Nagar, Chomu", "addr:postcode": "303702", "addr:state": "Rajasthan", "amenity": "clinic", "name": "Arogya Clinic", "source": "Local Knowledge"}}, {"type": "node", "id": 7694895139, "lat": 27.167463, "lon": 75.717373, "tags": {"addr:district": "Jaipur", "addr:full": "Naya BaJar, Chomu", "addr:postcode": "303702", "addr:state": "Rajasthan", "amenity": "clinic", "name": "Trilok Nursing Home", "source": "Local Knowledge"}}, {"type": "node", "id": 7694895145, "lat": 27.169341, "lon": 75.718947, "tags": {"addr:district": "Jaipur", "addr:full": "Keshav Nagar, Chomu", "addr:postcode": "303702", "addr:state": "Rajasthan", "amenity": "hospital", "name": "Yadav Eye Hospital", "source": "Local Knowledge"}}, {"type": "node", "id": 7694895146, "lat": 27.1754748, "lon": 75.7404071, "tags": {"addr:district": "Jaipur", "addr:full": "Jaipur", "addr:postcode": "303702", "addr:state": "Rajasthan", "amenity": "hospital", "name": "Sanjeevani Hospital", "source": "Local Knowledge"}}, {"type": "node", "id": 7694895148, "lat": 27.1563372, "lon": 75.7244195, "tags": {"addr:district": "Jaipur", "addr:full": "Chomu", "addr:postcode": "303702", "addr:state": "Rajasthan", "amenity": "hospital", "name": "Shiv Dhara Hospital", "source": "Local Knowledge"}}, {"type": "node", "id": 7694895150, "lat": 27.1623586, "lon": 75.7155912, "tags": {"addr:district": "Jaipur", "addr:full": "Khadi Bagh, Chomu", "addr:postcode": "303702", "addr:state": "Rajasthan", "amenity": "dentist", "name": "Soni Dental Clinic", "source": "Local Knowledge"}}, {"type": "node", "id": 7694895155, "lat": 27.1652891, "lon": 75.7311771, "tags": {"addr:district": "Jaipur", "addr:full": "Sriram Nagar, Chomu", "addr:postcode": "303702", "addr:state": "Rajasthan", "amenity": "hospital", "name": "Gurukripa Hospital", "source": "Local Knowledge"}}, {"type": "node", "id": 7694895156, "lat": 27.1603051, "lon": 75.7245362, "tags": {"addr:district": "Jaipur", "addr:full": "Ashok Vihar, Jaipur Road, Chomu", "addr:postcode": "303704", "addr:state": "Rajasthan", "amenity": "hospital", "name": "Sharma Hospital", "source": "Local Knowledge"}}, {"type": "node", "id": 7694895157, "lat": 27.1652398, "lon": 75.7175441, "tags": {"addr:district": "Jaipur", "addr:full": "Chomu", "addr:postcode": "303702", "addr:state": "Rajasthan", "amenity": "hospital", "name": "Shiv Hospital", "source": "Local Knowledge"}}, {"type": "node", "id": 7713152851, "lat": 27.4250105, "lon": 75.5621973, "tags": {"addr:district": "Sikar", "addr:full": "Patwari Ka Bas", "addr:postcode": "332404", "addr:state": "Rajasthan", "amenity": "hospital", "name": "Government Hospital, Patwari Ka Bas", "source": "Local Knowledge"}}, {"type": "node", "id": 10880618324, "lat": 27.3430427, "lon": 75.6963391}, {"type": "node", "id": 10880618325, "lat": 27.3426032, "lon": 75.6963819}, {"type": "node", "id": 10880618326, "lat": 27.3426263, "lon": 75.6969121}, {"type": "node", "id": 10880618327, "lat": 27.3428353, "lon": 75.6968888}, {"type": "node", "id": 10880618328, "lat": 27.3428353, "lon": 75.6969214}, {"type": "node", "id": 10880618329, "lat": 27.3428122, "lon": 75.6969251}, {"type": "node", "id": 10880618330, "lat": 27.3428139, "lon": 75.6969614}, {"type": "node", "id": 10880618331, "lat": 27.3428866, "lon": 75.6969567}, {"type": "node", "id": 10880618332, "lat": 27.3428824, "lon": 75.6969176}, {"type": "node", "id": 10880618333, "lat": 27.3428585, "lon": 75.6969176}, {"type": "node", "id": 10880618334, "lat": 27.3428585, "lon": 75.6968869}, {"type": "node", "id": 10880618335, "lat": 27.34307, "lon": 75.6968693}, {"type": "node", "id": 10894575069, "lat": 27.3297304, "lon": 75.7031574}, {"type": "node", "id": 10894575070, "lat": 27.3297926, "lon": 75.7030966}, {"type": "node", "id": 10894575071, "lat": 27.3296905, "lon": 75.7029608}, {"type": "node", "id": 10894575072, "lat": 27.3296201, "lon": 75.7030253}, {"type": "node", "id": 11261090014, "lat": 27.3679943, "lon": 75.5638388}, {"type": "node", "id": 11261090015, "lat": 27.3674012, "lon": 75.564512}, {"type": "node", "id": 11261090016, "lat": 27.3672416, "lon": 75.5643216}, {"type": "node", "id": 11261090017, "lat": 27.3665365, "lon": 75.5651289}, {"type": "node", "id": 11261090018, "lat": 27.3666699, "lon": 75.5651665}, {"type": "node", "id": 11261090019, "lat": 27.3666151, "lon": 75.5652791}, {"type": "node", "id": 11261090020, "lat": 27.3674083, "lon": 75.565609}, {"type": "node", "id": 11261090021, "lat": 27.3674536, "lon": 75.5653971}, {"type": "node", "id": 11261090022, "lat": 27.367737, "lon": 75.5654374}, {"type": "node", "id": 11261090023, "lat": 27.3687422, "lon": 75.5652764}, {"type": "node", "id": 11516315152, "lat": 27.4146206, "lon": 75.8135099}, {"type": "node", "id": 11516315153, "lat": 27.414523, "lon": 75.8117074}, {"type": "node", "id": 11516315154, "lat": 27.4140921, "lon": 75.8117369}, {"type": "node", "id": 11516315155, "lat": 27.413825, "lon": 75.8134473}, {"type": "node", "id": 11516315156, "lat": 27.4140683, "lon": 75.8135957}, {"type": "node", "id": 11516315157, "lat": 27.4142754, "lon": 75.8132953}, {"type": "node", "id": 11516315158, "lat": 27.4146206, "lon": 75.8135528}, {"type": "node", "id": 11565338662, "lat": 27.4230714, "lon": 75.8218539}, {"type": "node", "id": 11565338663, "lat": 27.4242332, "lon": 75.8224761}, {"type": "node", "id": 11565338664, "lat": 27.4240618, "lon": 75.8231574}, {"type": "way", "id": 1170512651, "nodes": [10880618324, 10880618325, 10880618326, 10880618327, 10880618328, 10880618329, 10880618330, 10880618331, 10880618332, 10880618333, 10880618334, 10880618335, 10880618324], "tags": {"addr:city": "Khejroli", "addr:postcode": "303803", "addr:street": "Johad", "building": "hospital", "name": "Community Health Center, Khejroli", "smoking": "no"}}, {"type": "way", "id": 1172596737, "nodes": [10894575069, 10894575070, 10894575071, 10894575072, 10894575069], "tags": {"addr:city": "Khejroli", "addr:postcode": "303803", "building": "hospital", "name": "FS Multispeciality Hospital"}}, {"type": "way", "id": 1215427720, "nodes": [11261090023, 11261090022, 11261090021, 11261090020, 11261090019, 11261090018, 11261090017, 11261090016, 11261090015, 11261090014, 7279018383, 11261090023], "tags": {"addr:district": "Sikar", "addr:full": "Baleshwar Mohalla, Reengus", "addr:postcode": "332404", "addr:state": "Rajasthan", "addr:subdistrict": "Sri Madhopur", "amenity": "hospital", "name": "Government Hospital Reengus", "source": "OpenGovernmentData"}}, {"type": "way", "id": 1239631712, "nodes": [11516315152, 11516315153, 11516315154, 11516315155, 11516315156, 11516315157, 11516315158, 11516315152], "tags": {"building": "hospital", "name": "Gitanjali Hospital"}}, {"type": "way", "id": 1244199478, "nodes": [7279018405, 11565338664, 11565338663, 11565338662, 7279018405], "tags": {"addr:district": "Sikar", "addr:full": "Jaipur Road, Near Police Station, Ajeetgarh, Sikar", "addr:postcode": "332701", "addr:state": "Rajasthan", "addr:subdistrict": "Sri Madhopur", "amenity": "hospital", "name": "Baba Narayan Das Government General Hospital, Ajeetgarh", "source": "OpenGovernmentData"}}]}