{"version": 0.6, "generator": "Overpass API 0.7.61.5 4133829e", "osm3s": {"timestamp_osm_base": "2024-02-25T09:23:29Z", "copyright": "The data included in this document is from www.openstreetmap.org. The data is made available under ODbL."}, "elements": [{"type": "node", "id": 3947742114, "lat": 21.3898227, "lon": 79.3360547}, {"type": "node", "id": 3947742209, "lat": 21.3902359, "lon": 79.3354441}, {"type": "node", "id": 3947742210, "lat": 21.3899121, "lon": 79.3359014}, {"type": "node", "id": 3947742211, "lat": 21.3904065, "lon": 79.3364322}, {"type": "node", "id": 3947742212, "lat": 21.3910416, "lon": 79.3366967}, {"type": "node", "id": 3947767484, "lat": 21.3913461, "lon": 79.3360947}, {"type": "node", "id": 3947767485, "lat": 21.3899317, "lon": 79.3358744}, {"type": "node", "id": 3948420790, "lat": 21.3854426, "lon": 79.3381331}, {"type": "node", "id": 3948422761, "lat": 21.384879, "lon": 79.3388968}, {"type": "node", "id": 3948425558, "lat": 21.3849796, "lon": 79.3377281}, {"type": "node", "id": 3948425559, "lat": 21.3843889, "lon": 79.3384995}, {"type": "node", "id": 3953445275, "lat": 21.3933309, "lon": 79.3280312}, {"type": "node", "id": 3953446928, "lat": 21.3933945, "lon": 79.3280634}, {"type": "node", "id": 3953446929, "lat": 21.3933324, "lon": 79.3281973}, {"type": "node", "id": 3953455310, "lat": 21.3932635, "lon": 79.3281614}, {"type": "node", "id": 3955079283, "lat": 21.3950379, "lon": 79.3018257}, {"type": "node", "id": 3955122066, "lat": 21.3950386, "lon": 79.301589}, {"type": "node", "id": 3955122067, "lat": 21.394941, "lon": 79.3017212}, {"type": "node", "id": 3955122378, "lat": 21.3947314, "lon": 79.3015712}, {"type": "node", "id": 3955122379, "lat": 21.394939, "lon": 79.3016167}, {"type": "node", "id": 3955122459, "lat": 21.3947521, "lon": 79.3018079}, {"type": "node", "id": 3955122760, "lat": 21.3948109, "lon": 79.3016228}, {"type": "node", "id": 3955122858, "lat": 21.3948239, "lon": 79.3017365}, {"type": "node", "id": 3955141166, "lat": 21.3942404, "lon": 79.3265871, "tags": {"amenity": "clinic", "name": "Dr Nilay Hande Clinic"}}, {"type": "node", "id": 3955141362, "lat": 21.3943515, "lon": 79.3266657, "tags": {"amenity": "clinic", "name": "Dr Qureshi Clinic"}}, {"type": "node", "id": 3955141759, "lat": 21.3945269, "lon": 79.3268789, "tags": {"amenity": "clinic", "name": "Dr Surendra Kumbhalwar Clinic"}}, {"type": "node", "id": 7226989659, "lat": 21.5833538, "lon": 79.3674933, "tags": {"addr:district": "Nagpur", "addr:full": "Deolapar, Ramtek", "addr:postcode": "441401", "addr:state": "Maharashtra", "addr:subdistrict": "Ramtek", "amenity": "hospital", "name": "Rural Hospital, Deolapar", "source": "OpenGovernmentData"}}, {"type": "node", "id": 7628156068, "lat": 21.3945604, "lon": 79.3264299, "tags": {"addr:district": "Nagpur", "addr:full": "Gandhi Chowk, Ramtek, Nagpur", "addr:postcode": "441106", "addr:state": "Maharastra", "amenity": "hospital", "name": "Hande Hospital", "source": "Local Knowledge"}}, {"type": "node", "id": 7628156080, "lat": 21.393456, "lon": 79.317917, "tags": {"addr:district": "Nagpur", "addr:full": "Tilak Ward, Ramtek", "addr:postcode": "441106", "addr:state": "Maharastra", "amenity": "clinic", "name": "Dr. Rajesh Pawde, Pulse Clinic & Hospital", "source": "Local Knowledge"}}, {"type": "node", "id": 7628156085, "lat": 21.3938243, "lon": 79.3244391, "tags": {"addr:district": "Nagpur", "addr:full": "Opp Shri Gajanan Shopping Mall, Ramtek", "addr:postcode": "441106", "addr:state": "Maharastra", "amenity": "hospital", "name": "Dr. Lodhi Hospital", "source": "Local Knowledge"}}, {"type": "node", "id": 7628156087, "lat": 21.3948548, "lon": 79.3264822, "tags": {"addr:district": "Nagpur", "addr:full": "Shantinath Road, Ramtek", "addr:postcode": "441106", "addr:state": "Maharastra", "amenity": "dentist", "name": "Janhavi Dental Clinic", "source": "Local Knowledge"}}, {"type": "node", "id": 7628156094, "lat": 21.3946303, "lon": 79.3178879, "tags": {"addr:district": "Nagpur", "addr:full": "Dr. Choudhari Abha Clinic, Tilak Ward, Professor Colony, Ramtek", "addr:postcode": "441106", "addr:state": "Maharastra", "amenity": "dentist", "name": "Choudhari Hospital and Dental Clinic", "source": "Local Knowledge"}}, {"type": "node", "id": 7628156098, "lat": 21.394009, "lon": 79.3278458, "tags": {"addr:district": "Nagpur", "addr:full": "Ramtek", "addr:postcode": "441106", "addr:state": "Maharastra", "amenity": "clinic", "name": "Mayur Clinic", "source": "Local Knowledge"}}, {"type": "node", "id": 7628156106, "lat": 21.395339, "lon": 79.3274139, "tags": {"addr:district": "Nagpur", "addr:full": "Gandhi Ward, MH SH 249, Ramtek", "addr:postcode": "441106", "addr:state": "Maharastra", "amenity": "hospital", "name": "Vivekanand Hospital", "source": "Local Knowledge"}}, {"type": "node", "id": 7628156118, "lat": 21.398069, "lon": 79.279522, "tags": {"addr:district": "Nagpur", "addr:full": "Near Mansar Buddhist Stupa Site, Nagpur", "addr:postcode": "441401", "addr:state": "Maharastra", "amenity": "hospital", "name": "Munsar Mine Hospital", "source": "Local Knowledge"}}, {"type": "node", "id": 7628156143, "lat": 21.3976845, "lon": 79.26202, "tags": {"addr:district": "Nagpur", "addr:full": "JN Road, Mansar, Nagpur", "addr:postcode": "441401", "addr:state": "Maharastra", "amenity": "clinic", "name": "Dr. Tatwawadi Clinic", "source": "Local Knowledge"}}, {"type": "node", "id": 7628156145, "lat": 21.396581, "lon": 79.325694, "tags": {"addr:district": "Nagpur", "addr:full": "Shivaji Ward, Ramtek", "addr:postcode": "441106", "addr:state": "Maharastra", "amenity": "clinic", "name": "Dr. Malakar Clinic", "source": "Local Knowledge"}}, {"type": "node", "id": 7628156146, "lat": 21.3944197, "lon": 79.3266518, "tags": {"addr:district": "Nagpur", "addr:full": "Ramtek", "addr:postcode": "441106", "addr:state": "Maharastra", "amenity": "hospital", "name": "New Kimmatkar Hospital", "source": "Local Knowledge"}}, {"type": "way", "id": 391555277, "nodes": [3947742209, 3947767485, 3947742210, 3947742114, 3947742211, 3947742212, 3947767484, 3947742209], "tags": {"addr:district": "Nagpur", "addr:place": "Ramtek", "addr:postcode": "441106", "addr:state": "Maharashtra", "addr:subdistrict": "Ramtek", "amenity": "hospital", "name": "District Rural Hospital", "name:mr": "\u091c\u093f\u0932\u094d\u0939\u093e \u0909\u092a-\u0930\u0942\u0917\u094d\u0923\u093e\u0932\u092f", "source": "OpenGovernmentData"}}, {"type": "way", "id": 391621110, "nodes": [3948420790, 3948425558, 3948425559, 3948422761, 3948420790], "tags": {"addr:place": "Ramtek", "amenity": "hospital", "name": "Yogiraj Hospital"}}, {"type": "way", "id": 392073898, "nodes": [3953446928, 3953446929, 3953455310, 3953445275, 3953446928], "tags": {"addr:district": "Nagpur", "addr:full": "Rajaji Ward, Ramtek", "addr:postcode": "441106", "addr:state": "Maharastra", "amenity": "hospital", "name": "Jaiswal Hospital", "source": "Local Knowledge"}}, {"type": "way", "id": 392270701, "nodes": [3955122066, 3955079283, 3955122459, 3955122378, 3955122066], "tags": {"amenity": "hospital", "name": "Keemaya Hospital"}}, {"type": "way", "id": 392270702, "nodes": [3955122379, 3955122067, 3955122858, 3955122760, 3955122379], "tags": {"building": "hospital"}}]}