{"version": 0.6, "generator": "Overpass API 0.7.61.5 4133829e", "osm3s": {"timestamp_osm_base": "2024-02-25T09:46:55Z", "copyright": "The data included in this document is from www.openstreetmap.org. The data is made available under ODbL."}, "elements": [{"type": "node", "id": 1466911306, "lat": 26.9152206, "lon": 75.8099046, "tags": {"amenity": "fast_food"}}, {"type": "node", "id": 2072540591, "lat": 26.9224909, "lon": 75.7923423, "tags": {"alt_name": "Forresta", "amenity": "bar", "int_name": "Devraj Niwas", "name": "The Forresta Kitchen & Bar", "wifi": "free"}}, {"type": "node", "id": 2326592445, "lat": 26.9237451, "lon": 75.8013225}, {"type": "node", "id": 2326592448, "lat": 26.9237459, "lon": 75.8012704}, {"type": "node", "id": 2326592449, "lat": 26.9236739, "lon": 75.8012703}, {"type": "node", "id": 3076106633, "lat": 26.8619406, "lon": 75.8065239, "tags": {"addr:city": "jaipur", "addr:country": "IN", "addr:state": "Rajasthan", "addr:street": "JLN Road", "amenity": "food_court", "name": "Saras Parlur", "opening_hours": "sunrise-sunset"}}, {"type": "node", "id": 3209386497, "lat": 26.9206156, "lon": 75.8041948, "tags": {"amenity": "cafe", "description": "Inside Hotel Arya Niwas", "name": "Chitra Caf\u00e9"}}, {"type": "node", "id": 3677355517, "lat": 26.9179421, "lon": 75.7999212, "tags": {"amenity": "bar", "name": "Amigos bar"}}, {"type": "node", "id": 3685074596, "lat": 26.915555, "lon": 75.7949393, "tags": {"amenity": "cafe", "check_date": "2023-10-23", "name": "Nibs", "payment:credit_cards": "yes", "payment:debit_cards": "yes"}}, {"type": "node", "id": 3747116986, "lat": 27.0142879, "lon": 75.7530237, "tags": {"amenity": "cafe", "name": "nimmu chai dukan"}}, {"type": "node", "id": 3781906926, "lat": 26.9159839, "lon": 75.8098987, "tags": {"amenity": "fast_food", "brand": "McDonald's", "brand:pa": "\u0a2e\u0a48\u0a15\u0a21\u0a4b\u0a28\u0a32\u0a21\u2019\u0a1c\u0a3c", "brand:ur": "\u0645\u06a9\u0688\u0648\u0646\u0644\u0688\u0632", "brand:wikidata": "Q38076", "brand:wikipedia": "en:McDonald's", "brand:wikipedia:pa": "\u0a2e\u0a48\u0a15\u0a21\u0a4b\u0a28\u0a32\u0a21\u2019\u0a1c\u0a3c", "brand:wikipedia:ur": "\u0645\u06a9\u0688\u0648\u0646\u0644\u0688\u0632", "name": "McDonald's", "name:pa": "\u0a2e\u0a48\u0a15\u0a21\u0a4b\u0a28\u0a32\u0a21\u2019\u0a1c\u0a3c", "name:ur": "\u0645\u06a9\u0688\u0648\u0646\u0644\u0688\u0632"}}, {"type": "node", "id": 3787547419, "lat": 26.8486021, "lon": 75.7684311}, {"type": "node", "id": 3830464221, "lat": 26.9311763, "lon": 75.8004455, "tags": {"addr:city": "Jaipur", "addr:postcode": "302016", "addr:street": "Meera Marg", "amenity": "fast_food", "name": "Shree Ganesh Namkeen Bhandar"}}, {"type": "node", "id": 3875761989, "lat": 26.9170881, "lon": 75.743631, "tags": {"amenity": "cafe", "name": "Corner 10"}}, {"type": "node", "id": 4015018939, "lat": 26.9060748, "lon": 75.7970467, "tags": {"addr:city": "Jaipur", "addr:housenumber": "R-14", "addr:postcode": "302001", "addr:street": "Yudhishthir Marg", "amenity": "cafe", "brand:wikidata": "Q5017235", "brand:wikipedia": "en:Caf\u00e9 Coffee Day", "cuisine": "coffee_shop", "internet_access": "no", "level": "0", "name": "Cafe Coffee Day", "opening_hours": "11:00-23:00", "phone": "+911414048647", "smoking": "outside", "website": "https://www.cafecoffeeday.com/", "wheelchair": "limited"}}, {"type": "node", "id": 4015041301, "lat": 26.906136, "lon": 75.7969589, "tags": {"addr:city": "Jaipur", "addr:housenumber": "R-14", "addr:postcode": "302001", "addr:street": "Yudhishthir Marg", "amenity": "bar", "level": "-1_&_0", "name": "100% Rock", "opening_hours": "11:00-23:00", "operator": "Hotel Shikha", "phone": "+911414031212", "smoking": "outside", "website": "https://www.hotelshikha.com/bar-restaurant-jaipur.htm", "wheelchair": "limited"}}, {"type": "node", "id": 4226402893, "lat": 26.8217049, "lon": 75.8168559, "tags": {"amenity": "bar", "name": "Sukoon Bar"}}, {"type": "node", "id": 4460472108, "lat": 26.9151335, "lon": 75.8099213, "tags": {"amenity": "fast_food", "brand": "Domino's", "brand:ks": "\u0688\u0648\u0645\u06cc\u0646\u0648\u0632", "brand:pa": "\u0a21\u0a4b\u0a2e\u0a40\u0a28\u0a4b\u0a1c\u0a3c", "brand:ur": "\u0688\u0648\u0645\u06cc\u0646\u0648\u0632", "brand:wikidata": "Q839466", "brand:wikipedia": "en:Domino's Pizza", "name": "Domino's", "name:ks": "\u0688\u0648\u0645\u06cc\u0646\u0648\u0632", "name:pa": "\u0a21\u0a4b\u0a2e\u0a40\u0a28\u0a4b\u0a1c\u0a3c", "name:ur": "\u0688\u0648\u0645\u06cc\u0646\u0648\u0632"}}, {"type": "node", "id": 4562817902, "lat": 26.921112, "lon": 75.796593, "tags": {"addr:postcode": "302001", "addr:street": "Station Road", "amenity": "cafe", "name:en": "Rawat Misthan Bhandar", "opening_hours": "Mo-Su 11:00-23:00"}}, {"type": "node", "id": 4744500823, "lat": 26.9171606, "lon": 75.8145919, "tags": {"addr:street": "Mirza Ismail Road", "amenity": "cafe", "name": "India Coffe House", "name:en": "India Coffe Housepk look ii", "opening_hours": "Mo-Su 08:00-21:00", "operator": "ynwaphoto"}}, {"type": "node", "id": 4744578221, "lat": 26.9164507, "lon": 75.7991333, "tags": {"amenity": "cafe", "name": "coffey Day"}}, {"type": "node", "id": 4793756923, "lat": 26.917149, "lon": 75.8145028, "tags": {"amenity": "cafe", "name:en": "indian coffe house"}}, {"type": "node", "id": 4811264442, "lat": 26.916173, "lon": 75.8106707, "tags": {"amenity": "cafe", "email": "v2cafelounge@gmail.com", "internet_access": "wlan", "name:en": "V2 Cafe Lounge"}}, {"type": "node", "id": 4849657022, "lat": 26.9201285, "lon": 75.795381, "tags": {"amenity": "fast_food", "name:en": "Talk of the Town"}}, {"type": "node", "id": 4959540921, "lat": 26.9056742, "lon": 75.8111596, "tags": {"addr:city": "Jaipur", "addr:state": "Rajasthan", "amenity": "cafe", "name": "Tapri Central", "name:en": "Tapri"}}, {"type": "node", "id": 4979230322, "lat": 26.9169697, "lon": 75.8039711, "tags": {"amenity": "bar", "name": "Copper chimny"}}, {"type": "node", "id": 5144379721, "lat": 26.9050829, "lon": 75.7946411, "tags": {"addr:housenumber": "E-145 First", "addr:postcode": "302001", "addr:street": "Ramesh Marg", "amenity": "cafe", "internet_access": "wlan", "name:en": "Poppin Organic Caf\u00e9", "opening_hours": "Mo-Su 11:00-22:00", "phone": "+91 97996 28666", "website": "https://poppin-organic-cafe.business.site/"}}, {"type": "node", "id": 5147754222, "lat": 26.9137268, "lon": 75.8028853, "tags": {"addr:housenumber": "88, Gandhi Path W, Pawan Vihar Colony, Nityanand Nagar, Bhan Nagar, Jaipur, Rajasthan 302021", "amenity": "bar", "name": "frooce juice bar", "name:en": "Frooce juice bar"}}, {"type": "node", "id": 5226323124, "lat": 26.9212149, "lon": 75.7969429, "tags": {"amenity": "fast_food", "name:en": "Rawat Kachori"}}, {"type": "node", "id": 5249183922, "lat": 26.9194326, "lon": 75.7997638, "tags": {"addr:city": "Jaipur", "addr:street": "Mirza Ismail Road", "amenity": "cafe", "cuisine": "bun_samosa;tea", "name": "Gulab Ji Chai", "opening_hours": "Mo-Su 06:00-20:00"}}, {"type": "node", "id": 5249299221, "lat": 26.923806, "lon": 75.827314, "tags": {"addr:housenumber": "30", "addr:postcode": "302002", "addr:street": "Badi Chaupar", "amenity": "cafe", "cuisine": "sandwich;regional;international;cake;pasta;pancake;pizza;curry;indian;breakfast;local;italian", "diet:vegan": "yes", "email": "Pandey.karan@outlook.com", "internet_access": "wlan", "name": "The Tattoo Cafe", "opening_hours": "Mo-Su 08:00-23:00", "phone": "+919828065533"}}, {"type": "node", "id": 5304974222, "lat": 26.9156527, "lon": 75.7960691, "tags": {"amenity": "bar", "name": "Full power"}}, {"type": "node", "id": 5314539421, "lat": 26.9144275, "lon": 75.8049355, "tags": {"addr:housenumber": "6", "addr:street": "Trimurti VJ point", "amenity": "bar", "name:en": "Frooce - the Juice Bar", "phone": "01415105858"}}, {"type": "node", "id": 5320578522, "lat": 26.8239279, "lon": 75.6541984, "tags": {"amenity": "cafe", "cuisine": "indian", "name:en": "Sadda adda"}}, {"type": "node", "id": 5344204721, "lat": 26.925004, "lon": 75.8159025, "tags": {"amenity": "fast_food", "name": "Street food and chai corner"}}, {"type": "node", "id": 5344535321, "lat": 26.9237491, "lon": 75.8272853, "tags": {"amenity": "cafe", "name": "Wind view cafe"}}, {"type": "node", "id": 5344986724, "lat": 26.9214607, "lon": 75.790038, "tags": {"amenity": "fast_food", "name:ru": "\u0423\u043b\u0438\u0446\u0430 \u0420\u0435\u0441\u0442\u043e\u0440\u0430\u043d\u0447\u0438\u043a\u043e\u0432"}}, {"type": "node", "id": 5419597999, "lat": 26.8277778, "lon": 75.8061437, "tags": {"amenity": "cafe", "name": "Airr Toast"}}, {"type": "node", "id": 5422169221, "lat": 26.9042168, "lon": 75.7969605, "tags": {"amenity": "cafe", "name": "Curious Life Coffee Roasters"}}, {"type": "node", "id": 5435708321, "lat": 26.9023809, "lon": 75.8015211, "tags": {"amenity": "fast_food", "name:en": "Street Thali"}}, {"type": "node", "id": 5468492121, "lat": 26.9112425, "lon": 75.8197191, "tags": {"amenity": "cafe", "name:en": "caf\u00e9 coffee day"}}, {"type": "node", "id": 5474874613, "lat": 26.9054685, "lon": 75.7442068, "tags": {"amenity": "bar", "name": "Flapjack"}}, {"type": "node", "id": 5579575445, "lat": 26.9342829, "lon": 75.8253191, "tags": {"amenity": "cafe", "name:en": "Nice Cafe (it's the name)"}}, {"type": "node", "id": 6132079085, "lat": 26.9164866, "lon": 75.8111981, "tags": {"amenity": "fast_food", "name": "Lassiwara"}}, {"type": "node", "id": 6177748786, "lat": 26.9288163, "lon": 75.82832, "tags": {"amenity": "fast_food", "name:en": "Street food - Samosas"}}, {"type": "node", "id": 6255765085, "lat": 26.9237416, "lon": 75.8268257, "tags": {"amenity": "cafe", "name:en": "Caf\u00e9 coffee day"}}, {"type": "node", "id": 6333537486, "lat": 26.9117208, "lon": 75.7440726}, {"type": "node", "id": 6333537887, "lat": 26.9116938, "lon": 75.7440384}, {"type": "node", "id": 6333538085, "lat": 26.9117473, "lon": 75.7440159}, {"type": "node", "id": 6333979086, "lat": 26.8483964, "lon": 75.7678734}, {"type": "node", "id": 6334029787, "lat": 26.8479839, "lon": 75.7687353}, {"type": "node", "id": 6334029788, "lat": 26.8477693, "lon": 75.7681556}, {"type": "node", "id": 6718124385, "lat": 26.9183926, "lon": 75.8213095, "tags": {"amenity": "cafe", "name": "Sahu Ki Chai"}}, {"type": "node", "id": 6766661285, "lat": 26.9024904, "lon": 75.7943953, "tags": {"amenity": "cafe", "name": "Nibs Restaurant Cafe"}}, {"type": "node", "id": 6780596585, "lat": 26.9214409, "lon": 75.8192213, "tags": {"amenity": "fast_food", "name": "Tasty King", "name:en": "Tasty King (cheap, quick and delicious)"}}, {"type": "node", "id": 6815891298, "lat": 26.8549744, "lon": 75.8054398, "tags": {"amenity": "cafe", "name": "Amarnath Caf\u00e9"}}, {"type": "node", "id": 6848303186, "lat": 26.9398195, "lon": 75.8165576, "tags": {"amenity": "cafe", "name:en": "Hot & cold"}}, {"type": "node", "id": 6908274785, "lat": 26.9053917, "lon": 75.7943144, "tags": {"amenity": "cafe", "name": "Brown Bites bakes and cafe"}}, {"type": "node", "id": 6938645048, "lat": 26.8949234, "lon": 75.7484689, "tags": {"addr:city": "Jaipur", "addr:postcode": "302021", "addr:street": "Ajmer Road", "amenity": "fast_food", "brand": "McDonald's", "brand:pa": "\u0a2e\u0a48\u0a15\u0a21\u0a4b\u0a28\u0a32\u0a21\u2019\u0a1c\u0a3c", "brand:ur": "\u0645\u06a9\u0688\u0648\u0646\u0644\u0688\u0632", "brand:wikidata": "Q38076", "brand:wikipedia": "en:McDonald's", "brand:wikipedia:pa": "\u0a2e\u0a48\u0a15\u0a21\u0a4b\u0a28\u0a32\u0a21\u2019\u0a1c\u0a3c", "brand:wikipedia:ur": "\u0645\u06a9\u0688\u0648\u0646\u0644\u0688\u0632", "cuisine": "burger", "drive_through": "yes", "name": "McDonald's", "name:pa": "\u0a2e\u0a48\u0a15\u0a21\u0a4b\u0a28\u0a32\u0a21\u2019\u0a1c\u0a3c", "name:ur": "\u0645\u06a9\u0688\u0648\u0646\u0644\u0688\u0632", "takeaway": "yes"}}, {"type": "node", "id": 6976031028, "lat": 26.9112339, "lon": 75.7434521, "tags": {"amenity": "fast_food", "brand": "KFC", "brand:pa": "\u0a15\u0a47\u0a10\u0a2b\u0a38\u0a40", "brand:ur": "\u06a9\u06cc\u0646\u0679\u06a9\u06cc \u0641\u0631\u0627\u0626\u06cc\u0688 \u0686\u06a9\u0646", "brand:wikidata": "Q524757", "brand:wikipedia": "en:KFC", "brand:wikipedia:pa": "\u0a15\u0a47\u0a10\u0a2b\u0a38\u0a40", "brand:wikipedia:ur": "\u06a9\u06cc\u0646\u0679\u06a9\u06cc \u0641\u0631\u0627\u0626\u06cc\u0688 \u0686\u06a9\u0646", "cuisine": "chicken", "name": "KFC", "name:pa": "\u0a15\u0a47\u0a10\u0a2b\u0a38\u0a40", "name:ur": "\u06a9\u06cc\u0646\u0679\u06a9\u06cc \u0641\u0631\u0627\u0626\u06cc\u0688 \u0686\u06a9\u0646", "takeaway": "yes"}}, {"type": "node", "id": 6976031038, "lat": 26.9124759, "lon": 75.7435624, "tags": {"amenity": "fast_food", "brand": "Domino's", "brand:ks": "\u0688\u0648\u0645\u06cc\u0646\u0648\u0632", "brand:pa": "\u0a21\u0a4b\u0a2e\u0a40\u0a28\u0a4b\u0a1c\u0a3c", "brand:ur": "\u0688\u0648\u0645\u06cc\u0646\u0648\u0632", "brand:wikidata": "Q839466", "brand:wikipedia": "en:Domino's Pizza", "cuisine": "pizza", "name": "Domino's", "name:ks": "\u0688\u0648\u0645\u06cc\u0646\u0648\u0632", "name:pa": "\u0a21\u0a4b\u0a2e\u0a40\u0a28\u0a4b\u0a1c\u0a3c", "name:ur": "\u0688\u0648\u0645\u06cc\u0646\u0648\u0632", "takeaway": "yes"}}, {"type": "node", "id": 7030319497, "lat": 26.8631143, "lon": 75.7916013, "tags": {"amenity": "cafe", "name": "Grab A Coffee"}}, {"type": "node", "id": 7046290880, "lat": 26.9032872, "lon": 75.7929498, "tags": {"addr:city": "Jaipur", "addr:street": "Sahakar Marg", "amenity": "fast_food", "brand": "McDonald's", "brand:pa": "\u0a2e\u0a48\u0a15\u0a21\u0a4b\u0a28\u0a32\u0a21\u2019\u0a1c\u0a3c", "brand:ur": "\u0645\u06a9\u0688\u0648\u0646\u0644\u0688\u0632", "brand:wikidata": "Q38076", "brand:wikipedia": "en:McDonald's", "brand:wikipedia:pa": "\u0a2e\u0a48\u0a15\u0a21\u0a4b\u0a28\u0a32\u0a21\u2019\u0a1c\u0a3c", "brand:wikipedia:ur": "\u0645\u06a9\u0688\u0648\u0646\u0644\u0688\u0632", "cuisine": "burger", "name": "McDonald's", "name:pa": "\u0a2e\u0a48\u0a15\u0a21\u0a4b\u0a28\u0a32\u0a21\u2019\u0a1c\u0a3c", "name:ur": "\u0645\u06a9\u0688\u0648\u0646\u0644\u0688\u0632", "takeaway": "yes"}}, {"type": "node", "id": 7046290881, "lat": 26.9033421, "lon": 75.7923228, "tags": {"amenity": "fast_food", "brand": "Pizza Hut", "brand:wikidata": "Q191615", "cuisine": "pizza", "name": "Pizza Hut Delivery", "takeaway": "yes"}}, {"type": "node", "id": 7068572485, "lat": 26.9102996, "lon": 75.8205896, "tags": {"amenity": "fast_food", "cuisine": "indian", "name": "Masala Chowk"}}, {"type": "node", "id": 7084199742, "lat": 26.9011834, "lon": 75.7342422, "tags": {"addr:city": "Jaipur", "addr:housenumber": "A-14, Chitrakoot Stadium, Vaishali Nagar", "addr:postcode": "302021", "amenity": "cafe", "internet_access": "yes", "name": "Chai Chaskaa", "outdoor_seating": "yes"}}, {"type": "node", "id": 7084199743, "lat": 26.9011858, "lon": 75.7363862, "tags": {"addr:city": "Jaipur", "addr:housenumber": "B-43, Chitrakoot Stadium, Vaishali Nagar", "addr:postcode": "302021", "amenity": "cafe", "name": "Kullad - The Teafe'", "outdoor_seating": "yes"}}, {"type": "node", "id": 7084199747, "lat": 26.9004765, "lon": 75.7364033, "tags": {"addr:city": "Jaipur", "addr:housenumber": "C5, Chitrakoot Stadium, Vaishali Nagar", "addr:postcode": "302021", "amenity": "cafe", "cuisine": "fast_food", "name": "Tempties"}}, {"type": "node", "id": 7084199748, "lat": 26.9002805, "lon": 75.7363985, "tags": {"addr:city": "Jaipur", "addr:housenumber": "C13, Chitrakoot Stadium, Vaishali Nagar", "addr:postcode": "302021", "amenity": "cafe", "cuisine": "fast_food", "name": "Cafe 48"}}, {"type": "node", "id": 7087432025, "lat": 26.9028592, "lon": 75.7408646}, {"type": "node", "id": 7087432026, "lat": 26.9026943, "lon": 75.7408752}, {"type": "node", "id": 7087432027, "lat": 26.9027001, "lon": 75.7409877}, {"type": "node", "id": 7087432028, "lat": 26.902865, "lon": 75.7409771}, {"type": "node", "id": 7095675232, "lat": 26.9137154, "lon": 75.7524997}, {"type": "node", "id": 7095675233, "lat": 26.9137087, "lon": 75.7527039}, {"type": "node", "id": 7095675234, "lat": 26.913681, "lon": 75.7527027}, {"type": "node", "id": 7095675235, "lat": 26.9136757, "lon": 75.7528626}, {"type": "node", "id": 7095675236, "lat": 26.9136404, "lon": 75.7528611}, {"type": "node", "id": 7095675237, "lat": 26.9136435, "lon": 75.7527646}, {"type": "node", "id": 7095675238, "lat": 26.9135954, "lon": 75.7527626}, {"type": "node", "id": 7095675239, "lat": 26.9135945, "lon": 75.7527884}, {"type": "node", "id": 7095675240, "lat": 26.9135116, "lon": 75.752785}, {"type": "node", "id": 7095675241, "lat": 26.9135212, "lon": 75.7524917}, {"type": "node", "id": 7190468085, "lat": 26.9113009, "lon": 75.8017201, "tags": {"amenity": "cafe", "name": "Molly Moo"}}, {"type": "node", "id": 7232291585, "lat": 26.9132795, "lon": 75.7940823, "tags": {"addr:housenumber": "18", "addr:street": "Ajmer pulia", "amenity": "cafe", "cuisine": "breakfast;indian", "diet:vegetarian": "yes", "name": "Charis cafe", "name:ru": "\u0427\u0430\u0440\u0438\u0441 \u043a\u0430\u0444\u0435", "opening_hours": "Mo-Su 09:00-21:00", "phone": "+9190251 55906", "website": "https://charis-cafe-cafe.business.site"}}, {"type": "node", "id": 7306107985, "lat": 26.9165819, "lon": 75.8096329, "tags": {"amenity": "fast_food", "cuisine": "burger", "diet:vegetarian": "yes", "name": "burger singh", "name:en": "Burger Singh", "opening_hours": "Mo-Su 11:00-22:00"}}, {"type": "node", "id": 7684763326, "lat": 26.8487827, "lon": 75.7691477, "tags": {"addr:city": "Jaipur", "addr:housenumber": "94/09", "addr:postcode": "302020", "addr:street": "Madhyam Marg", "amenity": "cafe", "cuisine": "pizza;coffee_shop;burger;italian;sandwich;chinese;ice_cream;shake", "internet_access": "yes", "name": "The Hungry Owl", "opening_hours": "Mo-Su 17:00-05:00", "opening_hours:covid19": "closed", "outdoor_seating": "yes"}}, {"type": "node", "id": 8043549527, "lat": 26.9180198, "lon": 75.7878332}, {"type": "node", "id": 8043549528, "lat": 26.9180374, "lon": 75.7878872}, {"type": "node", "id": 8043549529, "lat": 26.9179443, "lon": 75.7879253}, {"type": "node", "id": 8043549530, "lat": 26.9179267, "lon": 75.7878713}, {"type": "node", "id": 8063454922, "lat": 26.923773, "lon": 75.7623013}, {"type": "node", "id": 8063454923, "lat": 26.9236958, "lon": 75.7622787}, {"type": "node", "id": 8063454924, "lat": 26.9236841, "lon": 75.762329}, {"type": "node", "id": 8063454925, "lat": 26.9237612, "lon": 75.7623517}, {"type": "node", "id": 8068694159, "lat": 26.8593503, "lon": 75.8083773, "tags": {"addr:housenumber": "Ground Floor", "addr:street": "Calgiri Road", "amenity": "cafe", "brand": "Cafe Coffee Day", "brand:wikidata": "Q5017235", "brand:wikipedia": "en:Caf\u00e9 Coffee Day", "cuisine": "coffee_shop", "name": "Cafe Coffee Day", "outdoor_seating": "no", "takeaway": "yes"}}, {"type": "node", "id": 8071848420, "lat": 26.9142475, "lon": 75.7379941, "tags": {"amenity": "fast_food"}}, {"type": "node", "id": 8071848421, "lat": 26.9143066, "lon": 75.7379933, "tags": {"amenity": "fast_food", "cuisine": "indian", "name": "South Indian Dosa Corner"}}, {"type": "node", "id": 8071848422, "lat": 26.9143082, "lon": 75.7380258, "tags": {"amenity": "fast_food", "cuisine": "juice"}}, {"type": "node", "id": 8084157086, "lat": 26.9016256, "lon": 75.7849972, "tags": {"addr:street": "Hawa sadak", "amenity": "cafe", "brand": "Cafe Coffee Day", "brand:wikidata": "Q5017235", "brand:wikipedia": "en:Caf\u00e9 Coffee Day", "cuisine": "coffee_shop", "name": "Cafe Coffee Day", "takeaway": "yes"}}, {"type": "node", "id": 8088655798, "lat": 26.8735628, "lon": 75.7761313, "tags": {"addr:street": "Gopalpura Bypass", "amenity": "fast_food", "cuisine": "juice", "name": "Gulnar Juice"}}, {"type": "node", "id": 8119003843, "lat": 26.9091075, "lon": 75.738462, "tags": {"addr:full": "Jagdamba Colony, Nursery Circle", "amenity": "cafe", "name": "Coffee Break", "opening_hours": "Mo-Su 10:30-23:00", "phone": "+916376615428"}}, {"type": "node", "id": 8137399270, "lat": 26.9075297, "lon": 75.815063, "tags": {"amenity": "cafe", "outdoor_seating": "yes"}}, {"type": "node", "id": 8140727861, "lat": 26.91013, "lon": 75.7437554, "tags": {"addr:street": "Gautam Marg", "amenity": "bar", "min_age": "18", "name": "Hotel Sukh Suvidha"}}, {"type": "node", "id": 8379213954, "lat": 26.8613782, "lon": 75.7735375, "tags": {"addr:city": "Jaipur", "addr:housenumber": "76\\9", "addr:postcode": "302020", "addr:street": "Shipra Path", "amenity": "cafe", "cuisine": "coffee_shop;pizza;italian;chinese;regional", "delivery": "yes", "internet_access": "yes", "internet_access:fee": "yes", "name": "Coffee America", "opening_hours": "Mo-Su 10:00-23:00", "outdoor_seating": "yes", "phone": "+917737034113"}}, {"type": "node", "id": 8632333092, "lat": 26.9700049, "lon": 75.7623864, "tags": {"addr:city": "Jaipur", "addr:housenumber": "16/17", "addr:postcode": "302039", "addr:street": "Pravasi Nagar, Murlipura", "amenity": "fast_food", "cuisine": "pizza;tacos", "delivery": "yes", "drive_through": "no", "name": "Herbs On Pizza", "opening_hours": "Mo-Su 11:00-23:00", "operator": "Healthy Food Village Private Limited", "phone": "+919783011116", "takeaway": "yes", "website": "https://healthyfoodvillage.com/"}}, {"type": "node", "id": 8897557411, "lat": 26.8364156, "lon": 75.8270986}, {"type": "node", "id": 8897557412, "lat": 26.8363891, "lon": 75.8272515}, {"type": "node", "id": 8897557413, "lat": 26.8362656, "lon": 75.8272286}, {"type": "node", "id": 8897557414, "lat": 26.8362921, "lon": 75.8270598}, {"type": "node", "id": 8901336061, "lat": 26.8397518, "lon": 75.8246944}, {"type": "node", "id": 8901336062, "lat": 26.8396231, "lon": 75.825006}, {"type": "node", "id": 8901336063, "lat": 26.8395073, "lon": 75.8249713}, {"type": "node", "id": 8901336064, "lat": 26.839551, "lon": 75.8246655}, {"type": "node", "id": 8901353815, "lat": 26.8629914, "lon": 75.7956059}, {"type": "node", "id": 8901353816, "lat": 26.8629666, "lon": 75.7958173}, {"type": "node", "id": 8901372217, "lat": 26.8627582, "lon": 75.7957672}, {"type": "node", "id": 8901372218, "lat": 26.8627979, "lon": 75.7955559}, {"type": "node", "id": 9249525420, "lat": 26.9107569, "lon": 75.7952415, "tags": {"addr:city": "Jaipur", "addr:housenumber": "A-5, Suryavanshi Pearl", "addr:postcode": "302007", "addr:street": "Chomu House Circle", "amenity": "cafe", "brand": "Starbucks", "brand:pa": "\u0a38\u0a1f\u0a3e\u0a30\u0a2c\u0a15\u0a38", "brand:ur": "\u0627\u0633\u0679\u0627\u0631\u0628\u06a9\u0633", "brand:wikidata": "Q37158", "brand:wikipedia": "en:Starbucks", "cuisine": "coffee_shop;coffee", "internet_access": "wlan", "internet_access:fee": "customers", "name": "Starbucks", "name:pa": "\u0a38\u0a1f\u0a3e\u0a30\u0a2c\u0a15\u0a38", "name:ur": "\u0627\u0633\u0679\u0627\u0631\u0628\u06a9\u0633", "official_name": "Starbucks Coffee", "official_name:pa": "\u0a38\u0a1f\u0a3e\u0a30\u0a2c\u0a15\u0a38 \u0a15\u0a4c\u0a2b\u0a40", "official_name:ur": "\u0627\u0633\u0679\u0627\u0631\u0628\u06a9\u0633 \u06a9\u0627\u0641\u06cc", "opening_hours": "Mo-Su 09:00-22:00", "website": "https://www.starbucks.in/"}}, {"type": "node", "id": 9495760718, "lat": 26.899789, "lon": 75.7929507, "tags": {"addr:housenumber": "A/1, 21", "addr:street": "Sahkar Marg, Near 22 Godown Circle, C Scheme, Jaipur, Rajasthan 302006", "amenity": "cafe", "description": "Breakfast, Continental & Asian fare served in a family-friendly space with outdoor seating.", "name": "Caf\u00e9 BAE", "opening_hours": "Mo-Su 09:00-22:30", "website": "hotellasvegasjaipur.com"}}, {"type": "node", "id": 10013086817, "lat": 26.9053547, "lon": 75.794676, "tags": {"amenity": "cafe", "internet_access": "wlan", "name:en": "Coffee Sutra"}}, {"type": "node", "id": 10015685917, "lat": 26.9103022, "lon": 75.8035336, "tags": {"amenity": "cafe", "name:en": "Cafe Earnest"}}, {"type": "node", "id": 10020311919, "lat": 26.8512734, "lon": 75.8104302, "tags": {"amenity": "cafe", "internet_access": "wlan", "name:en": "Ministry of Roasters", "opening_hours": "Mo-Su 10:00-22:00"}}, {"type": "node", "id": 10075161117, "lat": 26.9170949, "lon": 75.8192314, "tags": {"amenity": "cafe", "name:en": "Lassi Kachori"}}, {"type": "node", "id": 10118675483, "lat": 26.9236736, "lon": 75.801322}, {"type": "node", "id": 10554368728, "lat": 26.8819484, "lon": 75.7975186, "tags": {"addr:city": "Jaipur", "addr:postcode": "302015", "addr:state": "Rajasthan", "addr:street": "Sahakar Marg", "amenity": "cafe", "name": "The Khopcha Cafe"}}, {"type": "node", "id": 10773981423, "lat": 26.8426677, "lon": 75.5656453}, {"type": "node", "id": 10773981428, "lat": 26.8425291, "lon": 75.5652542}, {"type": "node", "id": 10808416026, "lat": 26.8425173, "lon": 75.5652201}, {"type": "node", "id": 10808416027, "lat": 26.8426799, "lon": 75.5656772}, {"type": "node", "id": 10808416028, "lat": 26.8435093, "lon": 75.5653187}, {"type": "node", "id": 10808416029, "lat": 26.8433436, "lon": 75.5648527}, {"type": "node", "id": 10821461579, "lat": 26.8426323, "lon": 75.5655415}, {"type": "node", "id": 10821461581, "lat": 26.8425653, "lon": 75.5653591}, {"type": "node", "id": 10867820666, "lat": 26.8399205, "lon": 75.7934606, "tags": {"addr:city": "Jaipur", "addr:postcode": "302018", "addr:street": "B2 Bypass Road", "amenity": "bar", "bar": "yes", "cuisine": "pizza;burger;sandwich;chinese;indian", "internet_access": "yes", "internet_access:fee": "no", "internet_access:ssid": "Skylat5H", "name": "Skylat Jaipur", "opening_hours": "24/7", "outdoor_seating": "yes", "phone": "+918306908055,"}}, {"type": "node", "id": 10899269954, "lat": 26.8860135, "lon": 75.8036761, "tags": {"addr:city": "Jaipur", "addr:postcode": "302015", "addr:street": "Gandhi Marg", "air_conditioning": "yes", "amenity": "cafe", "capacity": "45", "cuisine": "coffee_shop;chinese;asian;ice_cream;chocolate", "name": "The Warehouse Cafe", "opening_hours": "Mo-Su 10:00-20:00"}}, {"type": "node", "id": 10904661667, "lat": 26.9160713, "lon": 75.8015668, "tags": {"addr:housenumber": "9th Floor, International Business Centre, Malviya Marg, C Scheme, Jaipur, Rajasthan 302001", "amenity": "cafe", "name": "matti indian cafe house"}}, {"type": "node", "id": 10904668786, "lat": 26.9151658, "lon": 75.8099241, "tags": {"addr:housenumber": "Silver Square Mall, Shop No. 15,16,17, C-18, Cinema Bhagwandas Marg, near Raj Mandir, C Scheme, Jaipur, Rajasthan 302001", "amenity": "cafe"}}, {"type": "node", "id": 10904714950, "lat": 26.9111229, "lon": 75.8121791, "tags": {"amenity": "bar"}}, {"type": "node", "id": 10904714955, "lat": 26.9113372, "lon": 75.8118529, "tags": {"amenity": "fast_food", "name": "salon"}}, {"type": "node", "id": 10956959842, "lat": 26.9056868, "lon": 75.7298263, "tags": {"addr:city": "Jaipur", "addr:postcode": "302021", "addr:street": "Gandhi Path", "air_conditioning": "yes", "amenity": "bar", "branch": "Lounge", "brewery": "no", "contact:facebook": "https://www.facebook.com/cocoloungejaipur", "ele": "3", "min_age": "21", "name": "cocoloungejaipur", "not:brand:wikidata": "Q65084369", "opening_hours": "Mo-Su 11:00-23:00", "phone": "9256325559", "smoking": "separated"}}, {"type": "node", "id": 10959824962, "lat": 26.9476397, "lon": 75.7241495, "tags": {"amenity": "fast_food", "brand": "Domino's", "brand:wikidata": "Q839466", "cuisine": "pizza", "name": "Domino's", "takeaway": "yes"}}, {"type": "node", "id": 10960889865, "lat": 26.9726124, "lon": 75.7675594, "tags": {"amenity": "cafe", "name": "kgn cafe"}}, {"type": "node", "id": 10960889891, "lat": 26.968325, "lon": 75.7629053, "tags": {"amenity": "fast_food", "name": "FAST FOOD CORNER"}}, {"type": "node", "id": 10960889892, "lat": 26.9695114, "lon": 75.7630294, "tags": {"amenity": "cafe", "name": "CHAT KA CHAURAHA"}}, {"type": "node", "id": 10960889894, "lat": 26.9701696, "lon": 75.7735749, "tags": {"amenity": "bar", "name": "MOLECULE"}}, {"type": "node", "id": 10960893907, "lat": 26.9704518, "lon": 75.7606957, "tags": {"amenity": "cafe", "name": "roof top cafe"}}, {"type": "node", "id": 11113199578, "lat": 26.8394472, "lon": 75.7945105, "tags": {"addr:city": "Jaipur", "addr:housenumber": "First Floor", "addr:postcode": "302018", "addr:street": "B2 Bypass Road", "air_conditioning": "yes", "amenity": "bar", "brewery": "no", "contact:facebook": "https://www.facebook.com/profile.php?id=100095227264526", "description": "Modern, brick-accented gastropub with live music offering a European, Mediterranean & Asian menu.", "email": "elixirclubb@gmail.com", "min_age": "19", "mobile": "+919376900579", "name": "Elixirjaipur", "opening_hours": "Mo-Su 09:00-23:00"}}, {"type": "node", "id": 11162418128, "lat": 26.9073957, "lon": 75.7954528, "tags": {"addr:city": "Jaipur", "addr:district": "Jaipur", "addr:housenumber": "F-31", "addr:postcode": "302001", "addr:street": "Azad Marg", "air_conditioning": "yes", "amenity": "cafe", "cuisine": "coffee_shop;sandwich;american;cake", "description": "Freshly roasted Indian Specialty Coffee Shop and Roastery. Experience Farm to Cup.", "email": "info@halflightcoffee.com", "highchair": "yes", "internet_access": "wlan", "internet_access:fee": "customers", "name": "Half Light Coffee Roasters", "opening_hours": "08:00-22:00", "outdoor_seating": "yes", "phone": "+919602602849", "takeaway": "yes", "website": "https://halflightcoffee.com/", "website:menu": "https://fudr.in/welcome/1162000"}}, {"type": "node", "id": 11185475306, "lat": 26.9022301, "lon": 75.7125581, "tags": {"addr:city": "Jaipur", "addr:district": "Jaipur", "addr:housenumber": "B 137", "addr:postcode": "302021", "addr:street": "Lalarpura Road Maa Hinglaj Nagar", "air_conditioning": "yes", "amenity": "cafe", "cuisine": "coffee_shop;pizza;cake;pancake;tea;mocktails;plants;bakery", "delivery": "yes", "drive_through": "yes", "internet_access": "yes", "internet_access:fee": "yes", "name": "Daisy and Jade Jaipur", "opening_hours": "Mo-Su 12:00-23:00", "outdoor_seating": "yes", "payment:cards": "yes", "payment:cash": "yes", "payment:mobile_phone": "yes", "payment:upi": "yes", "phone": "\u200e+91 92162 99342", "smoking": "outside"}}, {"type": "node", "id": 11260402237, "lat": 26.9073874, "lon": 75.7954138, "tags": {"addr:housenumber": "F 31", "addr:postcode": "302001", "addr:street": "Azad Marg", "amenity": "cafe", "cuisine": "american;coffee_shop;international", "internet_access": "wlan", "name:en": "Half Light Coffee Roasters", "opening_hours": "Su-Sa 08:00-22:00", "phone": "9602602849", "website": "https://halflightcoffee.com/"}}, {"type": "node", "id": 11425726510, "lat": 26.8416823, "lon": 75.770054, "tags": {"addr:city": "Jaipur", "addr:district": "Jaipur", "addr:housenumber": "Plot No.124/497,", "addr:postcode": "302020", "addr:street": "Madhyam Marg", "amenity": "cafe", "cuisine": "burger;fries", "internet_access": "yes", "internet_access:fee": "no", "name": "BTS Burger To Shakei", "opening_hours": "Tu-Su 10:00-23:50", "phone": "+91-7880778806", "website": "https://www.zomato.com/jaipur/bts-burger-to-shakei-1-mansarovar/order"}}, {"type": "node", "id": 11527985769, "lat": 26.9113223, "lon": 75.8196136, "tags": {"amenity": "cafe", "name:en": "Heeralal's"}}, {"type": "node", "id": 11533709369, "lat": 26.9239758, "lon": 75.8155246, "tags": {"amenity": "cafe", "name:en": "The Pizza Unlimited"}}, {"type": "node", "id": 11609578469, "lat": 26.9175489, "lon": 75.8169087, "tags": {"amenity": "cafe", "cuisine": "asian", "name": "\u041a\u0430\u0444\u0435", "name:en": "Dev Hotel", "opening_hours": "Mo-Su 09:00-22:00"}}, {"type": "way", "id": 223785883, "nodes": [2326592448, 2326592449, 10118675483, 2326592445, 2326592448], "tags": {"amenity": "cafe", "building": "yes", "name": "parking area near bus stand"}}, {"type": "way", "id": 278532982, "nodes": [6333537887, 6333538085, 6333537486, 6333537887], "tags": {"addr:city": "jaipur", "addr:street": "amrapali circle, vaishali", "amenity": "cafe", "building": "yes", "cuisine": "coffee_shop", "internet_access": "no", "name": "Cafe Coffee Day"}}, {"type": "way", "id": 590565341, "nodes": [6333979086, 3787547419, 6334029787, 6334029788, 6333979086], "tags": {"amenity": "cafe", "building": "yes", "name": "Green Leaf Cafe"}}, {"type": "way", "id": 758849240, "nodes": [7087432025, 7087432026, 7087432027, 7087432028, 7087432025], "tags": {"amenity": "cafe", "building": "yes", "cuisine": "fast_food"}}, {"type": "way", "id": 759592844, "nodes": [7095675232, 7095675233, 7095675234, 7095675235, 7095675236, 7095675237, 7095675238, 7095675239, 7095675240, 7095675241, 7095675232], "tags": {"amenity": "cafe", "building": "yes", "name": "Decked Up By Garden Caf\u00e9"}}, {"type": "way", "id": 863456615, "nodes": [8043549527, 8043549528, 8043549529, 8043549530, 8043549527], "tags": {"amenity": "cafe", "building": "yes"}}, {"type": "way", "id": 865107581, "nodes": [8063454922, 8063454923, 8063454924, 8063454925, 8063454922], "tags": {"amenity": "fast_food", "building": "yes"}}, {"type": "way", "id": 961875192, "nodes": [8897557411, 8897557412, 8897557413, 8897557414, 8897557411], "tags": {"amenity": "cafe", "building": "yes", "name": "new cafe jagatpura"}}, {"type": "way", "id": 962291075, "nodes": [8901336061, 8901336062, 8901336063, 8901336064, 8901336061], "tags": {"addr:city": "jagatpura", "amenity": "cafe", "building": "yes", "name": "sheter ki thdi"}}, {"type": "way", "id": 962295860, "nodes": [8901353815, 8901353816, 8901372217, 8901372218, 8901353815], "tags": {"amenity": "cafe", "building": "yes"}}, {"type": "way", "id": 1162173991, "nodes": [10808416029, 10808416028, 10808416027, 10773981423, 10821461579, 10821461581, 10773981428, 10808416026, 10808416029], "tags": {"amenity": "food_court", "building": "yes", "building:levels": "2", "layer": "1", "name": "Old Mess"}}]}