{"version": 0.6, "generator": "Overpass API 0.7.61.5 4133829e", "osm3s": {"timestamp_osm_base": "2024-02-25T09:34:44Z", "copyright": "The data included in this document is from www.openstreetmap.org. The data is made available under ODbL."}, "elements": [{"type": "node", "id": 9579206741, "lat": 26.7793428, "lon": 80.9425131, "tags": {"amenity": "fast_food", "changing_table": "no", "cuisine": "burger;chinese;noodle;sandwich", "name": "Himalaya Burger Point", "opening_hours": "Mo-Su 17:00-23:00,16:30-22:45", "outdoor_seating": "yes", "takeaway": "yes", "toilets:wheelchair": "no", "wheelchair": "limited"}}, {"type": "node", "id": 9590868465, "lat": 26.7990317, "lon": 80.8968591, "tags": {"amenity": "fast_food", "brand": "McDonald's", "brand:wikidata": "Q38076", "changing_table": "no", "changing_table:fee": "no", "cuisine": "burger", "highchair": "yes", "level": "0", "name": "McDonald's", "opening_hours": "PH,Mo-Su 11:00-23:00", "smoking": "no", "takeaway": "yes", "toilets:access": "permissive", "toilets:wheelchair": "no", "wheelchair": "limited"}}, {"type": "node", "id": 9590868467, "lat": 26.7985068, "lon": 80.8976694, "tags": {"amenity": "cafe", "cuisine": "sandwich;noodle;coffee_shop;pasta", "level": "0", "name": "The Hazelnut Factory - Alambagh", "opening_hours": "Mo-Su 08:30-23:30", "shop": "bakery", "takeaway": "yes", "toilets:access": "customers", "toilets:wheelchair": "no", "wheelchair": "limited"}}, {"type": "node", "id": 9590887407, "lat": 26.7988187, "lon": 80.8972237, "tags": {"amenity": "cafe", "brand": "Cafe Coffee Day", "brand:wikidata": "Q5017235", "changing_table": "no", "changing_table:fee": "no", "cuisine": "coffee_shop", "kids_area": "no", "kids_area:fee": "no", "kids_area:indoor": "no", "kids_area:outdoor": "no", "kids_area:supervised": "no", "level": "0", "name": "Cafe Coffee Day", "opening_hours": "Mo-Su 09:00-23:15", "smoking": "no", "takeaway": "yes", "toilets": "no", "toilets:access": "yes", "toilets:wheelchair": "limited", "wheelchair": "limited"}}, {"type": "node", "id": 10896553227, "lat": 26.7963383, "lon": 80.907648, "tags": {"addr:city": "lunknow", "amenity": "food_court", "internet_access": "no", "opening_hours": "Mo-Su 09:00-21:00"}}, {"type": "node", "id": 10899736221, "lat": 26.7889773, "lon": 80.9093591, "tags": {"amenity": "fast_food", "cuisine": "juice;regional", "diet:vegetarian": "yes", "opening_hours": "Mo-Su 10:00-22:00"}}, {"type": "node", "id": 10959824055, "lat": 26.7843937, "lon": 80.9914333, "tags": {"alt_name": "Kentucky Fried Chicken", "alt_name:en": "Kentucky Fried Chicken", "alt_name:hi": "\u0915\u0947\u0902\u091f\u0941\u0915\u0940 \u092b\u094d\u0930\u093e\u0907\u0921 \u091a\u093f\u0915\u0928", "alt_name:pa": "\u0a15\u0a48\u0a02\u0a1f\u0a41\u0a15\u0a40 \u0a2b\u0a4d\u0a30\u0a3e\u0a08\u0a21 \u0a1a\u0a3f\u0a15\u0a28", "alt_name:pnb": "\u06a9\u06cc\u0646\u0679\u06a9\u06cc \u0641\u0631\u0627\u0626\u06cc\u0688 \u0686\u06a9\u0646", "alt_name:ur": "\u06a9\u06cc\u0646\u0679\u06a9\u06cc \u0641\u0631\u0627\u0626\u06cc\u0688 \u0686\u06a9\u0646", "amenity": "fast_food", "brand": "KFC", "brand:en": "KFC", "brand:hi": "\u0915\u0947\u090f\u092b\u0938\u0940", "brand:pa": "\u0a15\u0a47\u0a10\u0a2b\u0a38\u0a40", "brand:pnb": "\u06a9\u06d2 \u0627\u06cc\u0641 \u0633\u06cc", "brand:ur": "\u06a9\u06d2 \u0627\u06cc\u0641 \u0633\u06cc", "brand:wikidata": "Q524757", "cuisine": "chicken", "name": "KFC", "name:en": "KFC", "name:hi": "\u0915\u0947\u090f\u092b\u0938\u0940", "name:pa": "\u0a15\u0a47\u0a10\u0a2b\u0a38\u0a40", "name:pnb": "\u06a9\u06d2 \u0627\u06cc\u0641 \u0633\u06cc", "name:ur": "\u06a9\u06d2 \u0627\u06cc\u0641 \u0633\u06cc", "takeaway": "yes"}}, {"type": "node", "id": 10960025374, "lat": 26.8083066, "lon": 81.0121667, "tags": {"alt_name": "Kentucky Fried Chicken", "alt_name:en": "Kentucky Fried Chicken", "alt_name:hi": "\u0915\u0947\u0902\u091f\u0941\u0915\u0940 \u092b\u094d\u0930\u093e\u0907\u0921 \u091a\u093f\u0915\u0928", "alt_name:pa": "\u0a15\u0a48\u0a02\u0a1f\u0a41\u0a15\u0a40 \u0a2b\u0a4d\u0a30\u0a3e\u0a08\u0a21 \u0a1a\u0a3f\u0a15\u0a28", "alt_name:pnb": "\u06a9\u06cc\u0646\u0679\u06a9\u06cc \u0641\u0631\u0627\u0626\u06cc\u0688 \u0686\u06a9\u0646", "alt_name:ur": "\u06a9\u06cc\u0646\u0679\u06a9\u06cc \u0641\u0631\u0627\u0626\u06cc\u0688 \u0686\u06a9\u0646", "amenity": "fast_food", "brand": "KFC", "brand:en": "KFC", "brand:hi": "\u0915\u0947\u090f\u092b\u0938\u0940", "brand:pa": "\u0a15\u0a47\u0a10\u0a2b\u0a38\u0a40", "brand:pnb": "\u06a9\u06d2 \u0627\u06cc\u0641 \u0633\u06cc", "brand:ur": "\u06a9\u06d2 \u0627\u06cc\u0641 \u0633\u06cc", "brand:wikidata": "Q524757", "cuisine": "chicken", "name": "KFC", "name:en": "KFC", "name:hi": "\u0915\u0947\u090f\u092b\u0938\u0940", "name:pa": "\u0a15\u0a47\u0a10\u0a2b\u0a38\u0a40", "name:pnb": "\u06a9\u06d2 \u0627\u06cc\u0641 \u0633\u06cc", "name:ur": "\u06a9\u06d2 \u0627\u06cc\u0641 \u0633\u06cc", "takeaway": "yes"}}]}