{"version": 0.6, "generator": "Overpass API 0.7.61.5 4133829e", "osm3s": {"timestamp_osm_base": "2024-02-25T09:10:11Z", "copyright": "The data included in this document is from www.openstreetmap.org. The data is made available under ODbL."}, "elements": [{"type": "node", "id": 1517908650, "lat": 22.8335871, "lon": 72.3647449, "tags": {"internet_access": "no", "name": "Bavla", "network": "IR", "operator": "WR", "public_transport": "station", "railway": "station", "ref": "VLA", "train": "yes", "wikidata": "Q25549233"}}, {"type": "node", "id": 1545721824, "lat": 22.9821021, "lon": 72.4975186, "tags": {"internet_access": "no", "name": "Sarkhej", "network": "IR", "operator": "WR", "public_transport": "station", "railway": "station", "ref": "SEJ", "train": "yes", "wikidata": "Q63357047"}}, {"type": "node", "id": 2376612715, "lat": 23.0535306, "lon": 72.4934085, "tags": {"internet_access": "no", "name": "Ambli Road", "network": "IR", "operator": "WR", "public_transport": "station", "railway": "station", "ref": "ABD", "train": "yes", "wikidata": "Q63355331"}}, {"type": "node", "id": 5711622445, "lat": 23.0309359, "lon": 72.4483279, "tags": {"amenity": "bus_station", "name": "Ghuma BRTS terminal"}}, {"type": "node", "id": 5711634722, "lat": 23.030556, "lon": 72.4501878, "tags": {"amenity": "bus_station", "name": "AMTS Ghuma Bus terminal"}}, {"type": "node", "id": 5725639222, "lat": 23.038673, "lon": 72.4517314, "tags": {"internet_access": "no", "name": "Gora Ghuma", "network": "IR", "operator": "WR", "public_transport": "station", "railway": "station", "ref": "GGM", "train": "yes", "wikidata": "Q31295488"}}, {"type": "node", "id": 5725639271, "lat": 23.0238876, "lon": 72.3851475, "tags": {"internet_access": "no", "name": "Sanand", "network": "IR", "operator": "WR", "public_transport": "station", "railway": "station", "ref": "SAU", "train": "yes", "wikidata": "Q60569472"}}, {"type": "node", "id": 5725639283, "lat": 23.0393458, "lon": 72.2748933, "tags": {"internet_access": "no", "name": "Chharodi", "network": "IR", "operator": "WR", "public_transport": "station", "railway": "station", "ref": "CE", "train": "yes", "wikidata": "Q31291926"}}, {"type": "node", "id": 6727553050, "lat": 23.0252667, "lon": 72.3363409, "tags": {"internet_access": "no", "name": "Vasan Iyava", "network": "IR", "operator": "WR", "public_transport": "station", "railway": "station", "ref": "WSE", "train": "yes", "wikidata": "Q63355328"}}, {"type": "node", "id": 6758793148, "lat": 22.9645191, "lon": 72.4704112, "tags": {"internet_access": "no", "name": "Sanathal", "network": "IR", "operator": "WR", "public_transport": "station", "railway": "station", "ref": "SNTL", "train": "yes", "wikidata": "Q104699511"}}, {"type": "node", "id": 6759274176, "lat": 22.9306513, "lon": 72.4407996, "tags": {"internet_access": "no", "name": "Moraiya", "network": "IR", "operator": "WR", "public_transport": "station", "railway": "station", "ref": "MORA", "train": "yes", "wikidata": "Q63355276"}}, {"type": "node", "id": 6759428796, "lat": 22.8838171, "lon": 72.3995579, "tags": {"internet_access": "no", "name": "Matoda", "network": "IR", "operator": "WR", "public_transport": "station", "railway": "station", "ref": "MQA", "train": "yes", "wikidata": "Q63357141"}}, {"type": "node", "id": 6759458893, "lat": 22.7847862, "lon": 72.3977349, "tags": {"internet_access": "no", "name": "Saljida", "network": "IR", "operator": "WR", "public_transport": "station", "railway": "station", "ref": "SJD", "train": "yes", "wikidata": "Q104699514"}}, {"type": "node", "id": 8153542476, "lat": 23.0340108, "lon": 72.4641074, "tags": {"amenity": "bus_station", "name": "Bopal gam"}}, {"type": "node", "id": 8153545458, "lat": 23.0323222, "lon": 72.4691519, "tags": {"amenity": "bus_station", "name": "Sterling City"}}, {"type": "node", "id": 9005199041, "lat": 23.0279715, "lon": 72.4955607}, {"type": "node", "id": 9005199042, "lat": 23.0279113, "lon": 72.4955042}, {"type": "node", "id": 9005199043, "lat": 23.0279058, "lon": 72.4958522}, {"type": "node", "id": 9005199044, "lat": 23.0279619, "lon": 72.4958998}, {"type": "node", "id": 9005199045, "lat": 23.0284747, "lon": 72.4908775}, {"type": "node", "id": 9005199046, "lat": 23.0284288, "lon": 72.4908237}, {"type": "node", "id": 9005199047, "lat": 23.0283744, "lon": 72.4911335}, {"type": "node", "id": 9005199048, "lat": 23.0284215, "lon": 72.4911952}, {"type": "node", "id": 9005199049, "lat": 23.0278668, "lon": 72.4857362}, {"type": "node", "id": 9005199050, "lat": 23.0278393, "lon": 72.4857154}, {"type": "node", "id": 9005199051, "lat": 23.0278086, "lon": 72.4857461}, {"type": "node", "id": 9005199052, "lat": 23.0278917, "lon": 72.4860205}, {"type": "node", "id": 9005199053, "lat": 23.0279582, "lon": 72.4860539}, {"type": "node", "id": 9005199054, "lat": 23.0264288, "lon": 72.4820434}, {"type": "node", "id": 9005199055, "lat": 23.0263978, "lon": 72.482029}, {"type": "node", "id": 9005199056, "lat": 23.0263827, "lon": 72.4820567}, {"type": "node", "id": 9005199057, "lat": 23.0264815, "lon": 72.4823287}, {"type": "node", "id": 9005199058, "lat": 23.0265408, "lon": 72.4823563}, {"type": "node", "id": 9005199059, "lat": 23.0258557, "lon": 72.4777571}, {"type": "node", "id": 9005199060, "lat": 23.0258242, "lon": 72.4777333}, {"type": "node", "id": 9005199061, "lat": 23.0258119, "lon": 72.4777541}, {"type": "node", "id": 9005199062, "lat": 23.0258379, "lon": 72.4780516}, {"type": "node", "id": 9005199063, "lat": 23.0258844, "lon": 72.4780947}, {"type": "way", "id": 972959139, "nodes": [9005199041, 9005199042, 9005199043, 9005199044, 9005199041], "tags": {"amenity": "bus_station", "building": "yes", "bus": "yes", "name": "Ashok Vatika BRTS", "network": "BRTS", "operator": "Ahmedabad Janmarg Ltd.", "public_transport": "station"}}, {"type": "way", "id": 972959140, "nodes": [9005199045, 9005199046, 9005199047, 9005199048, 9005199045], "tags": {"amenity": "bus_station", "building": "yes", "bus": "yes", "name": "Jaintilal Park BRTS", "network": "BRTS", "operator": "Ahmedabad Janmarg Ltd.", "public_transport": "station"}}, {"type": "way", "id": 972959141, "nodes": [9005199049, 9005199050, 9005199051, 9005199052, 9005199053, 9005199049], "tags": {"amenity": "bus_station", "building": "yes", "bus": "yes", "name": "Swagat Bunglows BRTS", "network": "BRTS", "operator": "Ahmedabad Janmarg Ltd.", "public_transport": "station"}}, {"type": "way", "id": 972959142, "nodes": [9005199054, 9005199055, 9005199056, 9005199057, 9005199058, 9005199054], "tags": {"amenity": "bus_station", "building": "yes", "bus": "yes", "name": "Ambli Gam BRTS", "network": "BRTS", "operator": "Ahmedabad Janmarg Ltd.", "public_transport": "station"}}, {"type": "way", "id": 972959143, "nodes": [9005199059, 9005199060, 9005199061, 9005199062, 9005199063, 9005199059], "tags": {"amenity": "bus_station", "bench": "yes", "building": "yes", "bus": "yes", "name": "Bopal Appoach BRTS", "network": "BRTS", "operator": "Ahmedabad Janmarg Ltd.", "public_transport": "station", "shelter": "yes"}}]}