{"version": 0.6, "generator": "Overpass API 0.7.61.5 4133829e", "osm3s": {"timestamp_osm_base": "2024-02-25T09:11:15Z", "copyright": "The data included in this document is from www.openstreetmap.org. The data is made available under ODbL."}, "elements": [{"type": "node", "id": 4292013893, "lat": 23.2184113, "lon": 72.5151861, "tags": {"addr:street": "sh 41", "amenity": "fast_food", "name": "JANTA ice cream"}}, {"type": "node", "id": 4292039993, "lat": 23.2070953, "lon": 72.5343354, "tags": {"addr:street": "SH 41", "amenity": "fast_food", "name": "Gruh laxmi spices"}}, {"type": "node", "id": 4312193691, "lat": 23.2408637, "lon": 72.5010327, "tags": {"addr:street": "Siddheshwari Society Road", "amenity": "fast_food", "name": "Pooja fastfood"}}, {"type": "node", "id": 4380552160, "lat": 23.1799492, "lon": 72.5730115, "tags": {"amenity": "fast_food", "cuisine": "regional", "name": "Bhojnalaya - Unodri Bhavan"}}, {"type": "node", "id": 5565408333, "lat": 23.1787484, "lon": 72.5714569}, {"type": "node", "id": 5565408334, "lat": 23.1786695, "lon": 72.5715977}, {"type": "node", "id": 5565408335, "lat": 23.1786584, "lon": 72.571591}, {"type": "node", "id": 5565408336, "lat": 23.1786104, "lon": 72.5716688}, {"type": "node", "id": 5565408337, "lat": 23.1785388, "lon": 72.5716138}, {"type": "node", "id": 5565408338, "lat": 23.1785808, "lon": 72.5715347}, {"type": "node", "id": 5565408339, "lat": 23.1786251, "lon": 72.5715642}, {"type": "node", "id": 5565408340, "lat": 23.1787041, "lon": 72.571418}, {"type": "node", "id": 6113416289, "lat": 23.1931868, "lon": 72.6148754, "tags": {"addr:city": "Gandhinagar", "addr:postcode": "382421", "addr:street": "Sargasan Crossroad", "amenity": "cafe", "cuisine": "coffee_shop;sandwich;teahouse", "name": "Khetlaapa Tea Shop", "opening_hours": "24/7"}}, {"type": "node", "id": 6113416290, "lat": 23.1950881, "lon": 72.6146833, "tags": {"addr:city": "Gandhinagar", "addr:postcode": "382421", "addr:street": "Sarthak Mall, Kh-Road", "amenity": "cafe", "name": "7 Colours Pan Parlor"}}, {"type": "node", "id": 9214361214, "lat": 23.202559, "lon": 72.5830982}, {"type": "node", "id": 9214361215, "lat": 23.2025629, "lon": 72.583289}, {"type": "node", "id": 9214361216, "lat": 23.2022572, "lon": 72.5832953}, {"type": "node", "id": 9214373817, "lat": 23.2022572, "lon": 72.5830898}, {"type": "node", "id": 9265112880, "lat": 23.185724, "lon": 72.5674532}, {"type": "node", "id": 9265112881, "lat": 23.1854676, "lon": 72.567067}, {"type": "node", "id": 9265112882, "lat": 23.185226, "lon": 72.5672709}, {"type": "node", "id": 9265112883, "lat": 23.1854528, "lon": 72.5676571}, {"type": "node", "id": 9806747712, "lat": 23.1925108, "lon": 72.6164238, "tags": {"addr:city": "Gandhinagar", "addr:postcode": "382421", "addr:street": "Gandhinagar Bypass Road", "air_conditioning": "yes", "amenity": "fast_food", "brand": "McDonald's", "brand:wikidata": "Q38076", "cuisine": "burger", "delivery": "yes", "diet:non-vegetarian": "yes", "diet:vegetarian": "yes", "drive_through": "no", "name": "McDonald's", "outdoor_seating": "no", "payment:american_express": "yes", "payment:app": "yes", "payment:cards": "yes", "payment:cash": "yes", "payment:coins": "yes", "payment:contactless": "yes", "payment:credit_cards": "yes", "payment:debit_cards": "yes", "payment:maestro": "yes", "payment:mastercard": "yes", "payment:notes": "yes", "payment:visa": "yes", "smoking": "no", "source": "local knowledge", "takeaway": "yes", "website": "https://www.mcdonaldsindia.com"}}, {"type": "node", "id": 9806747713, "lat": 23.1923234, "lon": 72.6165249, "tags": {"addr:city": "Gandhinagar", "addr:housenumber": "Shop no.5 , Ground Floor", "addr:postcode": "382421", "addr:street": "Gandhinagar Bypass Road", "air_conditioning": "yes", "amenity": "cafe", "branch": "Shital Enterprise", "brand": "Shiva's", "cuisine": "coffee_shop;pizza;burger;italian;sandwich", "delivery": "yes", "diet:vegetarian": "yes", "internet_access": "no", "level": "0", "name": "Shiva's Cafe", "opening_hours": "Mo-Su 08:00-24:00", "outdoor_seating": "no", "payment:cards": "yes", "payment:cash": "yes", "payment:contactless": "yes", "phone": "+918128886999", "reservation": "yes", "smoking": "no", "source": "local knowledge", "takeaway": "yes"}}, {"type": "node", "id": 11419836108, "lat": 23.1361303, "lon": 72.5502307, "tags": {"addr:city": "Gandhinagar", "addr:housenumber": "B116, Shaligram Lakeview", "addr:postcode": "382470", "addr:street": "S P Ring Road", "amenity": "cafe", "cuisine": "ice_cream;waffle;shakes", "internet_access": "wlan", "internet_access:fee": "yes", "name": "Scoop N Munch", "phone": "7203025213"}}, {"type": "way", "id": 581725474, "nodes": [5565408333, 5565408334, 5565408335, 5565408336, 5565408337, 5565408338, 5565408339, 5565408340, 5565408333], "tags": {"amenity": "food_court", "building": "yes"}}, {"type": "way", "id": 997945841, "nodes": [9214361214, 9214361215, 9214361216, 9214373817, 9214361214], "tags": {"amenity": "cafe", "building": "yes", "name": "Anticlock Canteen"}}, {"type": "way", "id": 1004149242, "nodes": [9265112880, 9265112881, 9265112882, 9265112883, 9265112880], "tags": {"amenity": "food_court", "building": "yes"}}]}