{"version": 0.6, "generator": "Overpass API 0.7.61.5 4133829e", "osm3s": {"timestamp_osm_base": "2024-02-25T09:11:15Z", "copyright": "The data included in this document is from www.openstreetmap.org. The data is made available under ODbL."}, "elements": [{"type": "node", "id": 3711445396, "lat": 23.0677995, "lon": 72.4871643}, {"type": "node", "id": 7137331982, "lat": 23.034043, "lon": 72.5018226, "tags": {"amenity": "cafe", "name": "The Cafe Date"}}, {"type": "node", "id": 8847682612, "lat": 23.0451215, "lon": 72.4854863, "tags": {"amenity": "cafe", "name": "Bean Box Cafe"}}, {"type": "node", "id": 9009705206, "lat": 23.0258612, "lon": 72.4762382, "tags": {"addr:city": "Ahmedabad", "addr:housenumber": "SN 1", "addr:postcode": "380058", "addr:street": "Sardar Patel Ring Road", "amenity": "fast_food", "brand": "McDonald's", "brand:pa": "\u0a2e\u0a48\u0a15\u0a21\u0a4b\u0a28\u0a32\u0a21\u2019\u0a1c\u0a3c", "brand:ur": "\u0645\u06a9\u0688\u0648\u0646\u0644\u0688\u0632", "brand:wikidata": "Q38076", "brand:wikipedia": "en:McDonald's", "brand:wikipedia:pa": "\u0a2e\u0a48\u0a15\u0a21\u0a4b\u0a28\u0a32\u0a21\u2019\u0a1c\u0a3c", "brand:wikipedia:ur": "\u0645\u06a9\u0688\u0648\u0646\u0644\u0688\u0632", "cuisine": "burger", "name": "McDonald's", "name:pa": "\u0a2e\u0a48\u0a15\u0a21\u0a4b\u0a28\u0a32\u0a21\u2019\u0a1c\u0a3c", "name:ur": "\u0645\u06a9\u0688\u0648\u0646\u0644\u0688\u0632", "phone": "+919372722317", "takeaway": "yes", "website": "https://www.mcdelivery.co.in/"}}, {"type": "node", "id": 9174546601, "lat": 23.0677274, "lon": 72.4868665}, {"type": "node", "id": 9174546602, "lat": 23.0678976, "lon": 72.4869334}, {"type": "node", "id": 9174546603, "lat": 23.0677759, "lon": 72.4872448}, {"type": "node", "id": 9174546604, "lat": 23.0676581, "lon": 72.4872139}, {"type": "node", "id": 9174546605, "lat": 23.067695, "lon": 72.4870247}, {"type": "node", "id": 9310325493, "lat": 23.0182853, "lon": 72.4716006, "tags": {"address": "Near Auda Garden, Opp. Samanavya Residency, South Bopal, Ahmedabad", "amenity": "fast_food", "name": "Purohit Chavana and Sweet Mart", "phone": "+919824013574"}}, {"type": "node", "id": 9660433812, "lat": 22.961352, "lon": 72.4239095, "tags": {"amenity": "cafe", "name": "Plumeria Cafe", "opening_hours": "Mo-Su 10:00-22:00"}}, {"type": "node", "id": 10177917536, "lat": 23.017434, "lon": 72.4756286, "tags": {"amenity": "fast_food", "name": "Gwalia Sweets"}}, {"type": "node", "id": 11226473168, "lat": 23.0455827, "lon": 72.4915675}, {"type": "node", "id": 11226473169, "lat": 23.0455839, "lon": 72.491848}, {"type": "node", "id": 11226473170, "lat": 23.0453799, "lon": 72.491822}, {"type": "node", "id": 11226473171, "lat": 23.0453292, "lon": 72.4915662}, {"type": "node", "id": 11575789971, "lat": 23.0843166, "lon": 72.4878637, "tags": {"addr:city": "Ahmedabad", "addr:postcode": "380060", "addr:street": "Science City Bhadaj Road", "amenity": "cafe", "cuisine": "coffee_shop;fast_food", "name": "Stallions Cafe", "outdoor_seating": "yes", "phone": "+919909909560"}}, {"type": "way", "id": 993060289, "nodes": [9174546601, 9174546602, 3711445396, 9174546603, 9174546604, 9174546605, 9174546601], "tags": {"addr:city": "Ahmedabad", "addr:postcode": "380059", "addr:street": "Sardar Patel Ring Road", "amenity": "cafe", "name": "Vibes9 V9 Cafe", "outdoor_seating": "yes", "smoking": "isolated"}}, {"type": "way", "id": 1211760600, "nodes": [11226473168, 11226473169, 11226473170, 11226473171, 11226473168], "tags": {"amenity": "cafe", "building": "yes", "name": "Camilo Coffee"}}]}