{"version": 0.6, "generator": "Overpass API 0.7.61.5 4133829e", "osm3s": {"timestamp_osm_base": "2024-02-25T09:11:15Z", "copyright": "The data included in this document is from www.openstreetmap.org. The data is made available under ODbL."}, "elements": [{"type": "node", "id": 6968350276, "lat": 22.3812599, "lon": 71.9763587, "tags": {"addr:district": "Ahmedabad", "addr:full": "Opposite S.T.Bus Stand, Dhandhuka Cross Roads Highway", "addr:postcode": "382460", "addr:state": "Gujarat", "amenity": "hospital", "contact:mobile": "9824430306", "name": "Kasturba Hospital, Ahmedabad", "source": "OpenGovernmentData"}}, {"type": "node", "id": 6981667973, "lat": 22.3641035, "lon": 71.9781169, "tags": {"addr:district": "Ahmedabad", "addr:full": "Near Jeevan Sandhya, Bhavnagar Highway, Dhandhuka", "addr:postcode": "382460", "addr:state": "Gujarat", "amenity": "hospital", "email": "rms@rmshospital.org", "name": "RMS Hospital Trauma General Hospital", "operator:type": "private", "source": "OpenGovernmentData", "website": "https://rmshospital.org/"}}, {"type": "node", "id": 7860899309, "lat": 22.382661, "lon": 71.9836273, "tags": {"addr:district": "Ahmedabad", "addr:full": "Dhandhuka", "addr:postcode": "382460", "addr:state": "Gujarat", "amenity": "clinic", "name": "Dharmachakra Clinic", "source": "Local Knowledge"}}, {"type": "node", "id": 7860899321, "lat": 22.3822714, "lon": 71.983956, "tags": {"addr:district": "Ahmedabad", "addr:full": "Dhandhuka", "addr:postcode": "382460", "addr:state": "Gujarat", "amenity": "clinic", "name": "Aagam Clinic", "source": "Local Knowledge"}}, {"type": "node", "id": 7860899341, "lat": 22.3818212, "lon": 71.9785534, "tags": {"addr:district": "Ahmedabad", "addr:full": "Dhandhuka", "addr:postcode": "382460", "addr:state": "Gujarat", "amenity": "dentist", "name": "Nilkanth Dental Clinic", "source": "Local Knowledge"}}]}