{"version": 0.6, "generator": "Overpass API 0.7.61.5 4133829e", "osm3s": {"timestamp_osm_base": "2024-02-25T07:19:45Z", "copyright": "The data included in this document is from www.openstreetmap.org. The data is made available under ODbL."}, "elements": [{"type": "node", "id": 289582025, "lat": 17.4129744, "lon": 78.4610582, "tags": {"internet_access": "no", "name": "Khairatabad", "name:te": "\u0c16\u0c48\u0c30\u0c24\u0c3e\u0c2c\u0c3e\u0c26\u0c4d", "name:ur": "\u062e\u06cc\u0631\u062a \u0622\u0628\u0627\u062f", "network": "IR", "operator": "SCR", "platforms": "2", "public_transport": "station", "railway": "station", "ref": "KQD", "train": "yes", "wikidata": "Q6399082", "wikipedia": "en:Khairatabad railway station"}}, {"type": "node", "id": 289582401, "lat": 17.4233355, "lon": 78.4631857, "tags": {"internet_access": "no", "name": "Necklace Road", "name:te": "\u0c28\u0c46\u0c15\u0c4d\u0c32\u0c46\u0c38\u0c4d \u0c30\u0c4b\u0c21\u0c4d\u0c21\u0c41", "name:ur": "\u0646\u06a9\u0644\u06cc\u0633 \u0631\u0648\u0688", "network": "IR", "operator": "SCR", "platforms": "2", "public_transport": "station", "railway": "station", "ref": "NLRD", "train": "yes", "wikidata": "Q6985575", "wikipedia": "en:Necklace Road railway station"}}, {"type": "node", "id": 289656763, "lat": 17.3924223, "lon": 78.4675956, "tags": {"internet_access": "no", "name": "Hyderabad Deccan Nampally", "name:te": "\u0c39\u0c48\u0c26\u0c30\u0c3e\u0c2c\u0c3e\u0c26\u0c4d \u0c26\u0c15\u0c4d\u0c15\u0c28\u0c4d \u0c28\u0c3e\u0c02\u0c2a\u0c32\u0c4d\u0c32\u0c3f", "name:ur": "\u062d\u06cc\u062f\u0631\u0622\u0628\u0627\u062f \u062f\u06a9\u0646", "network": "IR", "operator": "SCR", "platforms": "6", "railway": "station", "ref": "HYB", "train": "yes", "wikidata": "Q3633967", "wikipedia": "en:Hyderabad Deccan railway station"}}, {"type": "node", "id": 307015337, "lat": 17.3765035, "lon": 78.4948263, "tags": {"alt_name:ur": "\u0645\u0644\u06a9 \u067e\u06cc\u0679", "internet_access": "no", "name": "Malakpet", "name:ar": "\u0645\u0627\u0644\u0643 \u0628\u064a\u062a", "name:ur": "\u0645\u0627\u0644\u06a9 \u067e\u06cc\u0679", "network": "IR", "operator": "SCR", "platforms": "2", "public_transport": "station", "railway": "station", "ref": "MXT", "train": "yes", "wikidata": "Q6741191", "wikipedia": "en:Malakpet railway station"}}, {"type": "node", "id": 307023348, "lat": 17.389311, "lon": 78.4992403, "tags": {"historic": "yes", "internet_access": "wlan", "name": "Kacheguda", "name:ur": "\u06a9\u0627\u0686\u06cc \u06af\u0648\u0691\u0627 \u0631\u06cc\u0644\u0648\u06d2 \u0627\u0633\u0679\u06cc\u0634\u0646", "network": "IR", "operator": "SCR", "public_transport": "station", "railway": "station", "ref": "KCG", "train": "yes", "wikidata": "Q6344674", "wikipedia": "en:Kacheguda railway station"}}, {"type": "node", "id": 308937020, "lat": 17.4407394, "lon": 78.5506697, "tags": {"internet_access": "no", "name": "Moula Ali", "name:te": "\u0c2e\u0c4c\u0c32\u0c3e \u0c05\u0c32\u0c3f", "name:ur": "\u0645\u0648\u0644\u0627 \u0639\u0644\u06cc", "network": "IR", "operator": "SCR", "public_transport": "station", "railway": "station", "ref": "MLY", "train": "yes", "wikidata": "Q62004881", "wikipedia": "en:Moula Ali railway station"}}, {"type": "node", "id": 324858173, "lat": 17.4263175, "lon": 78.5313258, "tags": {"amenity": "bus_station", "bus": "yes", "highway": "bus_stop", "name": "Tarnaka Bus Stop", "public_transport": "station"}}, {"type": "node", "id": 343319245, "lat": 17.4456571, "lon": 78.4521487, "tags": {"internet_access": "no", "name": "Nature Cure Hospital", "name:te": "\u0c2a\u0c4d\u0c30\u0c15\u0c43\u0c24\u0c3f \u0c1a\u0c3f\u0c15\u0c3f\u0c24\u0c4d\u0c38\u0c3e\u0c32\u0c2f \u0c30\u0c48\u0c32\u0c4d\u0c35\u0c47 \u0c38\u0c4d\u0c1f\u0c47\u0c37\u0c28\u0c4d", "network": "IR", "operator": "SCR", "platforms": "2", "public_transport": "station", "railway": "station", "ref": "NCHS", "train": "yes", "wikidata": "Q6980906", "wikipedia": "en:Nature Cure Hospital railway station"}}, {"type": "node", "id": 343641073, "lat": 17.4386951, "lon": 78.4580969, "tags": {"internet_access": "no", "name": "Begumpet", "name:te": "\u0c2c\u0c47\u0c17\u0c02\u0c2a\u0c47\u0c1f\u0c4d", "name:ur": "\u0628\u06cc\u06af\u0645 \u067e\u06cc\u0679", "network": "IR", "operator": "SCR", "platforms": "2", "public_transport": "station", "railway": "station", "ref": "BMT", "train": "yes", "wikidata": "Q4880629", "wikipedia": "en:Begumpet railway station"}}, {"type": "node", "id": 626897410, "lat": 17.3729742, "lon": 78.4766267, "tags": {"amenity": "bus_station", "bus": "yes", "name": "Afzalgunj", "public_transport": "station"}}, {"type": "node", "id": 668646041, "lat": 17.4879512, "lon": 78.3953922, "tags": {"amenity": "bus_station", "name": "KPHB 3rd Phase Bus Stop"}}, {"type": "node", "id": 886161862, "lat": 17.4823997, "lon": 78.3630141, "tags": {"internet_access": "no", "name": "Hafeezpet", "network": "IR", "operator": "SCR", "platforms": "2", "public_transport": "station", "railway": "station", "ref": "HFZ", "train": "yes", "wikidata": "Q5638317", "wikipedia": "en:Hafeezpet railway station"}}, {"type": "node", "id": 893170355, "lat": 17.4329515, "lon": 78.4873218, "tags": {"internet_access": "no", "name": "James Street", "name:te": "\u0c1c\u0c47\u0c2e\u0c4d\u0c38\u0c4d \u0c38\u0c4d\u0c1f\u0c4d\u0c30\u0c40\u0c1f\u0c4d", "name:ur": "\u062c\u06cc\u0645\u0632 \u0627\u0633\u0679\u0631\u06cc\u0679", "network": "IR", "operator": "SCR", "platforms": "2", "public_transport": "station", "railway": "station", "ref": "JET", "train": "yes", "wikidata": "Q6143758", "wikipedia": "en:James Street railway station, Hyderabad"}}, {"type": "node", "id": 1118754390, "lat": 17.3326604, "lon": 78.4751984, "tags": {"alt_name:ur": "\u0641\u0644\u06a9 \u0646\u0645\u0627", "internet_access": "no", "name": "Falaknuma", "name:ur": "\u0641\u0644\u06a9 \u0646\u0645\u0627\u0621", "network": "IR", "operator": "SCR", "public_transport": "station", "railway": "station", "ref": "FM", "train": "yes", "wikidata": "Q5431641", "wikipedia": "en:Falaknuma railway station"}}, {"type": "node", "id": 1118754593, "lat": 17.3353179, "lon": 78.4683887, "tags": {"construction": "station", "disused": "yes", "name": "Jungametta (u/c)", "name:te": "\u0c1c\u0c02\u0c17\u0c02\u0c2e\u0c47\u0c1f", "network": "Hyderabad Metro", "note": "Contributors are requested to not edit the \"network\" and the \"operator\" tags. (2023/11/08)", "operator": "Hyderabad Metro Rail Limited", "railway": "station", "station": "subway", "subway": "yes"}}, {"type": "node", "id": 1118754600, "lat": 17.3619252, "lon": 78.4799909, "tags": {"construction": "station", "disused": "yes", "name": "Charminar (u/c)", "name:te": "\u0c1a\u0c3e\u0c30\u0c4d\u0c2e\u0c3f\u0c28\u0c3e\u0c30\u0c4d", "network": "Hyderabad Metro", "note": "Contributors are requested to not edit the \"network\" and the \"operator\" tags. (2023/11/08)", "operator": "Hyderabad Metro Rail Limited", "railway": "station", "station": "subway", "subway": "yes"}}, {"type": "node", "id": 1118754617, "lat": 17.3408101, "lon": 78.4683869, "tags": {"construction": "station", "disused:railway": "station", "name": "Shamserganj (u/c)", "name:te": "\u0c37\u0c02\u0c37\u0c47\u0c30\u0c4d\u0c17\u0c02\u0c1c\u0c4d", "network": "Hyderabad Metro", "note": "Contributors are requested to not edit the \"network\" and the \"operator\" tags. (2023/11/08)", "operator": "Hyderabad Metro Rail Limited", "public_transport": "station", "railway": "station", "station": "subway", "subway": "yes"}}, {"type": "node", "id": 1118754623, "lat": 17.3507744, "lon": 78.4723504, "tags": {"construction": "station", "disused": "yes", "name": "Shalibanda (u/c)", "name:te": "\u0c37\u0c3e\u0c32\u0c3f\u0c2c\u0c02\u0c21", "network": "Hyderabad Metro", "note": "Contributors are requested to not edit the \"network\" and the \"operator\" tags. (2023/11/08)", "operator": "Hyderabad Metro Rail Limited", "railway": "station", "station": "subway", "subway": "yes"}}, {"type": "node", "id": 1118754666, "lat": 17.3317141, "lon": 78.4699981, "tags": {"construction": "station", "disused": "yes", "name": "Falaknuma Terminal (u/c)", "name:te": "\u0c2b\u0c32\u0c15\u0c4d\u0c28\u0c41\u0c2e\u0c3e \u0c1f\u0c46\u0c30\u0c4d\u0c2e\u0c3f\u0c28\u0c32\u0c4d", "network": "Hyderabad Metro", "note": "Contributors are requested to not edit the \"network\" and the \"operator\" tags. (2023/11/08)", "operator": "Hyderabad Metro Rail Limited", "railway": "station", "station": "subway", "subway": "yes"}}, {"type": "node", "id": 1118754671, "lat": 17.3717823, "lon": 78.4822609, "tags": {"construction": "station", "disused": "yes", "name": "Salar Jung Museum (u/c)", "name:te": "\u0c38\u0c3e\u0c32\u0c3e\u0c30\u0c4d \u0c1c\u0c02\u0c17\u0c4d \u0c2e\u0c4d\u0c2f\u0c42\u0c1c\u0c3f\u0c2f\u0c02", "network": "Hyderabad Metro", "note": "Contributors are requested to not edit the \"network\" and the \"operator\" tags. (2023/11/08)", "operator": "Hyderabad Metro Rail Limited", "railway": "station", "station": "subway", "subway": "yes"}}, {"type": "node", "id": 1215788873, "lat": 17.4872976, "lon": 78.3322142, "tags": {"internet_access": "no", "name": "Chandanagar", "network": "IR", "operator": "SCR", "platforms": "2", "public_transport": "station", "railway": "station", "ref": "CDNR", "toilets:wheelchair": "no", "train": "yes", "wheelchair": "limited", "wikidata": "Q5070904", "wikipedia": "en:Chanda Nagar railway station"}}, {"type": "node", "id": 1233345282, "lat": 17.3938358, "lon": 78.3199873}, {"type": "node", "id": 1233345283, "lat": 17.3938093, "lon": 78.3201815}, {"type": "node", "id": 1233345284, "lat": 17.3937633, "lon": 78.3203666}, {"type": "node", "id": 1233345285, "lat": 17.3936125, "lon": 78.3203476}, {"type": "node", "id": 1233345286, "lat": 17.3938503, "lon": 78.3200715}, {"type": "node", "id": 1233345287, "lat": 17.3938528, "lon": 78.3202137}, {"type": "node", "id": 1233345288, "lat": 17.3937172, "lon": 78.3203371}, {"type": "node", "id": 1301965580, "lat": 17.4658631, "lon": 78.3640892}, {"type": "node", "id": 1301965582, "lat": 17.4649062, "lon": 78.3648991}, {"type": "node", "id": 1301965585, "lat": 17.4651748, "lon": 78.3633194}, {"type": "node", "id": 1301965589, "lat": 17.4652874, "lon": 78.3647972}, {"type": "node", "id": 1301965590, "lat": 17.4654665, "lon": 78.3633623}, {"type": "node", "id": 1425916857, "lat": 17.4698143, "lon": 78.3853779, "tags": {"internet_access": "no", "name": "Hitech City", "network": "IR", "operator": "SCR", "platforms": "2", "public_transport": "station", "railway": "station", "ref": "HTCY", "train": "yes", "wheelchair": "no", "wikidata": "Q5871886", "wikipedia": "en:Hitech City railway station"}}, {"type": "node", "id": 1435162002, "lat": 17.4953503, "lon": 78.519068, "tags": {"IR:zone": "SCR:", "internet_access": "no", "name": "Cavalry Barracks", "name:te": "\u0c15\u0c46\u0c35\u0c32\u0c30\u0c3f \u0c2c\u0c4d\u0c2f\u0c3e\u0c30\u0c15\u0c4d\u0c38\u0c4d", "network": "IR", "operator": "SCR", "public_transport": "station", "railway": "station", "ref": "CVB", "train": "yes", "wikidata": "Q5054809", "wikipedia": "en:Cavalry Barracks railway station"}}, {"type": "node", "id": 1435327658, "lat": 17.4483438, "lon": 78.5289727, "tags": {"internet_access": "no", "name": "Malkajgiri", "name:te": "\u0c2e\u0c32\u0c4d\u0c15\u0c3e\u0c1c\u0c3f\u0c17\u0c3f\u0c30\u0c3f", "network": "IR", "operator": "SCR", "public_transport": "station", "railway": "station", "ref": "MJF", "train": "yes", "wikidata": "Q6743861", "wikipedia": "en:Malkajgiri railway station"}}, {"type": "node", "id": 1437209842, "lat": 17.4626026, "lon": 78.4301562, "tags": {"internet_access": "no", "name": "Bharath Nagar", "network": "IR", "operator": "SCR", "platforms": "3", "public_transport": "station", "railway": "station", "ref": "BTNR", "train": "yes", "wikidata": "Q4901137", "wikipedia": "en:Bharat Nagar railway station"}}, {"type": "node", "id": 1447172211, "lat": 17.3986799, "lon": 78.4817807, "tags": {"amenity": "bus_station", "name": "Bus Stop"}}, {"type": "node", "id": 1674225760, "lat": 17.4145291, "lon": 78.4247311, "tags": {"amenity": "bus_station", "name": "Banjara Hills Rd12"}}, {"type": "node", "id": 1869496195, "lat": 17.4354823, "lon": 78.476791}, {"type": "node", "id": 1936294138, "lat": 17.4831225, "lon": 78.3177732, "tags": {"internet_access": "no", "name": "Lingampalli", "network": "IR", "operator": "SCR", "platforms": "6", "public_transport": "station", "railway": "station", "ref": "LPI", "train": "yes", "wikidata": "Q6553760", "wikipedia": "en:Lingampalli railway station"}}, {"type": "node", "id": 1974699686, "lat": 17.4585975, "lon": 78.6066056, "tags": {"internet_access": "no", "name": "Charlapalli", "name:te": "\u0c1a\u0c30\u0c4d\u0c32\u0c2a\u0c32\u0c4d\u0c32\u0c3f", "name:ur": "\u0686\u0631\u0644\u06c1 \u067e\u0644\u06cc", "network": "IR", "operator": "SCR", "public_transport": "station", "railway": "station", "ref": "CHZ", "train": "yes", "wikidata": "Q59326703"}}, {"type": "node", "id": 1985561804, "lat": 17.4400243, "lon": 78.3557675, "tags": {"amenity": "bus_station", "name": "GPR Quarters"}}, {"type": "node", "id": 1987954929, "lat": 17.4939602, "lon": 78.4008412, "tags": {"alt_name": "Kukapally Housing Board", "amenity": "bus_station", "name": "KPHB", "old_name": "KPHB Bus Stop"}}, {"type": "node", "id": 2084119304, "lat": 17.4272947, "lon": 78.5207231, "tags": {"alt_name": "Sitafal Mandi", "internet_access": "no", "name": "Sitafalmandi", "name:te": "\u0c38\u0c40\u0c24\u0c3e\u0c2b\u0c32\u0c4d\u200c\u0c2e\u0c02\u0c21\u0c3f", "network": "IR", "operator": "SCR", "public_transport": "station", "railway": "station", "ref": "STPD", "train": "yes", "wikidata": "Q7531662", "wikipedia": "en:Sitaphalmandi railway station"}}, {"type": "node", "id": 2166591672, "lat": 17.494806, "lon": 78.3169895, "tags": {"amenity": "bus_station", "name": "Lingampally"}}, {"type": "node", "id": 2214136534, "lat": 17.4359536, "lon": 78.5000501, "tags": {"amenity": "bus_station", "bus": "yes", "internet_access": "no", "name": "Secunderabad", "name:hi": "\u0938\u093f\u0915\u0902\u0926\u0930\u093e\u092c\u093e\u0926", "name:pa": "\u0a38\u0a3f\u0a15\u0a70\u0a26\u0a30\u0a3e\u0a2c\u0a3e\u0a26", "name:te": "\u0c38\u0c3f\u0c15\u0c3f\u0c02\u0c26\u0c4d\u0c30\u0c3e\u0c2c\u0c3e\u0c26\u0c4d", "network": "Secunderabad-Medchal-Lingampalli", "operator": "TSRTC", "public_transport": "station"}}, {"type": "node", "id": 2422172970, "lat": 17.4375661, "lon": 78.4569341, "tags": {"name": "Begumpet", "name:ml": "\u0d2c\u0d47\u0d17\u0d02\u0d2a\u0d47\u0d1f\u0d4d\u0d1f\u0d4d", "name:te": "\u0c2c\u0c47\u0c17\u0c02\u0c2a\u0c47\u0c1f\u0c4d", "network": "Hyderabad Metro", "note": "Contributors are requested to not edit the \"network\" and the \"operator\" tags. (2023/11/08)", "operator": "Hyderabad Metro Rail Limited", "public_transport": "station", "railway": "station", "station": "subway", "subway": "yes"}}, {"type": "node", "id": 2422988961, "lat": 17.4849303, "lon": 78.4117785, "tags": {"name": "Kukatpally", "name:ml": "\u0d15\u0d41\u0d15\u0d4d\u0d15\u0d1f\u0d4d\u0d1f\u0d4d\u0d2a\u0d33\u0d4d\u0d33\u0d3f", "name:te": "\u0c15\u0c42\u0c15\u0c4d\u0c15\u0c1f\u0c4d\u200c\u0c2a\u0c32\u0c4d\u0c32\u0c3f", "network": "Hyderabad Metro", "note": "Contributors are requested to not edit the \"network\" and the \"operator\" tags. (2023/11/08)", "operator": "Hyderabad Metro Rail Limited", "public_transport": "stop_position", "railway": "station", "station": "subway", "subway": "yes"}}, {"type": "node", "id": 2422989005, "lat": 17.3681501, "lon": 78.5381335, "tags": {"name": "Chaitanyapuri", "name:ml": "\u0d1a\u0d48\u0d24\u0d28\u0d4d\u0d2f\u0d2a\u0d41\u0d30\u0d3f", "name:te": "\u0c1b\u0c48\u0c24\u0c28\u0c4d\u0c2f\u0c2a\u0c41\u0c30\u0c3f", "network": "Hyderabad Metro", "note": "Contributors are requested to not edit the \"network\" and the \"operator\" tags. (2023/11/08)", "operator": "Hyderabad Metro Rail Limited", "public_transport": "stop_position", "railway": "station", "station": "subway", "subway": "yes"}}, {"type": "node", "id": 2422989021, "lat": 17.4570724, "lon": 78.4335941, "tags": {"name": "Erragadda", "name:te": "\u0c0e\u0c30\u0c4d\u0c30\u0c17\u0c21\u0c4d\u0c21", "network": "Hyderabad Metro", "note": "Contributors are requested to not edit the \"network\" and the \"operator\" tags. (2023/11/08)", "operator": "Hyderabad Metro Rail Limited", "public_transport": "stop_position", "railway": "station", "station": "subway", "subway": "yes"}}, {"type": "node", "id": 2422989049, "lat": 17.3820769, "lon": 78.4817011, "tags": {"alt_name": "OMC", "name": "Osmania Medical College", "name:ml": "\u0d09\u0d38\u0d4d\u0d2e\u0d3e\u0d28\u0d3f\u0d2f \u0d2e\u0d46\u0d21\u0d3f\u0d15\u0d4d\u0d15\u0d7d \u0d15\u0d4b\u0d33\u0d47\u0d1c\u0d4d", "name:te": "\u0c09\u0c38\u0c4d\u0c2e\u0c3e\u0c28\u0c3f\u0c2f\u0c3e \u0c35\u0c48\u0c26\u0c4d\u0c2f \u0c15\u0c33\u0c3e\u0c36\u0c3e\u0c32", "network": "Hyderabad Metro", "note": "Contributors are requested to not edit the \"network\" and the \"operator\" tags. (2023/11/08)", "operator": "Hyderabad Metro Rail Limited", "public_transport": "stop_position", "railway": "station", "station": "subway", "subway": "yes"}}, {"type": "node", "id": 2422989052, "lat": 17.464041, "lon": 78.4300928, "tags": {"name": "Bharat Nagar", "name:te": "\u0c2d\u0c30\u0c24\u0c4d \u0c28\u0c17\u0c30\u0c4d", "network": "Hyderabad Metro", "note": "Contributors are requested to not edit the \"network\" and the \"operator\" tags. (2023/11/08)", "operator": "Hyderabad Metro Rail Limited", "public_transport": "stop_position", "railway": "station", "station": "subway", "subway": "yes", "wikidata": "Q4901137"}}, {"type": "node", "id": 2422989068, "lat": 17.3979907, "lon": 78.4708797, "tags": {"name": "Assembly", "name:ml": "\u0d05\u0d38\u0d02\u0d2c\u0d4d\u0d32\u0d3f", "name:te": "\u0c05\u0c38\u0c46\u0c02\u0c2c\u0c4d\u0c32\u0c40", "network": "Hyderabad Metro", "note": "Contributors are requested to not edit the \"network\" and the \"operator\" tags. (2023/11/08)", "operator": "Hyderabad Metro Rail Limited", "public_transport": "stop_position", "railway": "station", "station": "subway", "subway": "yes"}}, {"type": "node", "id": 2422989110, "lat": 17.3858253, "lon": 78.4733347, "tags": {"name": "Gandhi Bhavan", "name:ml": "\u0d17\u0d3e\u0d28\u0d4d\u0d27\u0d3f \u0d2d\u0d35\u0d7b", "name:te": "\u0c17\u0c3e\u0c02\u0c27\u0c40 \u0c2d\u0c35\u0c28\u0c4d", "network": "Hyderabad Metro", "note": "Contributors are requested to not edit the \"network\" and the \"operator\" tags. (2023/11/08)", "operator": "Hyderabad Metro Rail Limited", "public_transport": "stop_position", "railway": "station", "station": "subway", "subway": "yes"}}, {"type": "node", "id": 2422989133, "lat": 17.3618565, "lon": 78.5439622, "tags": {"name": "Victoria Memorial", "name:ml": "\u0d35\u0d3f\u0d15\u0d4d\u0d1f\u0d4b\u0d31\u0d3f\u0d2f \u0d2e\u0d46\u0d2e\u0d4d\u0d2e\u0d4b\u0d31\u0d3f\u0d2f\u0d7d", "name:te": "\u0c35\u0c3f\u0c15\u0c4d\u0c1f\u0c4b\u0c30\u0c3f\u0c2f\u0c3e \u0c2e\u0c46\u0c2e\u0c4b\u0c30\u0c3f\u0c2f\u0c32\u0c4d", "network": "Hyderabad Metro", "note": "Contributors are requested to not edit the \"network\" and the \"operator\" tags. (2023/11/08)", "operator": "Hyderabad Metro Rail Limited", "public_transport": "stop_position", "railway": "station", "station": "subway", "subway": "yes", "wheelchair": "yes"}}, {"type": "node", "id": 2422989180, "lat": 17.4767602, "lon": 78.4221009, "tags": {"name": "Balanagar", "name:ml": "\u0d2c\u0d3e\u0d32\u0d3e\u0d28\u0d17\u0d7c", "name:te": "\u0c2c\u0c3e\u0c32\u0c3e\u0c28\u0c17\u0c30\u0c4d", "network": "Hyderabad Metro", "note": "Contributors are requested to not edit the \"network\" and the \"operator\" tags. (2023/11/08)", "operator": "Hyderabad Metro Rail Limited", "public_transport": "stop_position", "railway": "station", "station": "subway", "subway": "yes"}}, {"type": "node", "id": 2422989191, "lat": 17.4202292, "lon": 78.4563489, "tags": {"name": "Irrum Manzil", "name:ml": "\u0d0e\u0d31\u0d02 \u0d2e\u0d7b\u0d38\u0d3f\u0d7d", "name:te": "\u0c07\u0c31\u0c02 \u0c2e\u0c02\u0c1c\u0c3f\u0c32\u0c4d", "network": "Hyderabad Metro", "note": "Contributors are requested to not edit the \"network\" and the \"operator\" tags. (2023/11/08)", "operator": "Hyderabad Metro Rail Limited", "public_transport": "stop_position", "railway": "station", "station": "subway", "subway": "yes"}}, {"type": "node", "id": 2422989207, "lat": 17.392222, "lon": 78.4701612, "tags": {"name": "Nampally", "name:ml": "\u0d28\u0d3e\u0d2e\u0d4d\u0d2a\u0d33\u0d4d\u0d33\u0d3f", "name:te": "\u0c28\u0c3e\u0c02\u0c2a\u0c32\u0c4d\u0c32\u0c3f", "network": "Hyderabad Metro", "note": "Contributors are requested to not edit the \"network\" and the \"operator\" tags. (2023/11/08)", "operator": "Hyderabad Metro Rail Limited", "public_transport": "stop_position", "railway": "station", "station": "subway", "subway": "yes"}}, {"type": "node", "id": 2424019772, "lat": 17.4289362, "lon": 78.450955, "tags": {"name": "Panjagutta", "name:ml": "\u0d2a\u0d1e\u0d4d\u0d1a\u0d17\u0d41\u0d1f\u0d4d\u0d1f", "name:te": "\u0c2a\u0c02\u0c1c\u0c3e\u0c17\u0c41\u0c1f\u0c4d\u0c1f", "network": "Hyderabad Metro", "note": "Contributors are requested to not edit the \"network\" and the \"operator\" tags. (2023/11/08)", "operator": "Hyderabad Metro Rail Limited", "public_transport": "stop_position", "railway": "station", "station": "subway", "subway": "yes"}}, {"type": "node", "id": 2425474186, "lat": 17.4477629, "lon": 78.4381665, "tags": {"name": "ESI Hospital", "name:te": "\u0c08.\u0c0e\u0c38\u0c4d.\u0c10 \u0c06\u0c38\u0c4d\u0c2a\u0c24\u0c4d\u0c30\u0c3f", "network": "Hyderabad Metro", "note": "Contributors are requested to not edit the \"network\" and the \"operator\" tags. (2023/11/08)", "operator": "Hyderabad Metro Rail Limited", "public_transport": "stop_position", "railway": "station", "station": "subway", "subway": "yes"}}, {"type": "node", "id": 2447314493, "lat": 17.3902954, "lon": 78.4990344, "tags": {"amenity": "bus_station", "name": "TSRTC BUS STAND , KACHEGUDA", "name:ur": "\u06a9\u0627\u0686\u06cc \u06af\u0648\u0688\u0627 \u0628\u0633 \u0627\u0633\u0679\u0627\u067e"}}, {"type": "node", "id": 2460409245, "lat": 17.3587239, "lon": 78.4739639}, {"type": "node", "id": 2460409246, "lat": 17.3587582, "lon": 78.4738584}, {"type": "node", "id": 2460409247, "lat": 17.3587703, "lon": 78.4737562}, {"type": "node", "id": 2460409253, "lat": 17.3588514, "lon": 78.4735888}, {"type": "node", "id": 2460409270, "lat": 17.3594296, "lon": 78.4737051}, {"type": "node", "id": 2460409274, "lat": 17.3594865, "lon": 78.4740936}, {"type": "node", "id": 2460409275, "lat": 17.3594941, "lon": 78.4737913}, {"type": "node", "id": 2460409278, "lat": 17.3595569, "lon": 78.4741069}, {"type": "node", "id": 2461496897, "lat": 17.3850111, "lon": 78.4033844, "tags": {"amenity": "bus_station", "name": "Golconda Fort"}}, {"type": "node", "id": 2461524533, "lat": 17.340029, "lon": 78.5033878, "tags": {"amenity": "bus_station", "bus": "yes", "name": "TSRTC BUS STAND , MIDHANI", "public_transport": "station"}}, {"type": "node", "id": 2465621481, "lat": 17.5287421, "lon": 78.2641359, "tags": {"amenity": "bus_station", "bus": "yes", "designation": "station", "local_ref": "Patancheru", "name": "TSRTC BUS STAND , PATANCHERU", "operator": "BUS STOP", "public_transport": "station", "shelter": "yes", "source": "localites"}}, {"type": "node", "id": 2528193014, "lat": 17.4562011, "lon": 78.4499241, "tags": {"internet_access": "no", "name": "Fateh Nagar", "network": "IR", "operator": "SCR", "platforms": "2", "public_transport": "station", "railway": "station", "ref": "FNB", "train": "yes", "wikidata": "Q5437396", "wikipedia": "en:Fateh Nagar railway station"}}, {"type": "node", "id": 2531993221, "lat": 17.3098599, "lon": 78.4249837, "tags": {"internet_access": "no", "name": "Budvel", "network": "IR", "operator": "SCR", "platforms": "2", "public_transport": "station", "railway": "station", "ref": "BDVL", "train": "yes", "wikidata": "Q63371611"}}, {"type": "node", "id": 2578026375, "lat": 17.4066792, "lon": 78.4986216, "tags": {"amenity": "bus_station", "bus": "yes", "name": "TSRTC BUS BHAVAN", "public_transport": "station"}}, {"type": "node", "id": 2712432879, "lat": 17.413593, "lon": 78.4609563, "tags": {"highway": "bus_stop", "name": "khairatabad"}}, {"type": "node", "id": 2712437769, "lat": 17.4038328, "lon": 78.4635019, "tags": {"internet_access": "no", "name": "Lakdi-ka-pul", "name:te": "\u0c32\u0c15\u0c4d\u0c21\u0c3f\u0c15\u0c2a\u0c42\u0c32\u0c4d", "name:ur": "\u0644\u06a9\u0691\u06cc \u06a9\u0627 \u067e\u0644", "network": "IR", "operator": "SCR", "platforms": "2", "public_transport": "station", "railway": "station", "ref": "LKPL", "train": "yes", "wikidata": "Q6474590", "wikipedia": "en:Lakdi-ka-pul railway station"}}, {"type": "node", "id": 2787194458, "lat": 17.3950152, "lon": 78.4408041}, {"type": "node", "id": 2835610730, "lat": 17.4734329, "lon": 78.4258386, "tags": {"amenity": "bus_station", "bus": "yes", "name": "TSRTC BUS DEPOT, KUKATPALLY", "public_transport": "station"}}, {"type": "node", "id": 2921494804, "lat": 17.5330679, "lon": 78.5154568, "tags": {"internet_access": "no", "name": "Bolarum", "name:te": "\u0c2c\u0c4a\u0c32\u0c4d\u0c32\u0c3e\u0c30\u0c02", "network": "IR", "operator": "SCR", "public_transport": "station", "railway": "station", "ref": "BMO", "train": "yes", "wikidata": "Q4938946", "wikipedia": "en:Bolarum railway station"}}, {"type": "node", "id": 3250029208, "lat": 17.4017397, "lon": 78.5687256, "tags": {"amenity": "bus_station", "name": "Uppal"}}, {"type": "node", "id": 3272863814, "lat": 17.45498, "lon": 78.4478717, "tags": {"addr:city": "Hyderabad", "addr:postcode": "500018", "addr:street": "Sanath Nagar Main Road", "amenity": "bus_station", "bus": "yes", "internet_access": "no", "name": "Sanath Nagar Bus Depot", "operator": "Government", "public_transport": "station"}}, {"type": "node", "id": 3387336294, "lat": 17.4724638, "lon": 78.5698849}, {"type": "node", "id": 3387336295, "lat": 17.4723094, "lon": 78.5699568}, {"type": "node", "id": 3387336296, "lat": 17.472449, "lon": 78.5703308}, {"type": "node", "id": 3387336297, "lat": 17.4726838, "lon": 78.5702068}, {"type": "node", "id": 3467755736, "lat": 17.4129558, "lon": 78.461014}, {"type": "node", "id": 3467755739, "lat": 17.4135799, "lon": 78.4608525}, {"type": "node", "id": 3469951117, "lat": 17.4973846, "lon": 78.2972273}, {"type": "node", "id": 3469951118, "lat": 17.4973846, "lon": 78.29756}, {"type": "node", "id": 3469951119, "lat": 17.4964969, "lon": 78.2975848}, {"type": "node", "id": 3469951120, "lat": 17.4959973, "lon": 78.2976131}, {"type": "node", "id": 3469951121, "lat": 17.4959905, "lon": 78.2972132}, {"type": "node", "id": 3469951122, "lat": 17.4973846, "lon": 78.2971813}, {"type": "node", "id": 3616831512, "lat": 17.4667174, "lon": 78.3299149}, {"type": "node", "id": 3616831514, "lat": 17.4667991, "lon": 78.3296747}, {"type": "node", "id": 3616831515, "lat": 17.4668396, "lon": 78.3296103}, {"type": "node", "id": 3616831516, "lat": 17.4669569, "lon": 78.3300801}, {"type": "node", "id": 3616831518, "lat": 17.4671359, "lon": 78.3299008}, {"type": "node", "id": 3616831519, "lat": 17.4671736, "lon": 78.3298408}, {"type": "node", "id": 3617324831, "lat": 17.4353925, "lon": 78.4767764}, {"type": "node", "id": 3617324832, "lat": 17.4354154, "lon": 78.4766224}, {"type": "node", "id": 3617324835, "lat": 17.4354765, "lon": 78.4768297}, {"type": "node", "id": 3617324839, "lat": 17.4355114, "lon": 78.4766381}, {"type": "node", "id": 3617324842, "lat": 17.4355298, "lon": 78.4765141}, {"type": "node", "id": 3617324850, "lat": 17.4355864, "lon": 78.4768476}, {"type": "node", "id": 3617324856, "lat": 17.4356334, "lon": 78.476531}, {"type": "node", "id": 3624506988, "lat": 17.4334975, "lon": 78.5010492}, {"type": "node", "id": 3624506992, "lat": 17.4336392, "lon": 78.5010082}, {"type": "node", "id": 3991742176, "lat": 17.4171678, "lon": 78.4817732, "tags": {"amenity": "bus_station", "fixme": "precise tag", "name": "Bus stop"}}, {"type": "node", "id": 3991742958, "lat": 17.3348929, "lon": 78.4086902, "tags": {"amenity": "bus_station", "name": "TSRTC BUS DEPOT , RAJENDRA NAGAR"}}, {"type": "node", "id": 4009272076, "lat": 17.4948762, "lon": 78.4002511, "tags": {"amenity": "bus_station"}}, {"type": "node", "id": 4229215991, "lat": 17.3955153, "lon": 78.4320489, "tags": {"addr:housenumber": "194", "addr:postcode": "500042", "addr:street": "old mumbai road", "amenity": "bus_station", "email": "babjeepedapati@gmail.com", "name": "mahedipatnam", "name:en": "Telecom colony, Gachi bowli", "operator": "airtel", "phone": "8500454701", "website": "http://babjeepedapati@gmail.com"}}, {"type": "node", "id": 4332315990, "lat": 17.349846, "lon": 78.5479412, "tags": {"name": "L. B. Nagar", "name:ml": "\u0d0e\u0d7d \u0d2c\u0d3f \u0d28\u0d17\u0d7c", "name:te": "\u0c0e\u0c32\u0c4d.\u0c2c\u0c3f. \u0c28\u0c17\u0c30\u0c4d", "network": "Hyderabad Metro", "note": "Contributors are requested to not edit the \"network\" and the \"operator\" tags. (2023/11/08)", "operator": "Hyderabad Metro Rail Limited", "public_transport": "stop_position", "railway": "station", "station": "subway", "subway": "yes", "wheelchair": "yes"}}, {"type": "node", "id": 4343036182, "lat": 17.4965552, "lon": 78.3730251, "tags": {"name": "Miyapur", "name:ml": "\u0d2e\u0d3f\u0d2f\u0d3e\u0d2a\u0d42\u0d7c", "name:te": "\u0c2e\u0c3f\u0c2f\u0c3e\u0c2a\u0c42\u0c30\u0c4d", "network": "Hyderabad Metro", "note": "Contributors are requested to not edit the \"network\" and the \"operator\" tags. (2023/11/08)", "operator": "Hyderabad Metro Rail Limited", "public_transport": "stop_position", "railway": "station", "station": "subway", "subway": "yes", "wheelchair": "yes"}}, {"type": "node", "id": 4343145632, "lat": 17.4986724, "lon": 78.3888678, "tags": {"name": "JNTU College", "name:ml": "\u0d1c\u0d46 \u0d0e\u0d7b \u0d1f\u0d3f \u0d2f\u0d41 \u0d15\u0d4b\u0d33\u0d47\u0d1c\u0d4d", "name:te": "\u0c1c\u0c46.\u0c0e\u0c28\u0c4d.\u0c1f\u0c3f.\u0c2f\u0c42 \u0c15\u0c3e\u0c32\u0c47\u0c1c\u0c3f", "network": "Hyderabad Metro", "note": "Contributors are requested to not edit the \"network\" and the \"operator\" tags. (2023/11/08)", "operator": "Hyderabad Metro Rail Limited", "public_transport": "stop_position", "railway": "station", "station": "subway", "subway": "yes"}}, {"type": "node", "id": 4407581196, "lat": 17.42008, "lon": 78.4308367, "tags": {"amenity": "bus_station", "name": "Nandi Nagar bus stand", "name:en": "Nandi Nagar bus stand"}}, {"type": "node", "id": 4418619607, "lat": 17.3844309, "lon": 78.4844291, "tags": {"amenity": "bus_station", "name": "Koti Bus Station", "name:en": "Koti Bus Station", "name:te": "\u0c15\u0c4b\u0c1f\u0c3f \u0c2c\u0c38\u0c4d \u0c38\u0c4d\u0c1f\u0c47\u0c37\u0c28\u0c4d"}}, {"type": "node", "id": 4575200604, "lat": 17.3448457, "lon": 78.5536399, "tags": {"amenity": "bus_station", "name": "T.S.R.T.C District Bus", "name:en": "T.S.R.T.C District Bus"}}, {"type": "node", "id": 4867334021, "lat": 17.3324953, "lon": 78.5303283, "tags": {"amenity": "bus_station", "name": "Emlibun", "name:hi": "Emlibun"}}, {"type": "node", "id": 4873113023, "lat": 17.3446573, "lon": 78.5539183, "tags": {"amenity": "bus_station", "name": "A.P.R.T.C BUS STOP", "name:en": "A.P.R.T.C BUS STOP"}}, {"type": "node", "id": 4914586455, "lat": 17.4341367, "lon": 78.5028524}, {"type": "node", "id": 4914586456, "lat": 17.4336975, "lon": 78.5012389}, {"type": "node", "id": 4914586457, "lat": 17.4337186, "lon": 78.5013202}, {"type": "node", "id": 4914586458, "lat": 17.4338021, "lon": 78.5016411}, {"type": "node", "id": 4914586459, "lat": 17.4337676, "lon": 78.5015143}, {"type": "node", "id": 4914586460, "lat": 17.4338472, "lon": 78.5018195}, {"type": "node", "id": 4914586461, "lat": 17.4339505, "lon": 78.5029034}, {"type": "node", "id": 4914586464, "lat": 17.4338738, "lon": 78.5018122}, {"type": "node", "id": 4914586465, "lat": 17.4337386, "lon": 78.5013147}, {"type": "node", "id": 4914586466, "lat": 17.433718, "lon": 78.5012332}, {"type": "node", "id": 4914586467, "lat": 17.4338377, "lon": 78.5014949}, {"type": "node", "id": 4914586468, "lat": 17.4338699, "lon": 78.5016223}, {"type": "node", "id": 5186129525, "lat": 17.4622355, "lon": 78.4366978, "tags": {"internet_access": "no", "name": "Sanat Nagar", "network": "IR", "operator": "SCR", "platforms": "2", "public_transport": "station", "railway": "station", "ref": "SNF", "train": "yes", "wikidata": "Q63369718"}}, {"type": "node", "id": 5190765165, "lat": 17.4767199, "lon": 78.4786271}, {"type": "node", "id": 5190765166, "lat": 17.4766993, "lon": 78.4791201}, {"type": "node", "id": 5190765167, "lat": 17.4764025, "lon": 78.4790615}, {"type": "node", "id": 5190765168, "lat": 17.4764495, "lon": 78.4788736}, {"type": "node", "id": 5190765169, "lat": 17.476523, "lon": 78.4787319}, {"type": "node", "id": 5190765170, "lat": 17.4765612, "lon": 78.4785901}, {"type": "node", "id": 5190765171, "lat": 17.4755562, "lon": 78.4856905}, {"type": "node", "id": 5190765172, "lat": 17.4755345, "lon": 78.4857455}, {"type": "node", "id": 5190765173, "lat": 17.4752962, "lon": 78.4856528}, {"type": "node", "id": 5190765174, "lat": 17.4753212, "lon": 78.4856035}, {"type": "node", "id": 5551948741, "lat": 17.4718855, "lon": 78.4261182, "tags": {"name": "Moosapet", "name:ml": "\u0d2e\u0d42\u0d38\u0d3e\u0d2a\u0d4d\u0d2a\u0d47\u0d1f\u0d4d\u0d1f\u0d4d", "name:te": "\u0c2e\u0c42\u0c38\u0c3e\u0c2a\u0c47\u0c1f\u0c4d", "network": "Hyderabad Metro", "note": "Contributors are requested to not edit the \"network\" and the \"operator\" tags. (2023/11/08)", "operator": "Hyderabad Metro Rail Limited", "public_transport": "stop_position", "railway": "station", "station": "subway", "subway": "yes"}}, {"type": "node", "id": 5598599761, "lat": 17.3948107, "lon": 78.4406921}, {"type": "node", "id": 5625645285, "lat": 17.4469468, "lon": 78.4385875, "tags": {"name": "Esi hospital metro station", "opening_hours": "Mo-Su 06:00-22:00", "public_transport": "station"}}, {"type": "node", "id": 5961188254, "lat": 17.4116323, "lon": 78.4608678, "tags": {"name": "Khairatabad", "name:ml": "\u0d16\u0d48\u0d30\u0d24\u0d3e\u0d2c\u0d3e\u0d26\u0d4d", "name:te": "\u0c16\u0c48\u0c30\u0c24\u0c3e\u0c2c\u0c3e\u0c26\u0c4d", "network": "Hyderabad Metro", "note": "Contributors are requested to not edit the \"network\" and the \"operator\" tags. (2023/11/08)", "operator": "Hyderabad Metro Rail Limited", "public_transport": "stop_position", "railway": "station", "station": "subway", "subway": "yes"}}, {"type": "node", "id": 5968369025, "lat": 17.4040433, "lon": 78.4649442, "tags": {"name": "Lakdi-ka-pul", "name:ml": "\u0d32\u0d15\u0d4d\u0d21\u0d3f-\u0d15\u0d3e-\u0d2a\u0d41\u0d7d", "name:te": "\u0c32\u0c15\u0c4d\u0c21\u0c3f-\u0c15\u0c3e-\u0c2a\u0c41\u0c32\u0c4d", "network": "Hyderabad Metro", "note": "Contributors are requested to not edit the \"network\" and the \"operator\" tags. (2023/11/08)", "operator": "Hyderabad Metro Rail Limited", "public_transport": "stop_position", "railway": "station", "station": "subway", "subway": "yes", "wheelchair": "yes"}}, {"type": "node", "id": 6154498147, "lat": 17.3950598, "lon": 78.4407567}, {"type": "node", "id": 6154498148, "lat": 17.3949754, "lon": 78.4405868}, {"type": "node", "id": 6154498149, "lat": 17.3948521, "lon": 78.4403621}, {"type": "node", "id": 6154498150, "lat": 17.3947541, "lon": 78.4401551}, {"type": "node", "id": 6154498151, "lat": 17.3946646, "lon": 78.439833}, {"type": "node", "id": 6154498152, "lat": 17.394516, "lon": 78.440309}, {"type": "node", "id": 6154498321, "lat": 17.3944426, "lon": 78.4406085}, {"type": "node", "id": 6162823090, "lat": 17.4139112, "lon": 78.4646316, "tags": {"amenity": "ferry_terminal", "ferry": "yes", "name": "Boating", "public_transport": "station"}}, {"type": "node", "id": 6369797515, "lat": 17.3902922, "lon": 78.5164631}, {"type": "node", "id": 6369797516, "lat": 17.3902935, "lon": 78.5164993}, {"type": "node", "id": 6369797517, "lat": 17.3902328, "lon": 78.5164978}, {"type": "node", "id": 6369797518, "lat": 17.3902341, "lon": 78.5164645}, {"type": "node", "id": 6371404750, "lat": 17.3597744, "lon": 78.5578073}, {"type": "node", "id": 6371404751, "lat": 17.3597297, "lon": 78.5578036}, {"type": "node", "id": 6371404752, "lat": 17.3597277, "lon": 78.557831}, {"type": "node", "id": 6371404753, "lat": 17.3597724, "lon": 78.5578347}, {"type": "node", "id": 6375001440, "lat": 17.3597568, "lon": 78.5578058}, {"type": "node", "id": 6375001441, "lat": 17.3597495, "lon": 78.5578329}, {"type": "node", "id": 6375001442, "lat": 17.3597589, "lon": 78.5578336}, {"type": "node", "id": 6375001443, "lat": 17.3597664, "lon": 78.5578066}, {"type": "node", "id": 6375006568, "lat": 17.3597503, "lon": 78.5578155, "tags": {"amenity": "bus_station", "bus": "yes", "name": "rajeevgandhi nagar", "public_transport": "stop_position"}}, {"type": "node", "id": 6375056793, "lat": 17.3600361, "lon": 78.5575549, "tags": {"amenity": "bus_station", "bus": "yes", "name": "rajeevgandhi nagar", "public_transport": "stop_position"}}, {"type": "node", "id": 6444553238, "lat": 17.4431396, "lon": 78.4407903, "tags": {"name": "S. R. Nagar", "name:ml": "\u0d0e\u0d38\u0d4d \u0d06\u0d7c \u0d28\u0d17\u0d7c", "name:te": "\u0c0e\u0c38\u0c4d.\u0c06\u0c30\u0c4d. \u0c28\u0c17\u0c30\u0c4d", "network": "Hyderabad Metro", "note": "Contributors are requested to not edit the \"network\" and the \"operator\" tags. (2023/11/08)", "operator": "Hyderabad Metro Rail Limited", "public_transport": "station", "public_transport:version": "2", "railway": "station", "station": "subway", "subway": "yes"}}, {"type": "node", "id": 6444553239, "lat": 17.4490055, "lon": 78.3831376, "tags": {"name": "HITEC City", "name:ml": "\u0d39\u0d48\u0d1f\u0d46\u0d15\u0d4d \u0d38\u0d3f\u0d31\u0d4d\u0d31\u0d3f", "name:te": "\u0c39\u0c48\u0c1f\u0c46\u0c15\u0c4d \u0c38\u0c3f\u0c1f\u0c3f", "network": "Hyderabad Metro", "note": "Contributors are requested to not edit the \"network\" and the \"operator\" tags. (2023/11/08)", "operator": "Hyderabad Metro Rail Limited", "public_transport": "station", "railway": "station", "station": "subway", "subway": "yes"}}, {"type": "node", "id": 6447168562, "lat": 17.3907683, "lon": 78.5588222, "tags": {"layer": "1", "name": "Nagole", "name:ml": "\u0d28\u0d3e\u0d17\u0d4b\u0d7d", "name:te": "\u0c28\u0c3e\u0c17\u0c4b\u0c32\u0c4d", "network": "Hyderabad Metro", "note": "Contributors are requested to not edit the \"network\" and the \"operator\" tags. (2023/11/08)", "operator": "Hyderabad Metro Rail Limited", "public_transport": "station", "railway": "station", "station": "subway", "subway": "yes", "wheelchair": "yes"}}, {"type": "node", "id": 6447191882, "lat": 17.4357214, "lon": 78.4447933, "tags": {"name": "Ameerpet (Red Line)", "name:ml": "\u0d05\u0d2e\u0d40\u0d7c\u0d2a\u0d47\u0d1f\u0d4d\u0d1f\u0d4d", "name:te": "\u0c05\u0c2e\u0c40\u0c30\u0c4d\u200c\u0c2a\u0c47\u0c1f\u0c4d", "network": "Hyderabad Metro", "note": "Contributors are requested to not edit the \"network\" and the \"operator\" tags. (2023/11/08)", "operator": "Hyderabad Metro Rail Limited", "public_transport": "station", "public_transport:version": "2", "railway": "station", "station": "subway", "subway": "yes"}}, {"type": "node", "id": 6451675812, "lat": 17.4429466, "lon": 78.3875721, "tags": {"internet_access": "no", "name": "Durgam Cheruvu", "name:ml": "\u0d26\u0d41\u0d7c\u0d17\u0d4d\u0d17\u0d02 \u0d1a\u0d46\u0d30\u0d41\u0d35\u0d4d", "name:te": "\u0c26\u0c41\u0c30\u0c4d\u0c17\u0c02 \u0c1a\u0c46\u0c30\u0c41\u0c35\u0c41", "network": "Hyderabad Metro", "note": "Contributors are requested to not edit the \"network\" and the \"operator\" tags. (2023/11/08)", "operator": "Hyderabad Metro Rail Limited", "public_transport": "station", "railway": "station", "station": "subway", "subway": "yes", "website": "https://hmrl.co.in", "wheelchair": "yes"}}, {"type": "node", "id": 6594596014, "lat": 17.4749602, "lon": 78.2849764, "tags": {"internet_access": "no", "name": "Telapur", "network": "IR", "operator": "SCR", "public_transport": "station", "railway": "station", "ref": "TLPR", "train": "yes", "wikidata": "Q87776840"}}, {"type": "node", "id": 6598047610, "lat": 17.5102204, "lon": 78.2824464, "tags": {"internet_access": "no", "name": "Ramachandrapuram TS", "network": "IR", "operator": "SCR", "public_transport": "station", "railway": "station", "ref": "RCPT", "train": "yes", "wikidata": "Q105395406"}}, {"type": "node", "id": 6672440858, "lat": 17.4351132, "lon": 78.4273216, "tags": {"name": "Yusufguda", "name:ml": "\u0d2f\u0d42\u0d38\u0d41\u0d2b\u0d4d\u0d17\u0d41\u0d21", "name:te": "\u0c2f\u0c42\u0c38\u0c41\u0c2b\u0c4d\u200c\u0c17\u0c42\u0c21", "network": "Hyderabad Metro", "note": "Contributors are requested to not edit the \"network\" and the \"operator\" tags. (2023/11/08)", "operator": "Hyderabad Metro Rail Limited", "public_transport": "station", "railway": "station", "station": "subway", "subway": "yes"}}, {"type": "node", "id": 6685486347, "lat": 17.4346769, "lon": 78.5047567, "tags": {"addr:city": "Secunderabad", "addr:postcode": "509001", "amenity": "bus_station", "bus": "yes", "name": "TSRTC BUS STAND , RATHIFILE ( SECUNDRABAD )", "network": "Secunderabad Railway Station", "operator": "TSRTC", "public_transport": "station"}}, {"type": "node", "id": 6700511122, "lat": 17.4352864, "lon": 78.4447834, "tags": {"name": "Ameerpet (Blue Line)", "name:ml": "\u0d05\u0d2e\u0d40\u0d7c\u0d2a\u0d47\u0d1f\u0d4d\u0d1f\u0d4d", "name:te": "\u0c05\u0c2e\u0c40\u0c30\u0c4d\u200c\u0c2a\u0c47\u0c1f\u0c4d", "network": "Hyderabad Metro", "note": "Contributors are requested to not edit the \"network\" and the \"operator\" tags. (2023/11/08)", "operator": "Hyderabad Metro Rail Limited", "public_transport": "station", "public_transport:version": "2", "railway": "station", "station": "subway", "subway": "yes"}}, {"type": "node", "id": 6777782858, "lat": 17.4281969, "lon": 78.4137145, "tags": {"layer": "1", "lit": "yes", "name": "Jubilee Hills Checkpost", "name:ml": "\u0d1c\u0d42\u0d2c\u0d3f\u0d32\u0d3f \u0d39\u0d3f\u0d7d\u0d38\u0d4d \u0d1a\u0d46\u0d15\u0d4d\u0d15\u0d4d\u0d2a\u0d4b\u0d38\u0d4d\u0d31\u0d4d\u0d31\u0d4d", "name:te": "\u0c1c\u0c42\u0c2c\u0c4d\u0c32\u0c40 \u0c39\u0c3f\u0c32\u0c4d\u0c38\u0c4d \u0c1a\u0c46\u0c15\u0c4d\u200c\u0c2a\u0c4b\u0c38\u0c4d\u0c1f\u0c4d", "network": "Hyderabad Metro", "note": "Contributors are requested to not edit the \"network\" and the \"operator\" tags. (2023/11/08)", "operator": "Hyderabad Metro Rail Limited", "platforms": "2", "public_transport": "station", "public_transport:version": "2", "railway": "station", "shelter": "yes", "station": "subway", "subway": "yes", "wheelchair": "yes"}}, {"type": "node", "id": 6898477086, "lat": 17.3689527, "lon": 78.5250597, "tags": {"amenity": "bus_station", "bus": "yes", "name": "TSRTC BUS STAND , DILSHUKNAGAR", "operator": "TSRTC", "public_transport": "station", "source": "local knowledge", "wheelchair": "no"}}, {"type": "node", "id": 7008107698, "lat": 17.4799497, "lon": 78.5568336, "tags": {"bus": "yes", "highway": "bus_stop", "name": "A.S. Rao Nagar", "public_transport": "station"}}, {"type": "node", "id": 7008107699, "lat": 17.4775467, "lon": 78.5624222, "tags": {"bench": "yes", "bus": "yes", "highway": "bus_stop", "name": "Radhika Busstop", "public_transport": "station", "shelter": "yes"}}, {"type": "node", "id": 7040356387, "lat": 17.493797, "lon": 78.4018279, "tags": {"name": "KPHB Colony", "name:ml": "\u0d15\u0d46 \u0d2a\u0d3f \u0d0e\u0d1a\u0d4d\u0d1a\u0d4d \u0d2c\u0d3f \u0d15\u0d4b\u0d33\u0d28\u0d3f", "name:te": "\u0c15\u0c46.\u0c2a\u0c3f.\u0c39\u0c46\u0c1a\u0c4d.\u0c2c\u0c3f \u0c15\u0c3e\u0c32\u0c28\u0c40", "network": "Hyderabad Metro", "note": "Contributors are requested to not edit the \"network\" and the \"operator\" tags. (2023/11/08)", "operator": "Hyderabad Metro Rail Limited", "public_transport": "station", "railway": "station", "station": "subway", "subway": "yes"}}, {"type": "node", "id": 7052069749, "lat": 17.4000665, "lon": 78.5601868, "tags": {"name": "Uppal", "name:ml": "\u0d09\u0d2a\u0d4d\u0d2a\u0d7d", "name:te": "\u0c09\u0c2a\u0c4d\u0c2a\u0c32\u0c4d", "network": "Hyderabad Metro", "note": "Contributors are requested to not edit the \"network\" and the \"operator\" tags. (2023/11/08)", "operator": "Hyderabad Metro Rail Limited", "public_transport": "station", "railway": "station", "ref": "OPL", "station": "subway", "subway": "yes", "wheelchair": "yes", "wikidata": "Q83407689", "wikipedia": "en:Uppal metro station"}}, {"type": "node", "id": 7052069752, "lat": 17.4074002, "lon": 78.5542531, "tags": {"name": "Stadium", "name:ml": "\u0d38\u0d4d\u0d31\u0d4d\u0d31\u0d47\u0d21\u0d3f\u0d2f\u0d02", "name:te": "\u0c38\u0c4d\u0c1f\u0c47\u0c21\u0c3f\u0c2f\u0c02", "network": "Hyderabad Metro", "note": "Contributors are requested to not edit the \"network\" and the \"operator\" tags. (2023/11/08)", "operator": "Hyderabad Metro Rail Limited", "public_transport": "station", "railway": "station", "station": "subway", "subway": "yes", "wheelchair": "yes"}}, {"type": "node", "id": 7052069753, "lat": 17.4148264, "lon": 78.5463345, "tags": {"name": "NGRI", "name:te": "\u0c0e\u0c28\u0c4d.\u0c1c\u0c3f.\u0c06\u0c30\u0c4d.\u0c10", "network": "Hyderabad Metro", "note": "Contributors are requested to not edit the \"network\" and the \"operator\" tags. (2023/11/08)", "operator": "Hyderabad Metro Rail Limited", "public_transport": "station", "railway": "station", "station": "subway", "subway": "yes"}}, {"type": "node", "id": 7052069754, "lat": 17.42018, "lon": 78.540548, "tags": {"name": "Habsiguda", "name:ml": "\u0d39\u0d2c\u0d4d\u0d38\u0d3f\u0d17\u0d41\u0d21", "name:te": "\u0c39\u0c2c\u0c4d\u0c38\u0c40\u0c17\u0c42\u0c21", "network": "Hyderabad Metro", "note": "Contributors are requested to not edit the \"network\" and the \"operator\" tags. (2023/11/08)", "operator": "Hyderabad Metro Rail Limited", "public_transport": "station", "railway": "station", "station": "subway", "subway": "yes"}}, {"type": "node", "id": 7052069755, "lat": 17.4274418, "lon": 78.5300079, "tags": {"name": "Tarnaka", "name:ml": "\u0d24\u0d7c\u0d23\u0d3e\u0d15", "name:te": "\u0c24\u0c3e\u0c30\u0c4d\u0c28\u0c3e\u0c15", "network": "Hyderabad Metro", "note": "Contributors are requested to not edit the \"network\" and the \"operator\" tags. (2023/11/08)", "operator": "Hyderabad Metro Rail Limited", "public_transport": "station", "railway": "station", "station": "subway", "subway": "yes"}}, {"type": "node", "id": 7052069756, "lat": 17.4355207, "lon": 78.5195754, "tags": {"name": "Mettuguda", "name:ml": "\u0d2e\u0d47\u0d1f\u0d4d\u0d1f\u0d41\u0d17\u0d41\u0d21", "name:te": "\u0c2e\u0c46\u0c1f\u0c4d\u0c1f\u0c41\u0c17\u0c42\u0c21", "network": "Hyderabad Metro", "note": "Contributors are requested to not edit the \"network\" and the \"operator\" tags. (2023/11/08)", "operator": "Hyderabad Metro Rail Limited", "public_transport": "station", "railway": "station", "station": "subway", "subway": "yes", "wheelchair": "yes"}}, {"type": "node", "id": 7052069757, "lat": 17.4357184, "lon": 78.5054623, "tags": {"name": "Secunderabad East", "name:ml": "\u0d38\u0d46\u0d15\u0d4d\u0d15\u0d28\u0d4d\u0d26\u0d4d\u0d30\u0d3e\u0d2c\u0d3e\u0d26\u0d4d \u0d08\u0d38\u0d4d\u0d31\u0d4d\u0d31\u0d4d", "name:te": "\u0c38\u0c3f\u0c15\u0c3f\u0c02\u0c26\u0c4d\u0c30\u0c3e\u0c2c\u0c3e\u0c26\u0c4d \u0c24\u0c42\u0c30\u0c4d\u0c2a\u0c41", "network": "Hyderabad Metro", "note": "Contributors are requested to not edit the \"network\" and the \"operator\" tags. (2023/11/08)", "operator": "Hyderabad Metro Rail Limited", "public_transport": "station", "railway": "station", "station": "subway", "subway": "yes"}}, {"type": "node", "id": 7052069758, "lat": 17.4431943, "lon": 78.4974687, "tags": {"name": "Parade Grounds (Blue Line)", "name:ml": "\u0d2a\u0d30\u0d47\u0d21\u0d4d \u0d17\u0d4d\u0d30\u0d57\u0d23\u0d4d\u0d1f\u0d4d\u0d38\u0d4d", "name:te": "\u0c2a\u0c46\u0c30\u0c47\u0c21\u0c4d \u0c17\u0c4d\u0c30\u0c4c\u0c02\u0c21\u0c4d\u0c38\u0c4d", "network": "Hyderabad Metro", "note": "Contributors are requested to not edit the \"network\" and the \"operator\" tags. (2023/11/08)", "operator": "Hyderabad Metro Rail Limited", "public_transport": "station", "railway": "station", "station": "subway", "subway": "yes"}}, {"type": "node", "id": 7052069759, "lat": 17.4434668, "lon": 78.4862436, "tags": {"name": "Paradise", "name:ml": "\u0d2a\u0d3e\u0d30\u0d21\u0d48\u0d38\u0d4d", "name:te": "\u0c2a\u0c4d\u0c2f\u0c3e\u0c30\u0c21\u0c48\u0c1c\u0c4d", "network": "Hyderabad Metro", "note": "Contributors are requested to not edit the \"network\" and the \"operator\" tags. (2023/11/08)", "operator": "Hyderabad Metro Rail Limited", "public_transport": "station", "railway": "station", "station": "subway", "subway": "yes"}}, {"type": "node", "id": 7052069760, "lat": 17.443612, "lon": 78.4764053, "tags": {"name": "Rasoolpura", "name:ml": "\u0d31\u0d38\u0d42\u0d7d\u0d2a\u0d41\u0d30", "name:te": "\u0c30\u0c38\u0c42\u0c32\u0c4d\u200c\u0c2a\u0c41\u0c30", "network": "Hyderabad Metro", "note": "Contributors are requested to not edit the \"network\" and the \"operator\" tags. (2023/11/08)", "operator": "Hyderabad Metro Rail Limited", "railway": "station", "station": "subway", "subway": "yes"}}, {"type": "node", "id": 7052069766, "lat": 17.4448889, "lon": 78.4658749, "tags": {"name": "Prakash Nagar", "name:ml": "\u0d2a\u0d4d\u0d30\u0d15\u0d3e\u0d36\u0d4d \u0d28\u0d17\u0d7c", "name:te": "\u0c2a\u0c4d\u0c30\u0c15\u0c3e\u0c36\u0c4d\u200c\u0c28\u0c17\u0c30\u0c4d", "network": "Hyderabad Metro", "note": "Contributors are requested to not edit the \"network\" and the \"operator\" tags. (2023/11/08)", "operator": "Hyderabad Metro Rail Limited", "public_transport": "station", "railway": "station", "station": "subway", "subway": "yes"}}, {"type": "node", "id": 7052069770, "lat": 17.4369652, "lon": 78.4390993, "tags": {"alt_name": "Taruni Madhura Nagar", "name": "Madhura Nagar", "name:ml": "\u0d2e\u0d27\u0d41\u0d30 \u0d28\u0d17\u0d7c", "name:te": "\u0c2e\u0c27\u0c41\u0c30 \u0c28\u0c17\u0c30\u0c4d", "network": "Hyderabad Metro", "note": "Contributors are requested to not edit the \"network\" and the \"operator\" tags. (2023/11/08)", "operator": "Hyderabad Metro Rail Limited", "public_transport": "station", "railway": "station", "station": "subway", "subway": "yes"}}, {"type": "node", "id": 7052069772, "lat": 17.4300489, "lon": 78.4232069, "tags": {"name": "Road No 5 Jubilee Hills", "name:ml": "\u0d31\u0d4b\u0d21\u0d4d \u0d28\u0d2e\u0d4d\u0d2a\u0d7c 5 \u0d1c\u0d42\u0d2c\u0d3f\u0d32\u0d3f \u0d39\u0d3f\u0d7d\u0d38\u0d4d", "name:te": "\u0c30\u0c4b\u0c21\u0c4d \u0c28\u0c02 5 \u0c1c\u0c42\u0c2c\u0c3f\u0c32\u0c40 \u0c39\u0c3f\u0c32\u0c4d\u0c38\u0c4d", "network": "Hyderabad Metro", "note": "Contributors are requested to not edit the \"network\" and the \"operator\" tags. (2023/11/08)", "operator": "Hyderabad Metro Rail Limited", "railway": "station", "station": "subway", "subway": "yes"}}, {"type": "node", "id": 7052069774, "lat": 17.4306512, "lon": 78.4083721, "tags": {"name": "Peddamma Gudi", "name:ml": "\u0d2a\u0d46\u0d26\u0d4d\u0d26\u0d2e\u0d4d\u0d2e \u0d17\u0d41\u0d21\u0d3f", "name:te": "\u0c2a\u0c46\u0c26\u0c4d\u0c26\u0c2e\u0c4d\u0c2e \u0c17\u0c41\u0c21\u0c3f", "network": "Hyderabad Metro", "note": "Contributors are requested to not edit the \"network\" and the \"operator\" tags. (2023/11/08)", "operator": "Hyderabad Metro Rail Limited", "railway": "station", "station": "subway", "subway": "yes"}}, {"type": "node", "id": 7052069775, "lat": 17.44218, "lon": 78.3771819, "tags": {"name": "Raidurg", "name:ml": "\u0d31\u0d3e\u0d2f\u0d4d\u0d26\u0d41\u0d7c\u0d17\u0d4d", "name:te": "\u0c30\u0c3e\u0c2f\u0c26\u0c41\u0c30\u0c4d\u0c17\u0c4d", "network": "Hyderabad Metro", "note": "Contributors are requested to not edit the \"network\" and the \"operator\" tags. (2023/11/08)", "operator": "Hyderabad Metro Rail Limited", "railway": "station", "station": "subway", "subway": "yes"}}, {"type": "node", "id": 7180083268, "lat": 17.4368702, "lon": 78.4234752}, {"type": "node", "id": 7180083269, "lat": 17.4367873, "lon": 78.4236925}, {"type": "node", "id": 7180083270, "lat": 17.4368426, "lon": 78.4237142}, {"type": "node", "id": 7180083271, "lat": 17.4369232, "lon": 78.4235307}, {"type": "node", "id": 7195061310, "lat": 17.4444775, "lon": 78.497584, "tags": {"name": "Parade Grounds (Green Line)", "name:ml": "\u0d2a\u0d30\u0d47\u0d21\u0d4d \u0d17\u0d4d\u0d30\u0d57\u0d23\u0d4d\u0d1f\u0d4d\u0d38\u0d4d", "name:te": "\u0c2a\u0c46\u0c30\u0c47\u0c21\u0c4d \u0c17\u0c4d\u0c30\u0c4c\u0c02\u0c21\u0c4d\u0c38\u0c4d", "network": "Hyderabad Metro", "note": "Contributors are requested to not edit the \"network\" and the \"operator\" tags. (2023/11/08)", "operator": "Hyderabad Metro Rail Limited", "public_transport": "station", "railway": "station", "station": "subway", "subway": "yes"}}, {"type": "node", "id": 7201054971, "lat": 17.4487527, "lon": 78.496483, "tags": {"alt_name": "Jubilee Bus Station", "name": "JBS", "network": "Hyderabad Metro", "note": "Contributors are requested to not edit the \"network\" and the \"operator\" tags. (2023/11/08)", "operator": "Hyderabad Metro Rail Limited", "public_transport": "station", "railway": "station", "station": "subway", "subway": "yes"}}, {"type": "node", "id": 7206794919, "lat": 17.4070321, "lon": 78.4968023, "tags": {"name": "RTC Cross Roads", "name:ml": "\u0d06\u0d7c \u0d1f\u0d3f \u0d38\u0d3f \u0d15\u0d4d\u0d30\u0d4b\u0d38\u0d4d \u0d31\u0d4b\u0d21\u0d4d\u0d38\u0d4d", "name:te": "\u0c06\u0c30\u0c4d \u0c1f\u0c40 \u0c38\u0c3f \u0c15\u0c4d\u0c30\u0c3e\u0c38\u0c4d \u0c30\u0c4b\u0c21\u0c4d\u0c38\u0c4d", "network": "Hyderabad Metro", "note": "Contributors are requested to not edit the \"network\" and the \"operator\" tags. (2023/11/08)", "operator": "Hyderabad Metro Rail Limited", "public_transport": "station", "railway": "station", "station": "subway", "subway": "yes"}}, {"type": "node", "id": 7208768626, "lat": 17.3798572, "lon": 78.4862022, "tags": {"alt_name": "M. G. Bus Station (Red Line)", "name": "Mahatma Gandhi Bus Station (Red Line)", "name:ml": "\u0d2e\u0d39\u0d3e\u0d24\u0d4d\u0d2e\u0d3e\u0d17\u0d3e\u0d28\u0d4d\u0d27\u0d3f \u0d2c\u0d38\u0d4d \u0d38\u0d4d\u0d31\u0d4d\u0d31\u0d47\u0d37\u0d7b", "name:te": "\u0c0e\u0c02.\u0c1c\u0c3f. \u0c2c\u0c38\u0c4d. \u0c38\u0c4d\u0c1f\u0c47\u0c37\u0c28\u0c4d", "name:ur": "\u0645\u06c1\u0627\u062a\u0645\u0627 \u06af\u0627\u0646\u062f\u06be\u06cc \u0628\u0633 \u0627\u0633\u0679\u06cc\u0634\u0646 (\u0631\u06cc\u0688 \u0644\u0627\u0626\u0646)", "network": "Hyderabad Metro", "note": "Contributors are requested to not edit the \"network\" and the \"operator\" tags. (2023/11/08)", "operator": "Hyderabad Metro Rail Limited", "public_transport": "station", "railway": "station", "station": "subway", "subway": "yes"}}, {"type": "node", "id": 7208768627, "lat": 17.3796948, "lon": 78.4858635, "tags": {"alt_name": "M. G. Bus Station (Green Line)", "name": "Mahatma Gandhi Bus Station (Green Line)", "name:ml": "\u0d2e\u0d39\u0d3e\u0d24\u0d4d\u0d2e\u0d3e\u0d17\u0d3e\u0d28\u0d4d\u0d27\u0d3f \u0d2c\u0d38\u0d4d \u0d38\u0d4d\u0d31\u0d4d\u0d31\u0d47\u0d37\u0d7b", "name:te": "\u0c0e\u0c02.\u0c1c\u0c3f. \u0c2c\u0c38\u0c4d. \u0c38\u0c4d\u0c1f\u0c47\u0c37\u0c28\u0c4d", "name:ur": "\u0645\u06c1\u0627\u062a\u0645\u0627 \u06af\u0627\u0646\u062f\u06be\u06cc \u0628\u0633 \u0627\u0633\u0679\u06cc\u0634\u0646 (\u06af\u0631\u06cc\u0646 \u0644\u0627\u0626\u0646", "network": "Hyderabad Metro", "note": "Contributors are requested to not edit the \"network\" and the \"operator\" tags. (2023/11/08)", "operator": "Hyderabad Metro Rail Limited", "public_transport": "station", "railway": "station", "station": "subway", "subway": "yes"}}, {"type": "node", "id": 7208768628, "lat": 17.3771888, "lon": 78.4939356, "tags": {"addr:city": "Hyderabad", "addr:city:ar": "\u062d\u064a\u062f\u0631 \u0622\u0628\u0627\u062f", "addr:city:ur": "\u062d\u06cc\u062f\u0631\u0622\u0628\u0627\u062f", "addr:place": "Malakpet", "addr:place:ar": "\u0645\u0627\u0644\u0643 \u0628\u064a\u062a", "addr:place:ur": "\u0645\u0627\u0644\u06a9 \u067e\u06cc\u0679", "alt_name:ur": "\u0645\u0644\u06a9 \u067e\u06cc\u0679", "name": "Malakpet", "name:ar": "\u0645\u0627\u0644\u0643 \u0628\u064a\u062a", "name:ml": "\u0d2e\u0d32\u0d15\u0d4d\u0d2a\u0d47\u0d1f\u0d4d\u0d1f\u0d4d", "name:te": "\u0c2e\u0c32\u0c15\u0c4d\u200c\u0c2a\u0c47\u0c1f\u0c4d", "name:ur": "\u0645\u0627\u0644\u06a9 \u067e\u06cc\u0679", "network": "Hyderabad Metro", "note": "Contributors are requested to not edit the \"network\" and the \"operator\" tags. (2023/11/08)", "operator": "Hyderabad Metro Rail Limited", "public_transport": "station", "railway": "station", "station": "subway", "subway": "yes", "wheelchair": "yes"}}, {"type": "node", "id": 7246496329, "lat": 17.3547096, "lon": 78.3789624}, {"type": "node", "id": 7246496330, "lat": 17.3546943, "lon": 78.3789695}, {"type": "node", "id": 7246496331, "lat": 17.3547324, "lon": 78.3790119}, {"type": "node", "id": 7246496332, "lat": 17.354744, "lon": 78.3790029}, {"type": "node", "id": 7246815452, "lat": 17.3710728, "lon": 78.5119483, "tags": {"name": "Musarambagh", "name:te": "\u0c2e\u0c42\u0c38\u0c30\u0c02\u0c2c\u0c3e\u0c18\u0c4d", "name:ur": "\u0645\u0648\u0633\u06cc\u0670 \u0631\u0627\u0645 \u0628\u0627\u063a", "network": "Hyderabad Metro", "note": "Contributors are requested to not edit the \"network\" and the \"operator\" tags. (2023/11/08)", "operator": "Hyderabad Metro Rail Limited", "public_transport": "station", "railway": "station", "station": "subway", "subway": "yes", "wikidata": "Q81640785"}}, {"type": "node", "id": 7263004645, "lat": 17.474892, "lon": 78.4254567}, {"type": "node", "id": 7263004646, "lat": 17.4747808, "lon": 78.4256485}, {"type": "node", "id": 7263004647, "lat": 17.4747091, "lon": 78.4255989}, {"type": "node", "id": 7263004648, "lat": 17.4748281, "lon": 78.4254071}, {"type": "node", "id": 7358663499, "lat": 17.3844473, "lon": 78.4840241, "tags": {"name": "Sultan Bazar", "name:ml": "\u0d38\u0d41\u0d7d\u0d24\u0d4d\u0d24\u0d3e\u0d7b \u0d2c\u0d38\u0d3e\u0d7c", "name:te": "\u0c38\u0c41\u0c32\u0c4d\u0c24\u0c3e\u0c28\u0c4d \u0c2c\u0c1c\u0c3e\u0c30\u0c4d", "network": "Hyderabad Metro", "note": "Contributors are requested to not edit the \"network\" and the \"operator\" tags. (2023/11/08)", "operator": "Hyderabad Metro Rail Limited", "railway": "station", "station": "subway", "subway": "yes"}}, {"type": "node", "id": 7358663501, "lat": 17.3943658, "lon": 78.4899578, "tags": {"name": "Narayanaguda", "name:ml": "\u0d28\u0d3e\u0d30\u0d3e\u0d2f\u0d23\u0d17\u0d41\u0d21", "name:te": "\u0c28\u0c3e\u0c30\u0c3e\u0c2f\u0c23\u0c17\u0c42\u0c21", "network": "Hyderabad Metro", "note": "Contributors are requested to not edit the \"network\" and the \"operator\" tags. (2023/11/08)", "operator": "Hyderabad Metro Rail Limited", "railway": "station", "station": "subway", "subway": "yes"}}, {"type": "node", "id": 7358663502, "lat": 17.4003634, "lon": 78.4948964, "tags": {"name": "Chikkadpally", "name:te": "\u0c1a\u0c3f\u0c15\u0c4d\u0c15\u0c21\u0c2a\u0c32\u0c4d\u0c32\u0c3f", "network": "Hyderabad Metro", "note": "Contributors are requested to not edit the \"network\" and the \"operator\" tags. (2023/11/08)", "operator": "Hyderabad Metro Rail Limited", "railway": "station", "station": "subway", "subway": "yes"}}, {"type": "node", "id": 7358663503, "lat": 17.4178744, "lon": 78.4995051, "tags": {"name": "Musheerabad", "name:ml": "\u0d2e\u0d41\u0d37\u0d40\u0d31\u0d3e\u0d2c\u0d3e\u0d26\u0d4d", "name:te": "\u0c2e\u0c41\u0c37\u0c40\u0c30\u0c3e\u0c2c\u0c3e\u0c26\u0c4d", "network": "Hyderabad Metro", "note": "Contributors are requested to not edit the \"network\" and the \"operator\" tags. (2023/11/08)", "operator": "Hyderabad Metro Rail Limited", "railway": "station", "station": "subway", "subway": "yes"}}, {"type": "node", "id": 7358663506, "lat": 17.4255155, "lon": 78.501956, "tags": {"name": "Gandhi Hospital", "name:ml": "\u0d17\u0d3e\u0d28\u0d4d\u0d27\u0d3f \u0d39\u0d4b\u0d38\u0d4d\u0d2a\u0d3f\u0d31\u0d4d\u0d31\u0d7d", "name:te": "\u0c17\u0c3e\u0c02\u0c27\u0c40 \u0c39\u0c3e\u0c38\u0c4d\u0c2a\u0c3f\u0c1f\u0c32\u0c4d", "network": "Hyderabad Metro", "note": "Contributors are requested to not edit the \"network\" and the \"operator\" tags. (2023/11/08)", "operator": "Hyderabad Metro Rail Limited", "railway": "station", "station": "subway", "subway": "yes"}}, {"type": "node", "id": 7358663518, "lat": 17.4338034, "lon": 78.4995181, "tags": {"name": "Secunderabad West", "name:ml": "\u0d38\u0d46\u0d15\u0d4d\u0d15\u0d28\u0d4d\u0d26\u0d4d\u0d30\u0d3e\u0d2c\u0d3e\u0d26\u0d4d \u0d35\u0d46\u0d38\u0d4d\u0d31\u0d4d\u0d31\u0d4d", "name:te": "\u0c38\u0c3f\u0c15\u0c3f\u0c02\u0c26\u0c4d\u0c30\u0c3e\u0c2c\u0c3e\u0c26\u0c4d \u0c35\u0c46\u0c38\u0c4d\u0c1f\u0c4d", "network": "Hyderabad Metro", "note": "Contributors are requested to not edit the \"network\" and the \"operator\" tags. (2023/11/08)", "operator": "Hyderabad Metro Rail Limited", "public_transport": "station", "railway": "station", "station": "subway", "subway": "yes"}}, {"type": "node", "id": 7860889433, "lat": 17.4010715, "lon": 78.5605252}, {"type": "node", "id": 7860889434, "lat": 17.4010634, "lon": 78.5605748}, {"type": "node", "id": 7860889435, "lat": 17.4009637, "lon": 78.5605571}, {"type": "node", "id": 7860889436, "lat": 17.4009718, "lon": 78.5605074}, {"type": "node", "id": 7860889437, "lat": 17.4009, "lon": 78.5604756}, {"type": "node", "id": 7860889438, "lat": 17.4008965, "lon": 78.5605269}, {"type": "node", "id": 7860889439, "lat": 17.4008116, "lon": 78.5605207}, {"type": "node", "id": 7860889440, "lat": 17.400815, "lon": 78.5604693}, {"type": "node", "id": 8140738134, "lat": 17.530815, "lon": 78.3887494, "tags": {"amenity": "bus_station", "bus": "yes", "name": "Sai Nagar Bus Stop", "public_transport": "station"}}, {"type": "node", "id": 8193358415, "lat": 17.4668473, "lon": 78.3297079}, {"type": "node", "id": 8193358416, "lat": 17.4670895, "lon": 78.3298688}, {"type": "node", "id": 8193367690, "lat": 17.4670729, "lon": 78.3309879}, {"type": "node", "id": 8193367691, "lat": 17.4676409, "lon": 78.3300705}, {"type": "node", "id": 8193367692, "lat": 17.4666793, "lon": 78.3294162}, {"type": "node", "id": 8193367693, "lat": 17.4661113, "lon": 78.3303335}, {"type": "node", "id": 8529405401, "lat": 17.4133107, "lon": 78.4607144}, {"type": "node", "id": 8529405402, "lat": 17.4128499, "lon": 78.4606921}, {"type": "node", "id": 8529405403, "lat": 17.4134315, "lon": 78.4607943}, {"type": "node", "id": 8935145540, "lat": 17.4409252, "lon": 78.5061483}, {"type": "node", "id": 8935145541, "lat": 17.4408919, "lon": 78.5063629}, {"type": "node", "id": 8935145542, "lat": 17.4408561, "lon": 78.5063575}, {"type": "node", "id": 8935145543, "lat": 17.4408817, "lon": 78.5061483}, {"type": "node", "id": 9144573053, "lat": 17.4372637, "lon": 78.4004257, "tags": {"layer": "1", "lit": "yes", "name": "Madhapur", "name:ml": "\u0d2e\u0d3e\u0d27\u0d3e\u0d2a\u0d42\u0d7c", "name:te": "\u0c2e\u0c3e\u0c27\u0c3e\u0c2a\u0c42\u0c30\u0c4d", "network": "Hyderabad Metro", "note": "Contributors are requested to not edit the \"network\" and the \"operator\" tags. (2023/11/08)", "operator": "Hyderabad Metro Rail Limited", "platforms": "2", "public_transport": "station", "public_transport:version": "2", "railway": "station", "shelter": "yes", "station": "subway", "subway": "yes", "wheelchair": "yes"}}, {"type": "node", "id": 9679094010, "lat": 17.4191988, "lon": 78.6101468, "tags": {"amenity": "bus_station", "bus": "yes", "name": "TSRTC BUS DEPOT, CHANGICHERLA", "public_transport": "station"}}, {"type": "node", "id": 9713109124, "lat": 17.4396807, "lon": 78.3323794}, {"type": "node", "id": 9713109125, "lat": 17.4395829, "lon": 78.3324538}, {"type": "node", "id": 9713109126, "lat": 17.4394572, "lon": 78.3324421}, {"type": "node", "id": 9713109127, "lat": 17.4395147, "lon": 78.3323205}, {"type": "node", "id": 9713109128, "lat": 17.4395355, "lon": 78.3323361}, {"type": "node", "id": 9713109129, "lat": 17.4394815, "lon": 78.3324393}, {"type": "node", "id": 9870003643, "lat": 17.4008142, "lon": 78.5604814}, {"type": "node", "id": 9870023319, "lat": 17.4010002, "lon": 78.5605636}, {"type": "node", "id": 9918495800, "lat": 17.5115291, "lon": 78.4248264, "tags": {"addr:city": "Hyderabad", "addr:postcode": "500055", "addr:street": "srinivas nagar", "amenity": "bus_station", "bus": "yes", "name": "Auto Stand", "public_transport": "station"}}, {"type": "node", "id": 10252989488, "lat": 17.4338591, "lon": 78.502051, "tags": {"name": "Secunderabad Junction", "network": "IR", "operator": "SCR", "railway": "station", "ref": "SC", "train": "yes", "wikidata": "Q7444810", "wikipedia": "en:Secunderabad Junction railway station"}}, {"type": "node", "id": 10279821748, "lat": 17.3685174, "lon": 78.5253913, "tags": {"name": "Dilsukh Nagar", "name:te": "\u0c26\u0c3f\u0c32\u0c4d\u200c\u0c38\u0c41\u0c16\u0c4d\u200c\u0c28\u0c17\u0c30\u0c4d", "network": "Hyderabad Metro", "note": "Contributors are requested to not edit the \"network\" and the \"operator\" tags. (2023/11/08)", "operator": "Hyderabad Metro Rail Limited", "public_transport": "station", "railway": "station", "station": "subway", "subway": "yes", "wikidata": "Q81724990"}}, {"type": "node", "id": 10279821749, "lat": 17.3734268, "lon": 78.5031775, "tags": {"alt_name": "\u0645\u062d\u0628\u0648\u0628 \u06af\u0646\u062c", "name": "New Market", "name:ml": "\u0d28\u0d4d\u0d2f\u0d42\u0d2e\u0d3e\u0d7c\u0d15\u0d4d\u0d15\u0d31\u0d4d\u0d31\u0d4d", "name:te": "\u0c15\u0c4a\u0c24\u0c4d\u0c24 \u0c2e\u0c3e\u0c30\u0c4d\u0c15\u0c46\u0c1f\u0c4d", "name:ur": "\u0646\u0626\u06cc \u0645\u0627\u0631\u06a9\u06cc\u0679", "network": "Hyderabad Metro", "note": "Contributors are requested to not edit the \"network\" and the \"operator\" tags. (2023/11/08)", "operator": "Hyderabad Metro Rail Limited", "public_transport": "station", "railway": "station", "station": "subway", "subway": "yes", "wikidata": "Q81483949"}}, {"type": "node", "id": 10806799944, "lat": 17.5092018, "lon": 78.580047}, {"type": "node", "id": 10806799945, "lat": 17.5084879, "lon": 78.5811716}, {"type": "node", "id": 10806799946, "lat": 17.5075521, "lon": 78.5812448}, {"type": "node", "id": 10806799947, "lat": 17.5074764, "lon": 78.5801823}, {"type": "node", "id": 10806799948, "lat": 17.5074941, "lon": 78.5804369}, {"type": "node", "id": 10806799950, "lat": 17.5075808, "lon": 78.58025}, {"type": "node", "id": 10817711164, "lat": 17.3710099, "lon": 78.5256043, "tags": {"amenity": "bus_station", "bus": "yes", "name": "TSRTC BUS DEPOT , DILSHUKNAGAR", "public_transport": "station"}}, {"type": "node", "id": 10818832467, "lat": 17.3902269, "lon": 78.559068}, {"type": "node", "id": 10818832468, "lat": 17.3902085, "lon": 78.5594393}, {"type": "node", "id": 10818832469, "lat": 17.3898818, "lon": 78.5594215}, {"type": "node", "id": 10818832470, "lat": 17.3899002, "lon": 78.5590503}, {"type": "node", "id": 10980317370, "lat": 17.4338521, "lon": 78.5015517}, {"type": "node", "id": 10992500524, "lat": 17.3697519, "lon": 78.5252265, "tags": {"amenity": "bus_station", "bus": "yes", "name": "TSRTC BUS DEPOT, DILSHUKNAGAR", "public_transport": "station"}}, {"type": "node", "id": 10992500525, "lat": 17.3399163, "lon": 78.5047696, "tags": {"amenity": "bus_station", "bus": "yes", "name": "TSRTC BUS DEPOT , MIDHANI", "public_transport": "station"}}, {"type": "node", "id": 10992500526, "lat": 17.3289967, "lon": 78.4700074, "tags": {"amenity": "bus_station", "bus": "yes", "name": "TSRTC BUS DEPOT , FAROOQ NAGAR", "public_transport": "station"}}, {"type": "node", "id": 10992500527, "lat": 17.3297406, "lon": 78.4702992, "tags": {"amenity": "bus_station", "bus": "yes", "name": "TSRTC BUS STAND , FALAKNUMA", "public_transport": "station"}}, {"type": "node", "id": 10992500528, "lat": 17.3370379, "lon": 78.4670365, "tags": {"amenity": "bus_station", "bus": "yes", "name": "TSRTC BUS DEPOGT, FALAKNUMA", "public_transport": "station"}}, {"type": "node", "id": 10992500529, "lat": 17.3922572, "lon": 78.4405896, "tags": {"amenity": "bus_station", "bus": "yes", "name": "TSRTC BUS DEPOT , MEHADIPATANM", "public_transport": "station"}}, {"type": "node", "id": 10992500530, "lat": 17.3921581, "lon": 78.4418493, "tags": {"amenity": "bus_station", "bus": "yes", "name": "Mehdipatnam  Bus Stop", "public_transport": "station"}}, {"type": "node", "id": 10992500539, "lat": 17.3782418, "lon": 78.4848364, "tags": {"amenity": "bus_station", "bus": "yes", "name": "TSRTC MGBS BUS STAND , HYDERABAD", "public_transport": "station"}}, {"type": "node", "id": 10992500540, "lat": 17.3777475, "lon": 78.4844892, "tags": {"amenity": "bus_station", "bus": "yes", "name": "TSRTC MGBS CENTRAL BUS STAND", "public_transport": "station"}}, {"type": "node", "id": 10992500541, "lat": 17.3921316, "lon": 78.5011455, "tags": {"amenity": "bus_station", "bus": "yes", "name": "TSRTC BUS DEPOT , BARKATPURA", "public_transport": "station"}}, {"type": "node", "id": 10992500542, "lat": 17.4063252, "lon": 78.5001204, "tags": {"amenity": "bus_station", "bus": "yes", "name": "TSRTC WORKSHOP , RTC X ROADS", "public_transport": "station"}}, {"type": "node", "id": 10992500543, "lat": 17.4081874, "lon": 78.5036561, "tags": {"amenity": "bus_station", "bus": "yes", "name": "TSRTC BUS DEPOT, MUSHEERABAD 2", "public_transport": "station"}}, {"type": "node", "id": 10992500544, "lat": 17.4077647, "lon": 78.5018495, "tags": {"amenity": "bus_station", "bus": "yes", "name": "TSRTC BUS DEPOT, HYDERABAD", "public_transport": "station"}}, {"type": "node", "id": 10992500545, "lat": 17.4324529, "lon": 78.4865033, "tags": {"amenity": "bus_station", "bus": "yes", "name": "TSRTC BUS DEPOT, RANIGUNJ", "public_transport": "station"}}, {"type": "node", "id": 10992500546, "lat": 17.4340378, "lon": 78.506033, "tags": {"amenity": "bus_station", "bus": "yes", "public_transport": "station"}}, {"type": "node", "id": 10992500547, "lat": 17.4467095, "lon": 78.4981912, "tags": {"amenity": "bus_station", "bus": "yes", "name": "TSRTC BUS DEPOT, CANTONMENT", "public_transport": "station"}}, {"type": "node", "id": 10992500548, "lat": 17.4477249, "lon": 78.4980658, "tags": {"amenity": "bus_station", "bus": "yes", "name": "TSRTC JUBLEE BUS STAND", "public_transport": "station"}}, {"type": "node", "id": 10992500549, "lat": 17.4477869, "lon": 78.4991587, "tags": {"amenity": "bus_station", "bus": "yes", "name": "TSRTC BUS DEPOT , JUBLEE BUS STAND", "public_transport": "station"}}, {"type": "node", "id": 10992500550, "lat": 17.473504, "lon": 78.4267427, "tags": {"amenity": "bus_station", "bus": "yes", "name": "TSRTC BUS STAND , KUAKTPALLY", "public_transport": "station"}}, {"type": "node", "id": 10992500561, "lat": 17.5278463, "lon": 78.4398166, "tags": {"amenity": "bus_station", "bus": "yes", "name": "TSRTC BUS DEPOT, JEEDIMETLA", "public_transport": "station"}}, {"type": "node", "id": 10992500569, "lat": 17.4043212, "lon": 78.5102865, "tags": {"amenity": "bus_station", "bus": "yes", "name": "VIDYANAGAR BUS STOP", "public_transport": "station"}}, {"type": "node", "id": 10992500570, "lat": 17.4043258, "lon": 78.5104757, "tags": {"amenity": "bus_station", "bus": "yes", "name": "VIDYANAGAR BUS STOP", "public_transport": "station"}}, {"type": "node", "id": 10992518090, "lat": 17.4257801, "lon": 78.5329322, "tags": {"amenity": "bus_station", "bus": "yes", "name": "Tarnaka Bus Stop", "public_transport": "station"}}, {"type": "node", "id": 10992518091, "lat": 17.4683892, "lon": 78.5659238, "tags": {"amenity": "bus_station", "bus": "yes", "name": "TSRTC BUS DEPOT, KUSHAIGUDA", "public_transport": "station"}}, {"type": "node", "id": 10992518092, "lat": 17.4689557, "lon": 78.5654455, "tags": {"amenity": "bus_station", "bus": "yes", "name": "Kushaiguda Bus Stop", "public_transport": "station"}}, {"type": "node", "id": 10992518093, "lat": 17.3421884, "lon": 78.5576631, "tags": {"amenity": "bus_station", "bus": "yes", "name": "L.B Nagar Bus Stop", "public_transport": "station"}}, {"type": "node", "id": 10992518094, "lat": 17.3249083, "lon": 78.5664619, "tags": {"amenity": "bus_station", "bus": "yes", "name": "TSRTC BUS STAND , N.G.O\"S COLONY", "public_transport": "station"}}, {"type": "node", "id": 10992518095, "lat": 17.4045224, "lon": 78.5895715, "tags": {"amenity": "bus_station", "bus": "yes", "name": "TSRTC BUS DEPOT, UPPAL", "public_transport": "station"}}, {"type": "node", "id": 10992518096, "lat": 17.3654488, "lon": 78.5885511, "tags": {"amenity": "bus_station", "bus": "yes", "name": "TSRTC BUS DEPOT , BANDLAGUDA", "public_transport": "station"}}, {"type": "node", "id": 10992544223, "lat": 17.3262276, "lon": 78.5934396, "tags": {"amenity": "bus_station", "bus": "yes", "name": "TSRTC BUS DEPOT , HAYATNAGR 1", "public_transport": "station"}}, {"type": "node", "id": 10992544224, "lat": 17.3250571, "lon": 78.5940827, "tags": {"amenity": "bus_station", "bus": "yes", "name": "TSRTC BUS DEPOT , HAYATNAGR 2", "public_transport": "station"}}, {"type": "node", "id": 10992584213, "lat": 17.5133615, "lon": 78.3599756, "tags": {"amenity": "bus_station", "bus": "yes", "name": "TSRTC BUS DEPOT, MIYAPUR 1", "public_transport": "station"}}, {"type": "node", "id": 10992584214, "lat": 17.5124133, "lon": 78.360276, "tags": {"amenity": "bus_station", "bus": "yes", "name": "TSRTC BUS DEPOT, MIYAPUR 2", "public_transport": "station"}}, {"type": "node", "id": 10992584226, "lat": 17.5103895, "lon": 78.3608076, "tags": {"amenity": "bus_station", "bus": "yes", "name": "APSRTC , TSRTC Bus Building Unit , MIyapur", "public_transport": "station"}}, {"type": "node", "id": 10992584228, "lat": 17.5193243, "lon": 78.2908931, "tags": {"amenity": "bus_station", "bus": "yes", "name": "TSRTC BUS DEPOT , RAMACHANDRAPURAM", "public_transport": "station"}}, {"type": "node", "id": 10992584229, "lat": 17.5179648, "lon": 78.2883221, "tags": {"amenity": "bus_station", "bus": "yes", "name": "APSRTC BUS DEPOT , RAMACHANDRAPURAM", "public_transport": "station"}}, {"type": "node", "id": 10992584230, "lat": 17.5168229, "lon": 78.2890592, "tags": {"amenity": "bus_station", "bus": "yes", "name": "APSRTC BUS DEPOT PARKING AREA , RAMACHANDRAPURAM", "public_transport": "station"}}, {"type": "node", "id": 11185517430, "lat": 17.4017664, "lon": 78.5683813}, {"type": "node", "id": 11185517431, "lat": 17.4018474, "lon": 78.5683985}, {"type": "node", "id": 11185517432, "lat": 17.4019111, "lon": 78.5685085}, {"type": "node", "id": 11185517433, "lat": 17.4018887, "lon": 78.5685979}, {"type": "node", "id": 11185517434, "lat": 17.4017725, "lon": 78.568569}, {"type": "node", "id": 11185517435, "lat": 17.4016829, "lon": 78.5684923}, {"type": "way", "id": 107277811, "nodes": [1233345287, 1233345284, 1233345288, 1233345285, 1233345282, 1233345286, 1233345283, 1233345287], "tags": {"amenity": "bus_station", "designation": "bus shelter", "name": "CBIT bus stop", "source": "bing"}}, {"type": "way", "id": 115108010, "nodes": [1301965580, 1301965590, 1301965585, 1301965582, 1301965589, 1301965580], "tags": {"amenity": "bus_station", "name": "Kondapur Bus Depot"}}, {"type": "way", "id": 238188556, "nodes": [2460409278, 2460409275, 2460409270, 2460409253, 2460409247, 2460409246, 2460409245, 2460409274, 2460409278], "tags": {"amenity": "bus_station", "bus": "yes", "name": "Charminar Bus Station", "name:te": "\u0c1a\u0c3e\u0c30\u0c4d\u0c2e\u0c3f\u0c28\u0c3e\u0c30\u0c4d \u0c2c\u0c38\u0c4d \u0c38\u0c4d\u0c1f\u0c47\u0c37\u0c28\u0c4d", "public_transport": "station"}}, {"type": "way", "id": 331631270, "nodes": [3387336294, 3387336295, 3387336296, 3387336297, 3387336294], "tags": {"amenity": "bus_station", "building": "yes", "building:levels": "5", "name": "ecil bus stop", "name:en": "ECIL Bus station"}}, {"type": "way", "id": 339556151, "nodes": [2712432879, 3467755736, 8529405402, 8529405401, 8529405403, 3467755739, 2712432879], "tags": {"amenity": "bus_station", "name": "Khairatabad", "operator": "APSRTC"}}, {"type": "way", "id": 339783956, "nodes": [3469951117, 3469951118, 3469951119, 3469951120, 3469951121, 3469951122, 3469951117], "tags": {"amenity": "bus_station", "name": "Keerthi Mahal Bus Stop"}}, {"type": "way", "id": 356183317, "nodes": [3616831518, 8193358416, 3616831516, 3616831512, 8193358415, 3616831514, 3616831515, 3616831519, 3616831518], "tags": {"building": "service", "public_transport": "station"}}, {"type": "way", "id": 356266356, "nodes": [3617324856, 3617324850, 3617324835, 1869496195, 3617324831, 3617324832, 3617324839, 3617324842, 3617324856], "tags": {"building": "train_station", "internet_access": "no", "name": "Sanjeevaiah Park", "name:te": "\u0c38\u0c02\u0c1c\u0c40\u0c35\u0c2f\u0c4d\u0c2f \u0c2a\u0c3e\u0c30\u0c4d\u0c15\u0c4d", "name:ur": "\u0633\u0646\u062c\u06cc\u0648\u06cc\u0627 \u067e\u0627\u0631\u06a9", "network": "IR", "operator": "SCR", "platforms": "2", "public_transport": "station", "railway": "station", "ref": "SJVP", "train": "yes", "wikidata": "Q7418525", "wikipedia": "en:Sanjeevaiah Park railway station"}}, {"type": "way", "id": 500394347, "nodes": [4914586461, 3624506988, 3624506992, 4914586456, 4914586466, 4914586465, 4914586457, 4914586459, 4914586467, 10980317370, 4914586468, 4914586458, 4914586460, 4914586464, 4914586455, 4914586461], "tags": {"addr:city": "Secunderabad", "addr:postcode": "500003", "addr:street": "Station Road", "building": "train_station", "internet_access": "wlan", "internet_access:fee": "yes", "internet_access:ssid": "Rail Wire Free Wi-Fi", "name": "Secunderabad Junction", "name:hi": "\u0938\u093f\u0915\u0902\u0926\u0930\u093e\u092c\u093e\u0926 \u091c\u0902\u0915\u094d\u0936\u0928", "name:kn": "\u0cb8\u0cbf\u0c95\u0c82\u0ca6\u0cb0\u0cbe\u0cac\u0cbe\u0ca6\u0ccd \u0c9c\u0c82\u0c95\u0ccd\u0cb7\u0ca8\u0ccd", "name:ml": "\u0d38\u0d46\u0d15\u0d4d\u0d15\u0d28\u0d4d\u0d24\u0d30\u0d3e\u0d2c\u0d3e\u0d26\u0d4d \u0d1c\u0d02\u0d17\u0d4d\u0d37\u0d7b", "name:ta": "\u0b9a\u0bc6\u0b95\u0ba8\u0bcd\u0ba4\u0bbf\u0bb0\u0bbe\u0baa\u0bbe\u0ba4\u0bcd \u0b9a\u0ba8\u0bcd\u0ba4\u0bbf\u0baa\u0bcd\u0baa\u0bc1", "name:te": "\u0c38\u0c3f\u0c15\u0c3f\u0c02\u0c26\u0c4d\u0c30\u0c3e\u0c2c\u0c3e\u0c26\u0c4d \u0c1c\u0c02\u0c15\u0c4d\u0c37\u0c28\u0c4d", "name:ur": "\u0633\u06a9\u0646\u062f\u0631\u0622\u0628\u0627\u062f \u062c\u0646\u06a9\u0634\u0646", "network": "IR", "operator": "SCR", "platforms": "10", "public_transport": "station", "railway": "station", "train": "yes", "wheelchair": "yes", "wikidata": "Q7444810", "wikipedia": "en:Secunderabad Junction railway station"}}, {"type": "way", "id": 535571240, "nodes": [5190765165, 5190765166, 5190765167, 5190765168, 5190765169, 5190765170, 5190765165], "tags": {"amenity": "bus_station", "description": "26, 26M, 26N Bus nos from Secunderabad Station", "name": "Old Bowenpally Bus stop"}}, {"type": "way", "id": 535571241, "nodes": [5190765171, 5190765172, 5190765173, 5190765174, 5190765171], "tags": {"amenity": "bus_station", "description": "26, 26N, 26M Buses from Secunderbad Station", "name": "Hasmathpet Bus stop"}}, {"type": "way", "id": 657091805, "nodes": [6154498321, 6154498152, 6154498151, 6154498150, 6154498149, 6154498148, 6154498147, 2787194458, 5598599761, 6154498321], "tags": {"amenity": "bus_station", "building": "no", "bus": "yes", "name": "Mehdipatnam Bus Station", "operator": "TSRTC", "public_transport": "station"}}, {"type": "way", "id": 680291482, "nodes": [6369797518, 6369797515, 6369797516]}, {"type": "way", "id": 680291483, "nodes": [6369797516, 6369797517, 6369797518]}, {"type": "way", "id": 680470228, "nodes": [6371404750, 6375001443, 6375001440, 6371404751, 6371404752, 6375001441, 6375001442, 6371404753, 6371404750], "tags": {"amenity": "bus_station", "building": "yes", "bus": "yes", "name": "Rajeevgandhi nagar", "public_transport": "station"}}, {"type": "way", "id": 769175013, "nodes": [7180083268, 7180083269, 7180083270, 7180083271, 7180083268], "tags": {"amenity": "bus_station", "building": "yes", "bus": "yes", "name": "police line bus stop", "public_transport": "station"}}, {"type": "way", "id": 776648500, "nodes": [7246496329, 7246496330, 7246496331, 7246496332, 7246496329], "tags": {"amenity": "bus_station", "building": "yes", "bus": "yes", "public_transport": "station"}}, {"type": "way", "id": 778205647, "nodes": [7263004645, 7263004646, 7263004647, 7263004648, 7263004645], "tags": {"amenity": "bus_station", "building": "yes", "bus": "yes", "name": "Prashanth nagar bus stop", "public_transport": "station"}}, {"type": "way", "id": 842636938, "nodes": [7860889433, 7860889434, 9870023319, 7860889435, 7860889436, 7860889433], "tags": {"amenity": "bus_station", "building": "yes", "bus": "yes", "name": "Uppal X Road Bus Stop ( Towards Nagole )", "public_transport": "station"}}, {"type": "way", "id": 842636939, "nodes": [7860889437, 7860889438, 7860889439, 9870003643, 7860889440, 7860889437], "tags": {"amenity": "bus_station", "building": "yes", "bus": "yes", "name": "Uppal _ Nagole Bus Stop", "public_transport": "station"}}, {"type": "way", "id": 880917664, "nodes": [8193367693, 8193367692, 8193367691, 8193367690, 8193367693], "tags": {"amenity": "bus_station", "name": "HCU Bus Depot"}}, {"type": "way", "id": 965854387, "nodes": [8935145540, 8935145541, 8935145542, 8935145543, 8935145540], "tags": {"amenity": "bus_station", "building": "shed", "bus": "yes", "name": "Aeroexpress Boarding Point", "operator": "TSRTC", "public_transport": "station"}}, {"type": "way", "id": 1057078706, "nodes": [9713109124, 9713109125, 9713109129, 9713109126, 9713109127, 9713109128, 9713109124], "tags": {"amenity": "bus_station", "building": "yes", "bus": "yes", "public_transport": "station"}}, {"type": "way", "id": 1161982969, "nodes": [10806799944, 10806799945, 10806799946, 10806799948, 10806799947, 10806799950, 10806799944], "tags": {"amenity": "bus_station", "bus": "yes", "name": "Buses parts", "public_transport": "station"}}, {"type": "way", "id": 1163289546, "nodes": [10818832467, 10818832468, 10818832469, 10818832470, 10818832467], "tags": {"addr:city": "Uppal, Hyderabad", "addr:housenumber": "Metro station", "addr:postcode": "500039", "amenity": "bus_station", "bus": "yes", "internet_access": "yes", "name": "Metro Bus Station  Uppal", "public_transport": "station"}}, {"type": "way", "id": 1207148674, "nodes": [11185517430, 11185517431, 11185517432, 11185517433, 11185517434, 11185517435, 11185517430], "tags": {"amenity": "bus_station", "bus": "yes", "name": "Uppal Bus Station", "public_transport": "station"}}, {"type": "relation", "id": 9441715, "members": [{"type": "way", "ref": 680291482, "role": "outer"}, {"type": "way", "ref": 680291483, "role": "outer"}], "tags": {"addr:city": "Hyderabad", "addr:postcode": "500013", "addr:street": "moosarambagh road", "amenity": "bus_station", "building": "yes", "bus": "yes", "fixme": "Amberpet Busstop", "internet_access": "no", "name": "Amberpet Bus Station", "network": "All types of vehicles allowed", "operator": "persons", "public_transport": "station", "type": "multipolygon"}}]}